assessid,stockid,mgmt,assessor,country,region,area,area_code,stocklong,species,comm_name1,comm_name2,shp_source,shp_path,zone_col,zones,notes
ABARES-BGRDRSE-1960-2011-CHING,BGRDRSE,AFMA,ABARES,Australia,Australia,Southeast Australia,SE,Blue Grenadier Southeast Australia,Macruronus novaezelandiae,Hoki,New Zealand whiptail,Atlas of Living Australia,australia/ala/macruronus_novaezelandiae_dissolve.shp,NA,used all of southern Australia,
ADFG-HERRPWS-1980-2006-COLLIE,HERRPWS,AKSTATE,ADFG,USA,US Alaska,Prince William Sound,PWS,Pacific herring Prince William Sound,Clupea pallasii,Pacific herring,NA,Digitized from stock assessment,usa/digitized/pacific_herring_pws_erase.shp,ZONE,already dissolved,
ADFG-HERRSITKA-1978-2007-COLLIE,HERRSITKA,AKSTATE,ADFG,USA,US Alaska,Sitka,SITKA,Pacific herring Sitka,Clupea pallasii,Pacific herring,NA,Digitized from stock assessment,usa/digitized/pacific_herring_sitka_erase.shp,ZONE,already dissolved,
ADFG-HERRTOG-1990-2010-HIVELY,HERRTOG,AKSTATE,ADFG,USA,US Alaska,Togiak District,TOG,Herring Togiak District,Clupea pallasii,Pacific herring,NA,Digitized from stock assessment,usa/digitized/pacific_herring_togiak_erase.shp,ZONE,already dissolved,
AFSC-ALPLAICBSAI-1972-2010-STACHURA,ALPLAICBSAI,NMFS,AFSC,USA,US Alaska,Bering Sea and Aleutian Islands,BSAI,Alaska plaice Bering Sea and Aleutian Islands,Pleuronectes quadrituberculatus,Alaska plaice,NA,AKRO Alaska EFH Species Shapefiles,usa/noaa_ak_efh/EFH_2005.shp,TEXTLINK,BSAI Groundfish.htm#PLAICE_AK,"All life stages, clipped to MEOW EBS/AI"
AFSC-ARFLOUNDBSAI-1970-2010-STACHURA,ARFLOUNDBSAI,NMFS,AFSC,USA,US Alaska,Bering Sea and Aleutian Islands,BSAI,Arrowtooth flounder Bering Sea and Aleutian Islands,Reinhardtius stomias,Arrowtooth flounder,NA,AKRO Alaska EFH Species Shapefiles,usa/noaa_ak_efh/EFH_2005.shp,TEXTLINK,BSAI Groundfish.htm#FLOUND_AT,"All life stages, clipped to MEOW EBS/AI"
AFSC-ARFLOUNDGA-1958-2010-STACHURA,ARFLOUNDGA,NMFS,AFSC,USA,US Alaska,Gulf of Alaska,GA,Arrowtooth flounder Gulf of Alaska,Atheresthes stomias,NA,NA,AKRO Alaska EFH Species Shapefiles,usa/noaa_ak_efh/EFH_2005.shp,TEXTLINK,GOA Groundfish.htm#FLOUND_AT,"All life stages, clipped to MEOW GOA"
AFSC-ATKABSAI-1976-2011-STACHURA,ATKABSAI,NMFS,AFSC,USA,US Alaska,Bering Sea and Aleutian Islands,BSAI,Atka mackerel Bering Sea and Aleutian Islands,Pleurogrammus monopterygius,Atka mackerel,NA,AKRO Alaska EFH Species Shapefiles,usa/noaa_ak_efh/EFH_2005.shp,TEXTLINK,BSAI Groundfish.htm#MACK_ATKA,"All life stages, clipped to MEOW EBS/AI"
AFSC-BKINGCRABPI-1960-2008-JENSEN,BKINGCRABPI,NMFS,AFSC,USA,US Alaska,Pribilof Islands,PI,Blue king crab Pribilof Islands,Paralithodes platypus,Blue king crab,NA,AKRO Alaska EFH Species Shapefiles,usa/noaa_ak_efh/EFH_2005.shp,TEXTLINK,BSAI Crab.htm#CRAB_KB,"All life stages, subset to Pribolof Island polygon (south-center EBS)"
AFSC-BKINGCRABSMI-1960-2008-JENSEN,BKINGCRABSMI,NMFS,AFSC,USA,US Alaska,Saint Matthews Island,SMI,Blue king crab Saint Matthews Island,Paralithodes platypus,Blue king crab,NA,AKRO Alaska EFH Species Shapefiles,usa/noaa_ak_efh/EFH_2005.shp,TEXTLINK,BSAI Crab.htm#CRAB_KB,"All life stages, subset to Pribolof Island polygon (west-center EBS)"
AFSC-DSOLEGA-1978-2009-STACHURA,DSOLEGA,NMFS,AFSC,USA,US Alaska,Gulf of Alaska,GA,Dover sole Gulf of Alaska,Microstomus pacificus,Dover sole,NA,AKRO Alaska EFH Species Shapefiles,usa/noaa_ak_efh/EFH_2005.shp,TEXTLINK,GOA Groundfish.htm#SOLE_DOVER,"All life stages, clipped to MEOW GOA"
AFSC-DUSROCKGA-1973-2010-STACHURA,DUSROCKGA,NMFS,AFSC,USA,US Alaska,Gulf of Alaska,GA,Dusky rockfish Gulf of Alaska,Sebastes variabilis,Dusky rockfish,NA,AKRO Alaska EFH Species Shapefiles,usa/noaa_ak_efh/EFH_2005.shp,TEXTLINK,GOA Groundfish.htm#ROCKFISH_LD,"All life stages, clipped to MEOW GOA"
AFSC-FLSOLEBSAI-1974-2010-STACHURA,FLSOLEBSAI,NMFS,AFSC,USA,US Alaska,Bering Sea and Aleutian Islands,BSAI,Flathead sole Bering Sea and Aleutian Islands,Hippoglossoides elassodon,Flathead sole,NA,AKRO Alaska EFH Species Shapefiles,usa/noaa_ak_efh/EFH_2005.shp,TEXTLINK,BSAI Groundfish.htm#SOLE_FH,"All life stages, clipped to MEOW EBS/AI"
AFSC-FLSOLEGA-1978-2010-STACHURA,FLSOLEGA,NMFS,AFSC,USA,US Alaska,Gulf of Alaska,GA,Flathead sole Gulf of Alaska,Hippoglossoides elassodon,Flathead sole,NA,AKRO Alaska EFH Species Shapefiles,usa/noaa_ak_efh/EFH_2005.shp,TEXTLINK,GOA Groundfish.htm#SOLE_FH,"All life stages, clipped to MEOW GOA"
AFSC-GHALBSAI-1960-2015-HIVELY,GHALBSAI,NMFS,AFSC,USA,US Alaska,Bering Sea and Aleutian Islands,BSAI,Greenland turbot Bering Sea and Aleutian Islands,Reinhardtius hippoglossoides,Greenland halibut,Greenland turbot,AKRO Alaska EFH Species Shapefiles,usa/noaa_ak_efh/EFH_2005.shp,TEXTLINK,BSAI Groundfish.htm#TURBOT_GL,"All life stages, clipped to MEOW EBS/AI"
AFSC-NROCKBSAI-1974-2011-STACHURA,NROCKBSAI,NMFS,AFSC,USA,US Alaska,Bering Sea and Aleutian Islands,BSAI,Northern rockfish Bering Sea and Aleutian Islands,Sebastes polyspinis,Northern rockfish,NA,AKRO Alaska EFH Species Shapefiles,usa/noaa_ak_efh/EFH_2005.shp,TEXTLINK,BSAI Groundfish.htm#ROCKFISH_N,"All life stages, clipped to MEOW EBS/AI"
AFSC-NROCKGA-1959-2010-STACHURA,NROCKGA,NMFS,AFSC,USA,US Alaska,Gulf of Alaska,GA,Northern rockfish Gulf of Alaska,Sebastes polyspinis,Northern rockfish,NA,AKRO Alaska EFH Species Shapefiles,usa/noaa_ak_efh/EFH_2005.shp,TEXTLINK,GOA Groundfish.htm#ROCKFISH_N,"All life stages, clipped to MEOW GOA"
AFSC-NRSOLEEBSAI-1975-2012-HIVELY,NRSOLEEBSAI,NMFS,AFSC,USA,US Alaska,Eastern Bering Sea and Aleutian Islands,EBSAI,Northern rock sole Eastern Bering Sea and Aleutian Islands,Lepidopsetta polyxystra,Northern rock sole,NA,AKRO Alaska EFH Species Shapefiles,usa/noaa_ak_efh/EFH_2005.shp,TEXTLINK,BSAI Groundfish.htm#SOLE_RK,"All life stages, clipped to MEOW EBS/AI"
AFSC-PCODBSAI-1964-2013-CHING,PCODBSAI,NMFS,AFSC,USA,US Alaska,Bering Sea and Aleutian Islands,BSAI,Pacific cod Bering Sea and Aleutian Islands,Gadus macrocephalus,Pacific cod,NA,AKRO Alaska EFH Species Shapefiles,usa/noaa_ak_efh/EFH_2005.shp,TEXTLINK,BSAI Groundfish.htm#COD_PAC,"All life stages, clipped to MEOW EBS/AI"
AFSC-PCODGA-1977-2014-HIVELY,PCODGA,NMFS,AFSC,USA,US Alaska,Gulf of Alaska,GA,Pacific cod Gulf of Alaska,Gadus macrocephalus,Pacific cod,NA,AKRO Alaska EFH Species Shapefiles,usa/noaa_ak_efh/EFH_2005.shp,TEXTLINK,GOA Groundfish.htm#COD_PAC,"All life stages, clipped to MEOW GOA"
AFSC-PERCHEBSAI-1960-2011-STACHURA,PERCHEBSAI,NMFS,AFSC,USA,US Alaska,Eastern Bering Sea and Aleutian Islands,EBSAI,Pacific Ocean perch Eastern Bering Sea and Aleutian Islands,Sebastes alutus,Pacific ocean perch,NA,AKRO Alaska EFH Species Shapefiles,usa/noaa_ak_efh/EFH_2005.shp,TEXTLINK,BSAI Groundfish.htm#PERCH_PAC,"All life stages, clipped to MEOW EBS/AI"
AFSC-POPERCHGA-1959-2010-STACHURA,POPERCHGA,NMFS,AFSC,USA,US Alaska,Gulf of Alaska,GA,Pacific ocean perch Gulf of Alaska,Sebastes alutus,Pacific ocean perch,NA,AKRO Alaska EFH Species Shapefiles,usa/noaa_ak_efh/EFH_2005.shp,TEXTLINK,GOA Groundfish.htm#PERCH_PAC,"All life stages, clipped to MEOW GOA"
AFSC-REXSOLEGA-1979-2011-HIVELY,REXSOLEGA,NMFS,AFSC,USA,US Alaska,Gulf of Alaska,GA,Rex sole Gulf of Alaska,Glyptocephalus zachirus,Rex sole,NA,AKRO Alaska EFH Species Shapefiles,usa/noaa_ak_efh/EFH_2005.shp,TEXTLINK,GOA Groundfish.htm#SOLE_REX,"All life stages, clipped to MEOW GOA"
AFSC-REYEROCKBSAI-1974-2015-HIVELY,REYEROCKBSAI,NMFS,AFSC,USA,US Alaska,Bering Sea and Aleutian Islands,BSAI,Rougheye rockfish Bering Sea and Aleutian Islands,Sebastes aleutianus,Rougheye rockfish,NA,AKRO Alaska EFH Species Shapefiles,usa/noaa_ak_efh/EFH_2005.shp,TEXTLINK,BSAI Groundfish.htm#ROCKFISH_SR,"All life stages, clipped to MEOW EBS/AI"
AFSC-REYEROCKGA-1974-2010-STACHURA,REYEROCKGA,NMFS,AFSC,USA,US Alaska,Gulf of Alaska,GA,Rougheye rockfish Gulf of Alaska,Sebastes aleutianus,Rougheye rockfish,NA,AKRO Alaska EFH Species Shapefiles,usa/noaa_ak_efh/EFH_2005.shp,TEXTLINK,GOA Groundfish.htm#ROCKFISH_SR,"All life stages, clipped to MEOW GOA"
AFSC-RKCRABBB-1960-2008-JENSEN,RKCRABBB,NMFS,AFSC,USA,US Alaska,Bristol Bay,BB,Red king crab Bristol Bay,Paralithodes camtschaticus,Red king crab,NA,AKRO Alaska EFH Species Shapefiles,usa/noaa_ak_efh/EFH_2005.shp,TEXTLINK,BSAI Crab.htm#CRAB_KR,"All life stages, subset to Bristol Bay polygon (big one)"
AFSC-RKCRABNS-1976-2008-JENSEN,RKCRABNS,NMFS,AFSC,USA,US Alaska,Norton Sound,NS,Red king crab Norton Sound,Paralithodes camtschaticus,Red king crab,NA,AKRO Alaska EFH Species Shapefiles,usa/noaa_ak_efh/EFH_2005.shp,TEXTLINK,BSAI Crab.htm#CRAB_KR,"All life stages, subset to Norton Sound polygon (long east-west sliver, far north)"
AFSC-RKCRABPI-1981-2009-JENSEN,RKCRABPI,NMFS,AFSC,USA,US Alaska,Pribilof Islands,PI,Red king crab Pribilof Islands,Paralithodes camtschaticus,Red king crab,NA,AKRO Alaska EFH Species Shapefiles,usa/noaa_ak_efh/EFH_2005.shp,TEXTLINK,BSAI Crab.htm#CRAB_KR,"All life stages, subset to Pribolof Island polygon (south-center EBS)"
AFSC-SABLEFEBSAIGA-1958-2010-STACHURA,SABLEFEBSAIGA,NMFS,AFSC,USA,US Alaska,Eastern Bering Sea / Aleutian Islands / Gulf of Alaska,EBSAIGA,Sablefish Eastern Bering Sea / Aleutian Islands / Gulf of Alaska,Anoplopoma fimbria,Sablefish,NA,AKRO Alaska EFH Species Shapefiles,usa/noaa_ak_efh/EFH_2005.shp,TEXTLINK,BSAI Groundfish.htm#SABLEFISH,"All life stages, clipped to MEOW GOA/EBS/AI"
AFSC-SNOWCRABBS-1978-2013-HIVELY,SNOWCRABBS,NMFS,AFSC,USA,US Alaska,Bering Sea,BS,Snow crab Bering Sea,Chionoecetes opilio,Snow crab,NA,AKRO Alaska EFH Species Shapefiles,usa/noaa_ak_efh/EFH_2005.shp,TEXTLINK,BSAI Crab.htm#CRAB_S,use whole layer
AFSC-SRAKEROCKBSAI-1977-2010-STACHURA,SRAKEROCKBSAI,NMFS,AFSC,USA,US Alaska,Bering Sea and Aleutian Islands,BSAI,Shortraker rockfish Bering Sea and Aleutian Islands,Sebastes borealis,Shortraker rockfish,NA,AKRO Alaska EFH Species Shapefiles,usa/noaa_ak_efh/EFH_2005.shp,TEXTLINK,BSAI Groundfish.htm#ROCKFISH_SR,"All life stages, clipped to MEOW EBS/AI"
AFSC-TANNERCRABBSAI-1949-2013-HIVELY,TANNERCRABBSAI,NMFS,AFSC,USA,US Alaska,Bering Sea and Aleutian Islands,BSAI,Tanner crab Bering Sea and Aleutian Islands,Chionoecetes bairdi,Tanner crab,NA,AKRO Alaska EFH Species Shapefiles,usa/noaa_ak_efh/EFH_2005.shp,TEXTLINK,BSAI Crab.htm#CRAB_T,use whole layer
AFSC-WPOLLAI-1976-2013-CHING,WPOLLAI,NMFS,AFSC,USA,US Alaska,Aleutian Islands,AI,Walleye pollock Aleutian Islands,Theragra chalcogramma,Walleye pollock,NA,AKRO Alaska EFH Species Shapefiles,usa/noaa_ak_efh/EFH_2005.shp,TEXTLINK,BSAI Groundfish.htm#POLLOCK_W,"All life stages, clipped to MEOW AI"
AFSC-WPOLLEBS-1963-2015-HIVELY,WPOLLEBS,NMFS,AFSC,USA,US Alaska,Eastern Bering Sea,EBS,Walleye pollock Eastern Bering Sea,Theragra chalcogramma,Walleye pollock,NA,AKRO Alaska EFH Species Shapefiles,usa/noaa_ak_efh/EFH_2005.shp,TEXTLINK,BSAI Groundfish.htm#POLLOCK_W,"All life stages, clipped to MEOW EBS"
AFSC-WPOLLGA-1970-2014-HIVELY,WPOLLGA,NMFS,AFSC,USA,US Alaska,Gulf of Alaska,GA,Walleye pollock Gulf of Alaska,Theragra chalcogramma,Walleye pollock,NA,AKRO Alaska EFH Species Shapefiles,usa/noaa_ak_efh/EFH_2005.shp,TEXTLINK,GOA Groundfish.htm#POLLOCK_W,"All life stages, clipped to MEOW GOA"
AFSC-YSOLEBSAI-1949-2010-STACHURA,YSOLEBSAI,NMFS,AFSC,USA,US Alaska,Bering Sea and Aleutian Islands,BSAI,Yellowfin sole Bering Sea and Aleutian Islands,Limanda aspera,Yellowfin sole,NA,AKRO Alaska EFH Species Shapefiles,usa/noaa_ak_efh/EFH_2005.shp,TEXTLINK,BSAI Groundfish.htm#SOLE_YF,"All life stages, clipped to MEOW EBS"
AFWG-CAPENOR-1965-2007-MINTO,CAPENOR,ICES,AFWG,Europe,Europe non EU,Barents Sea,I,Capelin Barents Sea,Mallotus villosus,Capelin,NA,ICES website,europe/ices/ices_areas.shp,ICES_area,"Ia, Ib",
AFWG-CODNEAR-1946-2011-CHING,CODNEAR,ICES,AFWG,Europe,Europe non EU,North-East Arctic,I-II,Atlantic cod Northeast Arctic,Gadus morhua,Atlantic cod,NA,ICES website,europe/ices/ices_areas.shp,ICES_area,"Ia, Ib, IIa1, IIa2, IIb1, IIb2",
AFWG-GHALNEAR-1960-2010-NEUBAUER,GHALNEAR,ICES,AFWG,Europe,Europe non EU,North-East Arctic,I-II,Greenland halibut Northeast Arctic,Reinhardtius hippoglossoides,Greenland halibut,Greenland turbot,ICES website,europe/ices/ices_areas.shp,ICES_area,"Ia, Ib, IIa1, IIa2, IIb1, IIb2",
AFWG-GOLDREDNEAR-1983-2010-NEUBAUER,GOLDREDNEAR,ICES,AFWG,Europe,Europe non EU,North-East Arctic,I-II,Golden Redfish Northeast Arctic,Sebastes norvegicus,Golden Redfish,NA,ICES website,europe/ices/ices_areas.shp,ICES_area,"Ia, Ib, IIa1, IIa2, IIb1, IIb2",
AFWG-HADNEAR-1947-2012-CHING,HADNEAR,ICES,AFWG,Europe,Europe non EU,North-East Arctic,I-II,Haddock Northeast Arctic,Melanogrammus aeglefinus,Haddock,NA,ICES website,europe/ices/ices_areas.shp,ICES_area,"Ia, Ib, IIa1, IIa2, IIb1, IIb2",
AFWG-POLLNEAR-1957-2012-CHING,POLLNEAR,ICES,AFWG,Europe,Europe non EU,North-East Arctic,I-II,Pollock Northeast Arctic,Pollachius virens,Pollock,Saithe,ICES website,europe/ices/ices_areas.shp,ICES_area,"Ia, Ib, IIa1, IIa2, IIb1, IIb2",
AFWG-REDDEEPI-II-1985-2006-MINTO,REDDEEPI-II,ICES,AFWG,Europe,Europe non EU,North-East Arctic,I-II,Deepwater Redfish Northeast Arctic,Sebastes mentella,Deepwater redfish,Redfish,ICES website,europe/ices/ices_areas.shp,ICES_area,"Ia, Ib, IIa1, IIa2, IIb1, IIb2",
ASMFC-ATLCROAKMATLC-1973-2002-STANTON,ATLCROAKMATLC,NMFS,ASMFC,USA,US East Coast,Mid-Atlantic Coast,MATLC,Atlantic croaker Mid-Atlantic Coast,Micropogonias undulatus,Atlantic croaker,NA,US EEZ clipped to SC/NC border to Long Island,usa/eez/eez_lr_usa_east_coast_split.shp,ZONE,US EEZ clipped to SC/NC border to Long Island,US EEZ clipped to SC/NC border to Long Island
ASMFC-LOBSTERGB-1981-2007-STANTON,LOBSTERGB,NMFS,ASMFC,USA,US East Coast,Georges Bank,5Z,American lobster Georges Bank,Homarus americanus,American lobster,NA,NEFSC Statistical Areas,usa/nefsc_stat_areas/Statistical_Areas_2010_withNames.shp,Id,"521, 522, 525, 526, 561, 562","No EFH available; based on stat areas (Figure 1.1, pg. 185 recent assessment)"
ASMFC-LOBSTERGOM-1981-2007-STANTON,LOBSTERGOM,NMFS,ASMFC,USA,US East Coast,Gulf of Maine,5Y,American lobster Gulf of Maine,Homarus americanus,American lobster,NA,NEFSC Statistical Areas,usa/nefsc_stat_areas/Statistical_Areas_2010_withNames.shp,Id,"511, 512, 513, 514, 515","No EFH available; based on stat areas (Figure 1.1, pg. 185 recent assessment)"
ASMFC-LOBSTERSNE-1981-2007-STANTON,LOBSTERSNE,NMFS,ASMFC,USA,US East Coast,Southern New England,SNE,American lobster Southern New England,Homarus americanus,American lobster,NA,NEFSC Statistical Areas,usa/nefsc_stat_areas/Statistical_Areas_2010_withNames.shp,Id,"537, 538, 539, 611, 612, 613, 614, 615, 621, 622, 623, 625, 626","No EFH available; based on stat areas (Figure 1.1, pg. 185 recent assessment)"
ASMFC-PANDALGOM-1960-2009-IDOINE,PANDALGOM,NMFS,ASMFC,USA,US East Coast,Gulf of Maine,5Y,Northern shrimp Gulf of Maine,Pandalus borealis,Northern shrimp,NA,NAFO GIS website,canada/nafo/Divisions.shp,ZONE,5Y,5Y
CBP-BCRABCHESB-1990-2010-HIVELY,BCRABCHESB,MDSTATE,CBP,USA,US East Coast,Cheapeake Bay,CHESB,Blue Crab Chesapeake Bay,Callinectes sapidus,Blue Crab,NA,US EEZ clipped to Chesapeake,usa/eez/eez.shp,ZONE,US EEZ clipped to Chesapeake,US EEZ clipped to Chesapeake
CCAMLR-ATOOTHFISHRS-1995-2007-JENSEN,ATOOTHFISHRS,CCAMLR,CCAMLR,Antarctica,Antarctic,Ross Sea,RS,Antarctic toothfish Ross Sea,Dissostichus mawsoni,Antarctic toothfish,NA,FAO website,multinational/fao/FAO_AREAS.shp,F_SUBAREA,"88.1, 88.2",Ross Sea
CCSBT-SC-SBT-1952-2014-PONS,SBT,CCSBT,CCSBT-SC,Tuna-RFMO,Indian Ocean,Southern Oceans,SO,Southern bluefin tuna Southern Oceans,Thunnus maccoyii,Southern bluefin tuna,NA,RFMO/RFB shapfile database,tuna/CCSBT_dissolve_erase.shp,NA,already dissolved,Full CCSBT area of competence
CNR-IAMC-SARDMEDGSA16-1998-2011-BANOBI,SARDMEDGSA16,GFCM,CNR-IAMC,Europe,Mediterranean-Black Sea,South of Sicily,GSA16,Sardine South of Sicily,Sardina pilchardus,European pilchard,Spanish sardine,FAO website,europe/gfcm/GSAs_simplified,SECT_COD,GSA16,
CSERG-ANCHOVYKILKACS-1991-2007-JENSEN,ANCHOVYKILKACS,Iran,CSERG,Iran,Other,Iranian Caspian Sea,CS,Anchovy kilka Caspian Sea,Clupeonella engrauliformis,Anchovy kilka,Anchovy sprat,Caspian Sea shapefile from GLWD,iran/caspian_sea_iran.shp,ZONE,already dissolved,Clipped GLWD Caspian Sea to Iranian waters
CSIRO-BIGHTREDSE-1958-2007-FULTON,BIGHTREDSE,AFMA,CSIRO,Australia,Australia,Southeast Australia,SE,Bight redfish Southeast Australia,Centroberyx gerrardi,Bight redfish,NA,Atlas of Living Australia,australia/ala/centroberyx_gerrardi_dissolve,NA,used all of southern Australia,Entire distribution - even though primarily caught in GAB
CSIRO-BTSHRIMPNAUST-1970-2006-FULTON,BTSHRIMPNAUST,AFMA,CSIRO,Australia,Australia,Northern Australia,NAUST,Northern Australia brown tiger shrimp,Penaeus esculentus,Brown tiger shrimp,Brown tiger prawn,Digitized catch from AFMA image,australia/ala/prawn_catch_distribution_erase_dissolve.shp,NA,Digitized catch from AFMA image,
CSIRO-DEEPFLATHEADSE-1978-2007-FULTON,DEEPFLATHEADSE,AFMA,CSIRO,Australia,Australia,Southeast Australia,SE,Deepwater flathead Southeast Australia,Platycephalus conatus,Deepwater flathead,NA,Atlas of Living Australia,australia/ala/platycephalus_conatus_dissolve.shp,NA,used all of southeast Australia,
CSIRO-GEMFISHSE-1966-2007-FULTON,GEMFISHSE,AFMA,CSIRO,Australia,Australia,Southeast Australia,SE,common gemfish Southeast Australia,Rexea solandri,common gemfish,hake,Atlas of Living Australia,australia/ala/rexea_solandri_dissolve.shp,NA,Gemfish distribution clipped to Australian EEZ,
CSIRO-GTPRAWNNAUST-1970-2006-FULTON,GTPRAWNNAUST,AFMA,CSIRO,Australia,Australia,Northern Australia,NAUST,Northern Australia grooved Tiger Prawn,Penaeus semisulcatus,NA,NA,Digitized catch from AFMA image,australia/ala/prawn_catch_distribution_erase_dissolve.shp,NA,Digitized catch from AFMA image,
CSIRO-MORWONGSE-1913-2007-FULTON,MORWONGSE,AFMA,CSIRO,Australia,Australia,Southeast Australia,SE,Jackass morwong Southeast Australia,Nemadactylus macropterus,Hawaiian morwong,Jackass morwong,Atlas of Living Australia,australia/ala/nemadactylus_macropterus_dissolve.shp,NA,used all of southern Australia,
CSIRO-NZLINGESE-1968-2007-FULTON,NZLINGESE,AFMA,CSIRO,Australia,Australia,Southeast Australia,SE,New Zealand ling Eastern half of Southeast Australia,Genypterus blacodes,New Zealand ling,NA,Atlas of Living Australia,australia/ala/genypterus_blacodes_dissolve.shp,NA,split in Bass Strait,
CSIRO-NZLINGWSE-1968-2007-FULTON,NZLINGWSE,AFMA,CSIRO,Australia,Australia,Western half of Southeast Australia,WSE,New Zealand ling Western half of Southeast Australia,Genypterus blacodes,New Zealand ling,NA,Atlas of Living Australia,australia/ala/genypterus_blacodes_dissolve.shp,NA,split in Bass Strait,
CSIRO-OROUGHYCASCADE-1987-2006-FULTON,OROUGHYCASCADE,AFMA,CSIRO,Australia,Australia,Cascade Plateau,CASCADE,Orange roughy Cascade Plateau,Hoplostethus atlanticus,Orange roughy,NA,Atlas of Living Australia,australia/ala/Hoplostethus_atlanticus.shp,NA,grabbed only the tiny Cascade Plateau part,
CSIRO-OROUGHYSE-1978-2007-FULTON,OROUGHYSE,AFMA,CSIRO,Australia,Australia,Southeast Australia,SE,Orange roughy Southeast Australia,Hoplostethus atlanticus,Orange roughy,NA,Atlas of Living Australia,australia/ala/Hoplostethus_atlanticus.shp,NA,Grabbed all but the offshore parts,
CSIRO-PTOOTHFISHMI-1975-2010-FAY,PTOOTHFISHMI,AFMA,CSIRO,Australia,Australia,Macquarie Island,MI,Patagonian toothfish Macquarie Island,Dissostichus eleginoides,Patagonian toothfish,NA,Macquarie Island EEZ,eez_lr.shp,NA,Macquarie Island EEZ,
CSIRO-SILVERFISHSE-1978-2006-FULTON,SILVERFISHSE,AFMA,CSIRO,Australia,Australia,Southeast Australia,SE,Silverfish Southeast Australia,Seriolella punctata,Silverfish,NA,Atlas of Living Australia,australia/ala/seriolella_punctata_dissolve.shp,NA,used all of southeast Australia,
CSIRO-SWHITSE-1945-2007-FULTON,SWHITSE,AFMA,CSIRO,Australia,Australia,Southeast Australia,SE,School whiting Southeast Australia,Sillago flindersi,School whiting,NA,Atlas of Living Australia,australia/ala/sillago_flindersi_dissolve.shp,NA,used all of southeast Australia,
CSIRO-TIGERFLATSE-1913-2006-FULTON,TIGERFLATSE,AFMA,CSIRO,Australia,Australia,Southeast Australia,SE,Tiger flathead Southeast Australia,Neoplatycephalus richardsoni,Tiger flathead,NA,Atlas of Living Australia,australia/ala/platycephalus_richardsoni_dissolve.shp,NA,used all of southeast Australia,
CSIRO-WAREHOUESE-1984-2006-FULTON,WAREHOUESE,AFMA,CSIRO,Australia,Australia,Eastern half of Southeast Australia,ESE,Blue Warehou Eastern half of Southeast Australia,Seriolella brama,whario,Blue Warehou,Atlas of Living Australia,australia/ala/seriolella_brama_dissolve.shp,NA,split in Bass Strait,East Bass Strait
CSIRO-WAREHOUWSE-1984-2006-FULTON,WAREHOUWSE,AFMA,CSIRO,Australia,Australia,Western half of Southeast Australia,WSE,Blue Warehou Western half of Southeast Australia,Seriolella brama,whario,Blue Warehou,Atlas of Living Australia,australia/ala/seriolella_brama_dissolve.shp,NA,split in Bass Strait,West Bass Strait
DFO-ACADRED2J3K-1960-2010-WATSON,ACADRED2J3K,DFO,DFO,Canada,Canada East Coast,NAFO Division 2J3K,2J3K,Acadian redfish NAFO-2J3K,Sebastes fasciatus,Acadian redfish,Redfish,NAFO GIS website,canada/nafo/Divisions.shp,ZONE,"2J, 3K",
DFO-ACADRED3LNO-UT12-1960-2010-WATSON,ACADRED3LNO-UT12,DFO,DFO,Canada,Canada East Coast,NAFO Division 3LNO and Units 1 and 2,3LNO-UT12,Acadian redfish Units 1-2 and NAFO-3LNO,Sebastes fasciatus,Acadian redfish,Redfish,NAFO GIS website,canada/nafo/Divisions.shp,ZONE,3M,
DFO-ACADREDUT3-1960-2010-WATSON,ACADREDUT3,DFO,DFO,Canada,Canada East Coast,Unit 3,UT3,Acadian redfish Unit 3,Sebastes fasciatus,Acadian redfish,Redfish,Scott Coffen-Smout (DFO),canada/east_coast_dfo/dfo_east_redfish_units.shp,UNIT,Unit 3,
DFO-AMPL23K-1960-2012-WATSON,AMPL23K,DFO,DFO,Canada,Canada East Coast,Labrador - NE Newfoundland,23K,American Plaice NAFO-23K,Hippoglossoides platessoides,American plaice,NA,NAFO GIS website,canada/nafo/Divisions.shp,ZONE,"2G, 2H, 2J, 3K",
DFO-AMPL3Ps-1960-2013-WATSON,AMPL3Ps,DFO,DFO,Canada,Canada East Coast,St. Pierre Bank,3Ps,American Plaice NAFO-3Ps,Hippoglossoides platessoides,American plaice,NA,NAFO GIS website,canada/nafo/Divisions.shp,ZONE,3Ps,
DFO-AMPL4T-1965-2012-WATSON,AMPL4T,DFO,DFO,Canada,Canada East Coast,Southern Gulf of St. Lawrence,4T,American plaice Southern Gulf of St. Lawrence,Hippoglossoides platessoides,American plaice,NA,NAFO GIS website,canada/nafo/Divisions.shp,ZONE,4T,
DFO-AMPL4VWX-1961-2010-WATSON,AMPL4VWX,DFO,DFO,Canada,Canada East Coast,Scotian Shelf and Bay of Fundy,4VWX,American plaice Scotian Shelf and Bay of Fundy,Hippoglossoides platessoides,American plaice,NA,NAFO GIS website,canada/nafo/Divisions.shp,ZONE,"4Vs, 4Vn, 4W, 4X",
DFO-ARCSURFGB-1989-2010-WATSON,ARCSURFGB,DFO,DFO,Canada,Canada East Coast,Division 3LNO,3LNO,Arctic surfclam Grand Bank,Mactromeris polynyma,Arctic surfclam,NA,NAFO GIS website,canada/nafo/Divisions.shp,ZONE,"3L, 3N, 3O",
DFO-ARCTIC-PANDALSFA2-3-1979-2015-WATSON,PANDALSFA2-3,DFO,DFO-ARCTIC,Canada,Canada East Coast,Shrimp Fishing Areas 2-3,SFA2-3,Northern shrimp Shrimp Fishing Areas 2-3,Pandalus borealis,Northern shrimp,NA,Scott Coffen-Smout (DFO),canada/east_coast_dfo/dfo_east_shrimp_fishing_areas.shp,ZONE_1,"2, 3",
DFO-ARCTIC-STRSHRIMPSFA2-3-1979-2010-CHING,STRSHRIMPSFA2-3,DFO,DFO-ARCTIC,Canada,Canada East Coast,Shrimp Fishing Areas 2-3,SFA2-3,Aesop shrimp Shrimp Fishing Areas 2-3,Pandalus montagui,Aesop shrimp,NA,Scott Coffen-Smout (DFO),canada/east_coast_dfo/dfo_east_shrimp_fishing_areas.shp,ZONE_1,"2, 3",
DFO-ATHAL3NOPs4VWX5Zc-1970-2014-WATSON,ATHAL3NOPs4VWX5Zc,DFO,DFO,Canada,Canada East Coast,Scotian Shelf and Southern Grand Banks,3NOPs4VWX5Zc,Atlantic halibut Scotian Shelf and Southern Grand Banks,Hippoglossus hippoglossus,Atlantic Halibut,NA,NAFO GIS website,canada/nafo/Divisions.shp,ZONE,"3N, 3O, 3Ps, 4Vs, 4Vn, 4W, 4X",I looked up the areas in the stock assessment.
DFO-CAPE4RST-1960-2012-WATSON,CAPE4RST,DFO,DFO,Canada,Canada East Coast,Gulf of St. Lawrence,4RST,Capelin Gulf of St. Lawrence,Mallotus villosus,Capelin,NA,NAFO GIS website,canada/nafo/Divisions.shp,ZONE,"4R, 4S, 4T",
DFO-COD2J3KL-1959-2014-WATSON,COD2J3KL,DFO,DFO,Canada,Canada East Coast,Southern Labrador-Eastern Newfoundland,2J3KL,Atlantic cod NAFO 2J3KL,Gadus morhua,Atlantic cod,NA,NAFO GIS website,canada/nafo/Divisions.shp,ZONE,"2J, 3K, 3L",
DFO-COD3Pn4RS-1964-2015-WATSON,COD3Pn4RS,DFO,DFO,Canada,Canada East Coast,Northern Gulf of St. Lawrence,3Pn4RS,Atlantic cod NAFO 3Pn4RS,Gadus morhua,Atlantic cod,NA,NAFO GIS website,canada/nafo/Divisions.shp,ZONE,"3Pn, 4R, 4S",
DFO-COD3Ps-1980-2014-WATSON,COD3Ps,DFO,DFO,Canada,Canada East Coast,St. Pierre Bank,3Ps,Atlantic cod NAFO 3Ps,Gadus morhua,Atlantic cod,NA,NAFO GIS website,canada/nafo/Divisions.shp,ZONE,3Ps,
DFO-COD4TVn-1965-2015-WATSON,COD4TVn,DFO,DFO,Canada,Canada East Coast,Southern Gulf of St. Lawrence,4T,Atlantic cod NAFO 4TVn,Gadus morhua,Atlantic cod,NA,NAFO GIS website,canada/nafo/Divisions.shp,ZONE,4T,
DFO-COD4X5Yb-1948-2009-WATSON,COD4X5Yb,DFO,DFO,Canada,Canada East Coast,"Western Scotian Shelf, Bay of Fundy and Gulf of Maine",4X5Yb,"Atlantic cod Western Scotian Shelf, Bay of Fundy and Gulf of Maine",Gadus morhua,Atlantic cod,NA,NAFO GIS website,canada/nafo/Divisions.shp,ZONE,"4X, 5Y",
DFO-COD5Zjm-1978-2010-WATSON,COD5Zjm,DFO,DFO,Canada,US East Coast,Georges Bank,5Zjm,Atlantic cod NAFO 5Zjm,Gadus morhua,Atlantic cod,NA,NAFO GIS website,canada/nafo/Divisions.shp,ZONE,"5Ze, 5Zw",
DFO-CROCKWCVANISOGQCI-1945-2009-STANTON,CROCKWCVANISOGQCI,DFO,DFO,Canada,Canada West Coast,West Coast of Vancouver Island and Straight of Georgia and Queen Charlotte Islands,WCVANI-SOG-QCI,Canary rockfish West Coast of Vancouver Island and Straight of Georgia and Queen Charlotte Islands,Sebastes pinniger,Canary rockfish,NA,Digitized from stock assessment,canada/west_coast/df_west_boccaccio_canary_rockfish_erase.shp,NA,already dissolved,
DFO-EULAPCOASTCCDU-1951-2012-WATSON,EULAPCOASTCCDU,DFO,DFO,Canada,Canada West Coast,Pacific Coast of Canada Central Coast Designatable Unit,PCOASTCCDU,Eulachon Pacific Coast of Canada Central Coast DU,Thaleichthys pacificus,Eulachon,NA,Digitized from stock assessment,canada/west_coast/dfo_west_eulachon_designatable_units_erase.shp,NA,already dissolved,
DFO-EULAPCOASTFRDU-1900-2012-WATSON,EULAPCOASTFRDU,DFO,DFO,Canada,Canada West Coast,Pacific Coast of Canada Fraser River Designatable Unit,PCOASTFRDU,Eulachon Pacific Coast of Canada Fraser River DU,Thaleichthys pacificus,Eulachon,NA,Digitized from stock assessment,canada/west_coast/dfo_west_eulachon_designatable_units_erase.shp,NA,already dissolved,
DFO-EULAPCOASTNSDU-1951-2012-WATSON,EULAPCOASTNSDU,DFO,DFO,Canada,Canada West Coast,Pacific Coast of Canada Nass / Skeena Designatable Unit,PCOASTNSDU,Eulachon Pacific Coast of Canada Nass / Skeena DU,Thaleichthys pacificus,Eulachon,NA,Digitized from stock assessment,canada/west_coast/dfo_west_eulachon_designatable_units_erase.shp,NA,already dissolved,
DFO-GHAL4RST-1970-2015-WATSON,GHAL4RST,DFO,DFO,Canada,Canada East Coast,Gulf of St. Lawrence,4RST,Greenland halibut NAFO 4RST,Reinhardtius hippoglossoides,Greenland halibut,Greenland turbot,NAFO GIS website,canada/nafo/Divisions.shp,ZONE,"4R, 4S, 4T",
DFO-HAD3LNO-1953-2013-WATSON,HAD3LNO,NAFO,NAFO-SC,North Atlantic,Canada East Coast,Grand Banks,3LNO,Haddock NAFO 3LNO,Melanogrammus aeglefinus,Haddock,NA,NAFO GIS website,canada/nafo/Divisions.shp,ZONE,"3L, 3N, 3O",
DFO-HAD4X5Y-1970-2014-WATSON,HAD4X5Y,DFO,DFO,Canada,Canada East Coast,"Western Scotian Shelf, Bay of Fundy and Gulf of Maine",4X5Y,Haddock NAFO-4X5Y,Melanogrammus aeglefinus,Haddock,NA,NAFO GIS website,canada/nafo/Divisions.shp,ZONE,"4X, 5Y",
DFO-HERR4TFA-1978-2014-WATSON,HERR4TFA,DFO,DFO,Canada,Canada East Coast,Southern Gulf of St. Lawrence,4T,Herring NAFO 4T fall spawners,Clupea harengus,Herring,Atlantic herring,NAFO GIS website,canada/nafo/Divisions.shp,ZONE,4T,
DFO-HERR4TSP-1978-2014-WATSON,HERR4TSP,DFO,DFO,Canada,Canada East Coast,Southern Gulf of St. Lawrence,4T,Herring NAFO 4T spring spawners,Clupea harengus,Herring,Atlantic herring,NAFO GIS website,canada/nafo/Divisions.shp,ZONE,4T,
DFO-HERR4VWX-1963-2012-WATSON,HERR4VWX,DFO,DFO,Canada,Canada East Coast,Scotian Shelf and Bay of Fundy,4VWX,Herring Scotian Shelf and Bay of Fundy,Clupea harengus,Herring,Atlantic herring,NAFO GIS website,canada/nafo/Divisions.shp,ZONE,"4Vs, 4Vn, 4W, 4X",
DFO-HERRCC-1951-2015-WATSON,HERRCC,DFO,DFO,Canada,Canada West Coast,Central Coast,CC,Pacific herring Central Coast,Clupea pallasii,Pacific herring,NA,Digitized Pacific herring stock map,canada/west_coast/dfo_pacific_herring_stocks.shp,STOCK,Central Coast,
DFO-HERRNFLDESC-1966-2014-WATSON,HERRNFLDESC,DFO,DFO,Canada,Canada East Coast,Newfoundland East and South Coast,NFLDESC,Herring Newfoundland East and South Coast,Clupea harengus,Herring,Atlantic herring,NAFO GIS website,canada/nafo/Divisions.shp,ZONE,"3K, 3L, 3Ps, 4R",http://www.dfo-mpo.gc.ca/fm-gp/sustainable-durable/fisheries-peches/herring-hareng-eng.htm
DFO-HERRPRD-1951-2015-WATSON,HERRPRD,DFO,DFO,Canada,Canada West Coast,Prince Rupert District,PRD,Pacific herring Prince Rupert District,Clupea pallasii,Pacific herring,NA,Digitized Pacific herring stock map,canada/west_coast/dfo_pacific_herring_stocks.shp,STOCK,Prince Rupert District,
DFO-HERRQCI-1951-2015-WATSON,HERRQCI,DFO,DFO,Canada,Canada West Coast,Queen Charlotte Islands,QCI,Pacific herring Queen Charlotte Islands,Clupea pallasii,Pacific herring,NA,Digitized Pacific herring stock map,canada/west_coast/dfo_pacific_herring_stocks.shp,STOCK,Queen Charlotte Islands,
DFO-HERRSOG-1951-2015-WATSON,HERRSOG,DFO,DFO,Canada,Canada West Coast,Straight of Georgia,SOG,Pacific herring Straight of Georgia,Clupea pallasii,Pacific herring,NA,PSMFC regions (digitized by me),canada/west_coast/psmfc_mgmt_areas_erase.shp,ZONE,4B,
DFO-HERRWCVANI-1951-2015-WATSON,HERRWCVANI,DFO,DFO,Canada,Canada West Coast,West Coast of Vancouver Island,WCVANI,Pacific herring West Coast of Vancouver Island,Clupea pallasii,Pacific herring,NA,PSMFC regions (digitized by me),canada/west_coast/psmfc_mgmt_areas_erase.shp,ZONE,"3C, 3D",
DFO-LOBSTERLFA3-14-1960-2012-WATSON,LOBSTERLFA3-14,DFO,DFO,Canada,Canada East Coast,Lobster Fishing Areas 3-14,LFA3-14,American lobster LFA 3-14,Homarus americanus,American lobster,NA,Scott Coffen-Smout (DFO),canada/east_coast_dfo/dfo_east_lobster_fishing_areas.shp,ZONE,"3, 4, 5, 6, 7, 8, 9, 10, 11, 12, 13A, 13B, 14A, 14B, 14C",
DFO-LOBSTERLFA41-1981-2012-WATSON,LOBSTERLFA41,DFO,DFO,Canada,Canada East Coast,Lobster Fishing Area 41,LFA41,American Lobster LFA 41,Homarus americanus,American lobster,NA,Scott Coffen-Smout (DFO),canada/east_coast_dfo/dfo_east_lobster_fishing_areas.shp,ZONE,41,
DFO-MACKNWATLSA3-4-1968-2014-WATSON,MACKNWATLSA3-4,DFO,DFO,Canada,Canada East Coast,Northwest Atlantic (NAFO Subareas 3 and 4),NWATLSA3-4,Mackerel Northwest Atlantic (NAFO Subareas 3 and 4),Scomber scombrus,Mackerel,Atlantic mackerel,NAFO GIS website,canada/nafo/Divisions.shp,ZONE,"3K, 3L, 3M, 3N, 3O, 3Ps, 3Pn, 4R, 4S, 4T, 4Vn, 4Vs, 4W, 4X",
DFO-MAR-ARCSURFBANQ-1986-2010-CHING,ARCSURFBANQ,DFO,DFO-MAR,Canada,Canada East Coast,Banquereau,BANQ,Arctic surfclam Banquereau,Mactromeris polynyma,Arctic surfclam,NA,David Kieth (DFO) - vertices only,canada/east_cast/dfo_scallop_areas_east_coast_polygons.shp,AREA_CODE,SFA25-BAN,
DFO-MAR-BSKATCANATL-1970-1987-PREFONTAINE,BSKATCANATL,DFO,DFO-MAR,Canada,Canada East Coast,Canadian Atlantic Ocean,ATL,Barndoor skate Canadian Atlantic Ocean,Dipturus laevis,Barndoor skate,NA,NAFO GIS website,canada/nafo/Divisions.shp,ZONE,"2G, 2H, 2J, 3K, 3L, 3O, 3Pn, 3Ps, 4R, 4Vn, 4Vs, 4W, 4X",From maps here: http://biblio.uqar.ca/archives/1007631.pdf
DFO-MAR-COD4VsW-1958-2002-PREFONTAINE,COD4VsW,DFO,DFO-MAR,Canada,Canada East Coast,Eastern Scotian Shelf,4VsW,Atlantic cod NAFO 4VsW,Gadus morhua,Atlantic cod,NA,NAFO GIS website,canada/nafo/Divisions.shp,ZONE,"4Vs, 4W",
DFO-MAR-CUSK4X-1970-2007-RICARD,CUSK4X,DFO,DFO-MAR,Canada,Canada East Coast,Western Scotian Shelf,4X,Cusk NAFO 4X,Brosme brosme,Cusk,Torsk,NAFO GIS website,canada/nafo/Divisions.shp,ZONE,4X,
DFO-MAR-LOBSTERLFA27-33-1980-2010-CHING,LOBSTERLFA27-33,DFO,DFO-MAR,Canada,Canada East Coast,Atlantic Coast of Nova Scotia (LFA 27-33),LFA27-33,American lobster Atlantic Coast of Nova Scotia (LFA 27-33),Homarus americanus,American lobster,NA,Scott Coffen-Smout (DFO),canada/east_coast_dfo/dfo_east_lobster_fishing_areas.shp,ZONE,"27, 30, 31A, 31B, 32, 33",
DFO-MAR-LOBSTERLFA34-1893-2012-CHING,LOBSTERLFA34,DFO,DFO-MAR,Canada,Canada East Coast,Lobster Fishing Area 34,LFA34,American lobster Lobster Fishing Area 34,Homarus americanus,American lobster,NA,Scott Coffen-Smout (DFO),canada/east_coast_dfo/dfo_east_lobster_fishing_areas.shp,ZONE,34,
DFO-MAR-LOBSTERLFA35-38-1893-2012-CHING,LOBSTERLFA35-38,DFO,DFO-MAR,Canada,Canada East Coast,Lobster Fishing Areas 35-38,LFA35-38,American lobster Lobster Fishing Areas 35-38,Homarus americanus,American lobster,NA,Scott Coffen-Smout (DFO),canada/east_coast_dfo/dfo_east_lobster_fishing_areas.shp,ZONE,"35, 36, 38",
DFO-MAR-POLL4VWX-1982-2011-OSGOOD,POLL4VWX,DFO,DFO-MAR,Canada,Canada East Coast,Scotian Shelf and Bay of Fundy,4VWX,Pollock Scotian Shelf and Bay of Fundy,Pollachius virens,Pollock,Saithe,NAFO GIS website,canada/nafo/Divisions.shp,ZONE,"4Vs, 4Vn, 4W, 4X",
DFO-MAR-SCALL4T-1968-2014-OSGOOD,SCALL4T,DFO,DFO-MAR,Canada,Canada East Coast,Southern Gulf of St. Lawrence,4T,Sea scallop Southern Gulf of St. Lawrence,Placopecten magellanicus,Sea scallop,NA,NAFO GIS website,canada/nafo/Divisions.shp,ZONE,4T,
DFO-MAR-SCALLNBB-1981-2011-CHING,SCALLNBB,DFO,DFO-MAR,Canada,Canada East Coast,North Brown Bank,NBB,Sea scallop North Brown Bank,Placopecten magellanicus,Sea scallop,NA,David Kieth (DFO) - vertices only,canada/east_coast/dfo_scallop_areas_east_coast_polygons.shp,AREA_CODE,SFA26N,
DFO-MAR-SCALLSFA16-20-1965-2012-OSGOOD,SCALLSFA16-20,DFO,DFO-MAR,Canada,Canada East Coast,Scallop Fishing Areas 16-20,SCFA16-20,Sea scallop Northern Gulf of St Lawrence,Placopecten magellanicus,Sea scallop,NA,Scott Coffen-Smout (DFO),canada/east_coast_dfo/Scallop_poly.shp,ZONE,"16, 17, 18, 19, 20",
DFO-MAR-SCALLSPA1-6-1975-2010-CHING,SCALLSPA1-6,DFO,DFO-MAR,Canada,Canada East Coast,Bay of Fundy (SPA 1-6),SPA1-6,Sea scallop Bay of Fundy (SPA 1-6),Placopecten magellanicus,Sea scallop,NA,David Kieth (DFO) - vertices only,canada/east_coast/dfo_scallop_areas_east_coast_polygons.shp,AREA_CODE,"SPA1A, SPA1B, SPA2, SPA3, SPA4, SPA5, SPA6A, SPA6B, SPA6C, SPA6D",
DFO-MAR-SCALLWSFA29-2001-2011-CHING,SCALLWSFA29,DFO,DFO-MAR,Canada,Canada East Coast,West Scallop Fishing Area 29,WSFA29,Sea scallop West Scallop Fishing Area 29,Placopecten magellanicus,Sea scallop,NA,David Kieth (DFO) - vertices only,canada/east_coast/dfo_scallop_areas_east_coast_polygons.shp,AREA_CODE,"SFA29A, SFA29B, SFA29C, SFA29D, SFA29E",
DFO-MAR-SDOG4VWX5-1922-2013-OSGOOD,SDOG4VWX5,DFO,DFO-MAR,Canada,Canada East Coast,"Scotian Shelf, Bay of Fundy and Georges Bank",4VWX5,"Spiny dogfish Scotian Shelf, Bay of Fundy and Georges Bank",Squalus acanthias,Spiny dogfish,Picked dogfish,NAFO GIS website,canada/nafo/Divisions.shp,ZONE,"4Vs, 4Vn, 4W, 4X, 5Y, 5Ze, 5Zw",
DFO-MAR-SHAKE4VWX-1969-2015-OSGOOD,SHAKE4VWX,DFO,DFO-MAR,Canada,Canada East Coast,Scotian Shelf and Bay of Fundy,4VWX,Silver hake Scotian Shelf and Bay of Fundy,Merluccius bilinearis,Silver Hake,NA,NAFO GIS website,canada/nafo/Divisions.shp,ZONE,"4Vs, 4Vn, 4W, 4X",
DFO-MAR-WHAKE4VWX5-1964-2005-PREFONTAINE,WHAKE4VWX5,DFO,DFO-MAR,Canada,Canada East Coast,"Scotian Shelf, Bay of Fundy and Georges Bank",4VWX5,"White hake Scotian Shelf, Bay of Fundy and Georges Bank",Urophycis tenuis,White hake,NA,NAFO GIS website,canada/nafo/Divisions.shp,ZONE,"4Vs, 4Vn, 4W, 4X, 5Y, 5Ze, 5Zw",
DFO-NFLD-MONK2J3KLNOPs-1977-2000-PREFONTAINE,MONK2J3KLNOPs,DFO,DFO-NFLD,Canada,Canada East Coast,Labrador Shelf-Grand Banks-S. Pierre Bank,2J3KLNOPs,Monkfish Labrador Shelf - Grand Banks - St. Pierre Bank,Lophius americanus,Monkfish,Goosefish,NAFO GIS website,canada/nafo/Divisions.shp,ZONE,"2J, 3K, 3L, 3N, 3O, 3Ps",
DFO-NFLD-POLL3Ps-1960-2013-OSGOOD,POLL3Ps,DFO,DFO-NFLD,Canada,Canada East Coast,St. Pierre Bank,3Ps,Pollock St. Pierre Bank,Pollachius virens,Pollock,Saithe,NAFO GIS website,canada/nafo/Divisions.shp,ZONE,3Ps,
DFO-NFLD-SCALL3Ps-1969-2010-CHING,SCALL3Ps,DFO,DFO-NFLD,Canada,Canada East Coast,St. Pierre Bank,3Ps,Sea scallop St. Pierre Bank,Placopecten magellanicus,Sea scallop,NA,NAFO GIS website,canada/nafo/Divisions.shp,ZONE,3Ps,
DFO-NFLD-SCALLGB-1978-2007-ANDERSON,SCALLGB,DFO,DFO-NFLD,Canada,Canada East Coast,Georges Bank,5Z,Sea scallop Georges Bank,Placopecten magellanicus,Sea scallop,NA,NAFO GIS website,canada/nafo/Divisions.shp,ZONE,"5Ze, 5Zw",
DFO-NFLD-SMOOTHSKA2J3K-1981-2012-OSGOOD,SMOOTHSKA2J3K,DFO,DFO-NFLD,Canada,Canada East Coast,NAFO Division 2J3K,2J3K,Smooth skate NAFO-2J3K,Malacoraja senta,Smooth skate,NA,NAFO GIS website,canada/nafo/Divisions.shp,ZONE,"2J, 3K",
DFO-NFLD-SMOOTHSKA4T-1971-2010-OSGOOD,SMOOTHSKA4T,DFO,DFO-NFLD,Canada,Canada East Coast,Southern Gulf of St. Lawrence,4T,Smooth skate Southern Gulf of St. Lawrence,Malacoraja senta,Smooth skate,NA,NAFO GIS website,canada/nafo/Divisions.shp,ZONE,4T,
DFO-NFLD-WITFLOUN3Ps-1974-2013-OSGOOD,WITFLOUN3Ps,DFO,DFO-NFLD,Canada,Canada East Coast,St. Pierre Bank,3Ps,Witch flounder NAFO-3Ps,Glyptocephalus cynoglossus,Witch flounder,NA,NAFO GIS website,canada/nafo/Divisions.shp,ZONE,3Ps,
DFO-PAC-BIGSKA3CD-1954-2011-OSGOOD,BIGSKA3CD,DFO,DFO-PAC,Canada,Canada West Coast,West Coast of Vancouver Island,WCVANI,Big skate West Coast Vancouver Island,Raja binoculata,Big skate,NA,PSMFC regions (digitized by me),canada/west_coast/psmfc_mgmt_areas_erase.shp,ZONE,"3C, 3D",
DFO-PAC-BIGSKA4B-1996-2011-OSGOOD,BIGSKA4B,DFO,DFO-PAC,Canada,Canada West Coast,Straight of Georgia,SOG,Big skate Strait of Georgia,Raja binoculata,Big skate,NA,PSMFC regions (digitized by me),canada/west_coast/psmfc_mgmt_areas_erase.shp,ZONE,4B,
DFO-PAC-BIGSKA5AB-1954-2011-OSGOOD,BIGSKA5AB,DFO,DFO-PAC,Canada,Canada West Coast,Queen Charlotte Sound,5AB,Big skate Queen Charlotte Sound,Raja binoculata,Big skate,NA,PSMFC regions (digitized by me),canada/west_coast/psmfc_mgmt_areas_erase.shp,ZONE,"5A, 5B",
DFO-PAC-BIGSKA5CDE-1954-2011-OSGOOD,BIGSKA5CDE,DFO,DFO-PAC,Canada,Canada West Coast,Hecate Strait,HS,Big skate Hecate Strait,Raja binoculata,Big skate,NA,PSMFC regions (digitized by me),canada/west_coast/psmfc_mgmt_areas_erase.shp,ZONE,"5C, 5D, 5E",
DFO-PAC-BOCACCBCW-1935-2012-CHING,BOCACCBCW,DFO,DFO-PAC,Canada,Canada West Coast,British Columbia Waters,BCW,Bocaccio British Columbia Waters,Sebastes paucispinis,Bocaccio,NA,Digitized from stock assessment,canada/west_coast/df_west_boccaccio_canary_rockfish_erase.shp,NA,already dissolved,
DFO-PAC-ESOLEHS-1944-2001-COLLIE,ESOLEHS,DFO,DFO-PAC,Canada,Canada West Coast,Hecate Strait,HS,English sole Hecate Strait,Parophrys vetulus,English sole,NA,PSMFC regions (digitized by me),canada/west_coast/psmfc_mgmt_areas_erase.shp,ZONE,"5C, 5D, 5E",
DFO-PAC-LINGCODSOG-1927-2014-OSGOOD,LINGCODSOG,DFO,DFO-PAC,Canada,Canada West Coast,Straight of Georgia,SOG,Lingcod Strait of Georgia,Ophiodon elongatus,Lingcod,NA,PSMFC regions (digitized by me),canada/west_coast/psmfc_mgmt_areas_erase.shp,ZONE,4B,
DFO-PAC-LNOSESKA3CD-1954-2011-OSGOOD,LNOSESKA3CD,DFO,DFO-PAC,Canada,Canada West Coast,West Coast of Vancouver Island,WCVANI,Longnose skate West Coast Vancouver Island,Raja rhina,Longnose skate,NA,PSMFC regions (digitized by me),canada/west_coast/psmfc_mgmt_areas_erase.shp,ZONE,"3C, 3D",
DFO-PAC-LNOSESKA4B-1996-2011-OSGOOD,LNOSESKA4B,DFO,DFO-PAC,Canada,Canada West Coast,Straight of Georgia,SOG,Longnose Skate Strait of Georgia,Raja rhina,Longnose skate,NA,PSMFC regions (digitized by me),canada/west_coast/psmfc_mgmt_areas_erase.shp,ZONE,4B,
DFO-PAC-LNOSESKA5AB-1954-2012-OSGOOD,LNOSESKA5AB,DFO,DFO-PAC,Canada,Canada West Coast,Queen Charlotte Sound,5AB,Longnose Skate Queen Charlotte Sound,Raja rhina,Longnose skate,NA,PSMFC regions (digitized by me),canada/west_coast/psmfc_mgmt_areas_erase.shp,ZONE,"5A, 5B",
DFO-PAC-LNOSESKA5CDE-1954-2011-OSGOOD,LNOSESKA5CDE,DFO,DFO-PAC,Canada,Canada West Coast,Hecate Strait,HS,Longnose skate Hecate Strait,Raja rhina,Longnose skate,NA,PSMFC regions (digitized by me),canada/west_coast/psmfc_mgmt_areas_erase.shp,ZONE,"5C, 5D, 5E",
DFO-PAC-PCOD5AB-1945-2014-OSGOOD,PCOD5AB,DFO,DFO-PAC,Canada,Canada West Coast,Queen Charlotte Sound,5AB,Pacific cod Queen Charlotte Sound,Gadus macrocephalus,Pacific cod,NA,PSMFC regions (digitized by me),canada/west_coast/psmfc_mgmt_areas_erase.shp,ZONE,"5A, 5B",
DFO-PAC-PCODHS-1944-2014-OSGOOD,PCODHS,DFO,DFO-PAC,Canada,Canada West Coast,Hecate Strait,HS,Pacific cod Hecate Strait,Gadus macrocephalus,Pacific cod,NA,PSMFC regions (digitized by me),canada/west_coast/psmfc_mgmt_areas_erase.shp,ZONE,"5C, 5D, 5E",
DFO-PAC-PCODWCVANI-1956-2002-COLLIE,PCODWCVANI,DFO,DFO-PAC,Canada,Canada West Coast,West Coast of Vancouver Island,WCVANI,Pacific cod West Coast of Vancouver Island,Gadus macrocephalus,Pacific cod,NA,PSMFC regions (digitized by me),canada/west_coast/psmfc_mgmt_areas_erase.shp,ZONE,"3C, 3D",
DFO-PAC-RSOLE5AB-1944-2014-OSGOOD,RSOLE5AB,DFO,DFO-PAC,Canada,Canada West Coast,Queen Charlotte Sound,5AB,Rock sole Queen Charlotte Sound,Lepidopsetta bilineata,Rock sole,NA,PSMFC regions (digitized by me),canada/west_coast/psmfc_mgmt_areas_erase.shp,ZONE,"5A, 5B",
DFO-PAC-RSOLEHSTR-1945-2014-OSGOOD,RSOLEHSTR,DFO,DFO-PAC,Canada,Canada West Coast,Hecate Strait,HS,Rock sole Hecate Strait,Lepidopsetta bilineata,Rock sole,NA,PSMFC regions (digitized by me),canada/west_coast/psmfc_mgmt_areas_erase.shp,ZONE,"5C, 5D, 5E",
DFO-PAC-SABLEFPCAN-1913-2010-HIVELY,SABLEFPCAN,DFO,DFO-PAC,Canada,Canada West Coast,Pacific Coast of Canada,PCOAST,Sablefish Pacific Coast of Canada,Anoplopoma fimbria,Sablefish,NA,Sean MacConnachie (DFO),canada/pfma_macconachie/pfma_areas_format_dissolve.shp,,dissolve all,
DFO-PAC-SARDBC-2002-2012-OSGOOD,SARDBC,DFO,DFO-PAC,Canada,Canada West Coast,Pacific Coast of Canada,PCOAST,Pacific sardine British Columbia,Sardinops sagax,Sardine,Pacific sardine,Digitized WCVI survey boundaries,canada/west_coast/dfo_west_pacific_sardine_wcvi_surveys.shp,Id,dissolve all,
DFO-PANDAL4RST-1965-2012-WATSON,PANDAL4RST,DFO,DFO,Canada,Canada East Coast,Gulf of St. Lawrence,4RST,Northern shrimp Canada-DFO-4RST,Pandalus borealis,Northern shrimp,NA,NAFO GIS website,canada/nafo/Divisions.shp,ZONE,"4R, 4S, 4T",
DFO-PANDALSFA13-15-1980-2012-WATSON,PANDALSFA13-15,DFO,DFO,Canada,Canada East Coast,Eastern Scotian Shelf (SFA 13-15),SFA13-15,Northern shrimp Eastern Scotian Shelf (SFA 13-15),Pandalus borealis,Northern shrimp,NA,Scott Coffen-Smout (DFO),canada/east_coast_dfo/dfo_east_shrimp_fishing_areas.shp,ZONE_1,"13, 14, 15",
DFO-PANDALSFA4-1977-2012-WATSON,PANDALSFA4,DFO,DFO,Canada,Canada East Coast,Shrimp Fishing Area 4,SFA4,Northern shrimp SFA 4,Pandalus borealis,Northern shrimp,NA,Scott Coffen-Smout (DFO),canada/east_coast_dfo/dfo_east_shrimp_fishing_areas.shp,ZONE_1,4,
DFO-PANDALSFA5-1977-2012-WATSON,PANDALSFA5,DFO,DFO,Canada,Canada East Coast,Shrimp Fishing Area 5,SFA5,Northern shrimp SFA 5,Pandalus borealis,Northern shrimp,NA,Scott Coffen-Smout (DFO),canada/east_coast_dfo/dfo_east_shrimp_fishing_areas.shp,ZONE_1,5,
DFO-PANDALSFA6-1977-2012-WATSON,PANDALSFA6,DFO,DFO,Canada,Canada East Coast,Shrimp Fishing Area 6,SFA6,Northern shrimp SFA 6,Pandalus borealis,Northern shrimp,NA,Scott Coffen-Smout (DFO),canada/east_coast_dfo/dfo_east_shrimp_fishing_areas.shp,ZONE_1,6,
DFO-PANDALSMA14-1987-2011-WATSON,PANDALSMA14,DFO,DFO,Canada,Canada West Coast,Shrimp Management Area 14,SMA-14,Northern shrimp SMA 14,Pandalus borealis ,NA,NA,Digitized Shrimp Management Area map,canada/west_coast/dfo_west_shrimp_areas_polygons.shp,CODE,14,
DFO-PANDALSMA16-1987-2011-WATSON,PANDALSMA16,DFO,DFO,Canada,Canada West Coast,Shrimp Management Area 16,SMA-16,Northern shrimp SMA 16,Pandalus borealis ,NA,NA,Digitized Shrimp Management Area map,canada/west_coast/dfo_west_shrimp_areas_polygons.shp,CODE,16,
DFO-PANDALSMA18-19-1987-2011-WATSON,PANDALSMA18-19,DFO,DFO,Canada,Canada West Coast,Shrimp Management Areas 18 and 19,SMA-18-19,Northern shrimp SMA 18-19,Pandalus borealis ,NA,NA,Digitized Shrimp Management Area map,canada/west_coast/dfo_west_shrimp_areas_polygons.shp,CODE,"18, 19",
DFO-PANDALSMAFR-1987-2011-WATSON,PANDALSMAFR,DFO,DFO,Canada,Canada West Coast,Shrimp Management Area FR,SMA-FR,Northern shrimp SMA FR,Pandalus borealis ,NA,NA,Digitized Shrimp Management Area map,canada/west_coast/dfo_west_shrimp_areas_polygons.shp,CODE,FR,
DFO-PANDALSMAGTSE-1990-2012-WATSON,PANDALSMAGTSE,DFO,DFO,Canada,Canada West Coast,Shrimp Management Area GTSE,SMA-GTSE,Northern shrimp SMA GTSE,Pandalus borealis ,NA,NA,Digitized Shrimp Management Area map,canada/west_coast/dfo_west_shrimp_areas_polygons.shp,CODE,GTSE,
DFO-PANDALSMAPRD-1987-2011-WATSON,PANDALSMAPRD,DFO,DFO,Canada,Canada West Coast,Shrimp Management Area PRD,SMA-PRD,Northern shrimp SMA PRD,Pandalus borealis ,NA,NA,Digitized Shrimp Management Area map,canada/west_coast/dfo_west_shrimp_areas_polygons.shp,CODE,PRD,
DFO-PERCHQCI-1939-2013-WATSON,PERCHQCI,DFO,DFO,Canada,Canada West Coast,Queen Charlotte Islands,QCI,Pacific Ocean perch Queen Charlotte Islands,Sebastes alutus,Pacific ocean perch,NA,Digitized from stock assessment,canada/west_coast/dfo_west_pacific_ocean_perch_erase.shp,NAME,"5A, 5B, 5C",
DFO-PERCHWCVANI-1939-2013-WATSON,PERCHWCVANI,DFO,DFO,Canada,Canada West Coast,West Coast of Vancouver Island,WCVANI,Pacific Ocean perch West Coast of Vancouver Island,Sebastes alutus,Pacific ocean perch,NA,PSMFC regions (digitized by me),canada/west_coast/psmfc_mgmt_areas_erase.shp,ZONE,"3C, 3D",
DFO-PORSHARATL-1960-2014-OSGOOD,PORSHARATL,DFO,DFO,Canada,Canada East Coast,Canadian Atlantic Ocean,ATL,Porbeagle shark Atlantic Ocean,Lamna nasus,Porbeagle shark,NA,NAFO GIS website,canada/nafo/Divisions.shp,ZONE,"3L, 3O, 3Pn, 3Ps, 4R, 4S, 4T, 4Vn, 4Vs, 4W, 4X, 5Y, 5Ze",Based on tagging map in assessment
DFO-QROCKPCOASTIN-1918-2010-WATSON,QROCKPCOASTIN,DFO,DFO,Canada,Canada West Coast,Pacific Coast of Canada (Inside),PCOASTIN,Quillback rockfish Pacific Coast of Canada (Inside),Sebastes maliger,Quillback rockfish,NA,Sean MacConnachie (DFO),canada/pfma_macconachie/pfma_areas_inside_outside.shp,UNIT,Inside,
DFO-QROCKPCOASTOUT-1918-2010-WATSON,QROCKPCOASTOUT,DFO,DFO,Canada,Canada West Coast,Pacific Coast of Canada (Outside),PCOASTOUT,Quillback rockfish Pacific Coast of Canada (Outside),Sebastes maliger,Quillback rockfish,NA,Sean MacConnachie (DFO),canada/pfma_macconachie/pfma_areas_inside_outside.shp,UNIT,Outside,
DFO-QUE-ARCSURF4RST-1993-2014-OSGOOD,ARCSURF4RST,DFO,DFO-QUE,Canada,Canada East Coast,Gulf of St. Lawrence,4RST,Arctic surfclam Quebec and Gulf of St. Lawrence,Mactromeris polynyma,Arctic surfclam,NA,NAFO GIS website,canada/nafo/Divisions.shp,ZONE,"4R, 4S, 4T",
DFO-QUE-ARCSURFQCW-1993-2011-CHING,ARCSURFQCW,DFO,DFO-QUE,Canada,Canada East Coast,Quebec Coastal Waters,QCW,Arctic surfclam Quebec Coastal Waters,Mactromeris polynyma,Arctic surfclam,NA,Digitized from stock assessment,canada/west_coast/dfo_east_stimpsons_surfclam_areas_erase.shp,NA,already dissolved,
DFO-QUE-GURCH4RST-1991-2011-CHING,GURCH4RST,DFO,DFO-QUE,Canada,Canada East Coast,Gulf of St. Lawrence,4RST,Green sea urchin Gulf of St. Lawrence,Strongylocentrotus droebachiensis,Green sea urchin,NA,NAFO GIS website,canada/nafo/Divisions.shp,ZONE,"4R, 4S, 4T",
DFO-QUE-HERR4RFA-1971-2003-PREFONTAINE,HERR4RFA,DFO,DFO-QUE,Canada,Canada East Coast,NAFO division 4R,4R,Herring NAFO 4R fall spawners,Clupea harengus,Herring,Atlantic herring,NAFO GIS website,canada/nafo/Divisions.shp,ZONE,4R,
DFO-QUE-HERR4RSP-1963-2004-PREFONTAINE,HERR4RSP,DFO,DFO-QUE,Canada,Canada East Coast,NAFO division 4R,4R,Herring NAFO 4R spring spawners,Clupea harengus,Herring,Atlantic herring,NAFO GIS website,canada/nafo/Divisions.shp,ZONE,4R,
DFO-QUE-HERR4S-1979-2010-CHING,HERR4S,DFO,DFO-QUE,Canada,Canada East Coast,Quebec North Shore,4S,Herring Quebec North Shore,Clupea harengus,Herring,Atlantic herring,NAFO GIS website,canada/nafo/Divisions.shp,ZONE,4S,
DFO-QUE-LOBSTERLFA15-18-1984-2011-CHING,LOBSTERLFA15-18,DFO,DFO-QUE,Canada,Canada East Coast,Quebec North Shore and Anticosti Island (LFA 15-18),LFA15-18,American lobster Quebec North Shore and Anticosti Island (LFA 15-18),Homarus americanus,American lobster,NA,Scott Coffen-Smout (DFO),canada/east_coast_dfo/dfo_east_lobster_fishing_areas.shp,ZONE,"15, 16, 17, 18",
DFO-QUE-LOBSTERLFA19-21-1945-2011-CHING,LOBSTERLFA19-21,DFO,DFO-QUE,Canada,Canada East Coast,Gaspe (LFA 19-21),LFA19-21,American lobster Gaspe (LFA 19-21),Homarus americanus,American lobster,NA,Scott Coffen-Smout (DFO),canada/east_coast_dfo/dfo_east_lobster_fishing_areas.shp,ZONE,"19, 20A, 20B",
DFO-QUE-LOBSTERLFA22-1945-2011-CHING,LOBSTERLFA22,DFO,DFO-QUE,Canada,Canada East Coast,Magdalen Islands (LFA 22),LFA22,American lobster Magdalen Islands (LFA 22),Homarus americanus,American lobster,NA,Scott Coffen-Smout (DFO),canada/east_coast_dfo/dfo_east_lobster_fishing_areas.shp,ZONE,22,
DFO-QUE-REDFISHSPP3Pn4RSTVn-1953-2000-PREFONTAINE,REDFISHSPP3Pn4RSTVn,DFO,DFO-QUE,Canada,Canada East Coast,Gulf of St. Lawrence and Cabot Strait,3Pn4RSTVn,Redfish species NAFO 3Pn4RSTVn,Sebastes spp,Sebastes species,NA,NAFO GIS website,canada/nafo/Divisions.shp,ZONE,"3Pn, 4R, 4S, 4T, 4Vn",
DFO-QUE-ROCKCRABQCW-1998-2012-OSGOOD,ROCKCRABQCW,DFO,DFO-QUE,Canada,Canada East Coast,Quebec Coastal Waters,QCW,Rock crab Quebec Coastal Waters,Cancer irroratus,Rock crab,NA,Digitized from stock assessment,canada/west_coast/dfo_east_rock_crab_areas_erase.shp,NA,already dissolved,
DFO-QUE-SNOWCRABSCMA12-17-1979-2011-CHING,SNOWCRABSCMA12-17,DFO,DFO-QUE,Canada,Canada East Coast,Northern Gulf of St. Lawrence,SCMA12-17,Snow crab Northern Gulf of St. Lawrence,Chionoecetes opilio,Snow crab,NA,Scott Coffen-Smout (DFO),canada/east_coast_dfo/Snow_crab_poly.shp,ZONE,"12, 13, 14, 15, 16, 17",
DFO-QUE-SSCLAMQCW-1930-2010-CHING,SSCLAMQCW,DFO,DFO-QUE,Canada,Canada East Coast,Quebec Coastal Waters,QCW,Softshell clam  Quebec Coastal Waters,Mya arenaria,Softshell clam ,NA,Digitized from stock assessment,canada/west_coast/dfo_east_softshell_clam_areas_erase.shp,NA,already dissolved,
DFO-QUE-WHAKE4RS-1960-2014-OSGOOD,WHAKE4RS,DFO,DFO-QUE,Canada,Canada East Coast,Northern Gulf of St. Lawrence,4RS,White hake Northern Gulf of St. Lawrence,Urophycis tenuis,White hake,NA,NAFO GIS website,canada/nafo/Divisions.shp,ZONE,"4R, 4S",
DFO-QUE-WWHELKQCW-1987-2011-CHING,WWHELKQCW,DFO,DFO-QUE,Canada,Canada East Coast,Quebec Coastal Waters,QCW,Waved whelk Quebec Coastal Waters,Buccinum undatum,Waved whelk,NA,Digitized from stock assessment,canada/west_coast/dfo_east_whelk_areas_erase.shp,NA,already dissolved,
DFO-REDDEEP2J3K-3LNO-1960-2010-WATSON,REDDEEP2J3K-3LNO,DFO,DFO,Canada,Canada East Coast,NAFO Divisions 2J3K-3LNO,2J3K-3LNO,Deepwater redfish NAFO-2J3K-3LNO,Sebastes mentella,Deepwater redfish,Redfish,NAFO GIS website,canada/nafo/Divisions.shp,ZONE,"2J, 3K, 3L, 3N, 3O",
DFO-REDDEEPUT12-1960-2010-WATSON,REDDEEPUT12,DFO,DFO,Canada,Canada East Coast,Units 1 and 2,UT12,Deepwater redfish Units 1-2,Sebastes mentella,Deepwater redfish,Redfish,Scott Coffen-Smout (DFO),canada/east_coast_dfo/dfo_east_redfish_units.shp,UNIT,Unit 1+2,
DFO-SG-LOBSTERLFA23-26AB-1892-2011-CHING,LOBSTERLFA23-26AB,DFO,DFO-SG,Canada,Canada East Coast,Southern Gulf of St. Lawrence,LFA23-26AB,American lobster Southern Gulf of St. Lawrence,Homarus americanus,American lobster,NA,Scott Coffen-Smout (DFO),canada/east_coast_dfo/dfo_east_lobster_fishing_areas.shp,ZONE,"23, 24, 25, 26A, 26B",
DFO-SG-ROCKCRABLFA23-26-1985-2010-OSGOOD,ROCKCRABLFA23-26,DFO,DFO-SG,Canada,Canada East Coast,Southern Gulf of St. Lawrence,4T,Rock crab Southern Gulf of St. Lawrence,Cancer irroratus,Rock crab,NA,NAFO GIS website,canada/nafo/Divisions.shp,ZONE,4T,
DFO-SG-TSKA4T-1971-2010-OSGOOD,TSKA4T,DFO,DFO-SG,Canada,Canada East Coast,Southern Gulf of St. Lawrence,4T,Thorny skate Southern Gulf of St. Lawrence,Amblyraja radiata,Thorny skate,NA,NAFO GIS website,canada/nafo/Divisions.shp,ZONE,4T,
DFO-SG-WHAKE4T-1960-2013-OSGOOD,WHAKE4T,DFO,DFO-SG,Canada,Canada East Coast,Southern Gulf of St. Lawrence,4T,White hake Southern Gulf of St. Lawrence,Urophycis tenuis,White hake,NA,NAFO GIS website,canada/nafo/Divisions.shp,ZONE,4T,
DFO-SG-WINFLOUN4T-1960-2012-OSGOOD,WINFLOUN4T,DFO,DFO-SG,Canada,Canada East Coast,Southern Gulf of St. Lawrence,4T,Winter flounder Southern Gulf of St. Lawrence,Pseudopleuronectes americanus,Winter flounder,NA,NAFO GIS website,canada/nafo/Divisions.shp,ZONE,4T,
DFO-SG-WITFLOUN4RST-1960-2011-OSGOOD,WITFLOUN4RST,DFO,DFO-SG,Canada,Canada East Coast,Gulf of St. Lawrence,4RST,Witch flounder Gulf of St. Lawrence,Glyptocephalus cynoglossus,Witch flounder,NA,NAFO GIS website,canada/nafo/Divisions.shp,ZONE,"4R, 4S, 4T",
DFO-SNOWCRAB2HJ-1995-2013-WATSON,SNOWCRAB2HJ,DFO,DFO,Canada,Canada East Coast,Division 2HJ,2HJ,Snow Crab Division 2HJ,Chionoecetes opilio,Snow crab,NA,NAFO GIS website,canada/nafo/Divisions.shp,ZONE,"2H, 2J",
DFO-SNOWCRAB3K-1995-2013-WATSON,SNOWCRAB3K,DFO,DFO,Canada,Canada East Coast,Division 3K,3K,Snow Crab Division 3K,Chionoecetes opilio,Snow crab,NA,NAFO GIS website,canada/nafo/Divisions.shp,ZONE,3K,
DFO-SNOWCRAB3LNO-1995-2013-WATSON,SNOWCRAB3LNO,DFO,DFO,Canada,Canada East Coast,Division 3LNO,3LNO,Snow Crab Division 3LNO,Chionoecetes opilio,Snow crab,NA,NAFO GIS website,canada/nafo/Divisions.shp,ZONE,"3L, 3N, 3O",
DFO-SNOWCRAB3Ps-1995-2013-WATSON,SNOWCRAB3Ps,DFO,DFO,Canada,Canada East Coast,St. Pierre Bank,3Ps,Snow Crab Division 3Ps,Chionoecetes opilio,Snow crab,NA,NAFO GIS website,canada/nafo/Divisions.shp,ZONE,3Ps,
DFO-SNOWCRAB4R3Pn-1995-2013-WATSON,SNOWCRAB4R3Pn,DFO,DFO,Canada,Canada East Coast,Division 4R3Pn,4R3Pn,Snow Crab Division 4R3Pn,Chionoecetes opilio,Snow crab,NA,NAFO GIS website,canada/nafo/Divisions.shp,ZONE,"4R, 3Pn",
DFO-SNOWCRABSGSL-1987-2014-WATSON,SNOWCRABSGSL,DFO,DFO,Canada,Canada East Coast,Southern Gulf of St. Lawrence,4T,Snow crab Southern Gulf of St. Lawrence,Chionoecetes opilio,Snow crab,NA,NAFO GIS website,canada/nafo/Divisions.shp,ZONE,4T,
DFO-SSHRIMPSMAGTSE-1992-2011-WATSON,SSHRIMPSMAGTSE,DFO,DFO,Canada,Canada West Coast,Shrimp Management Area GTSE,SMA-GTSE,Sidestripe shrimp SMA GTSE,Pandalopsis dispar,Sidestripe shrimp,NA,Digitized Shrimp Management Area map,canada/west_coast/dfo_west_shrimp_areas_polygons.shp,CODE,GTSE,
DFO-SSHRIMPSMAPRD-1987-2011-WATSON,SSHRIMPSMAPRD,DFO,DFO,Canada,Canada West Coast,Shrimp Management Area PRD,SMA-PRD,Sidestripe shrimp SMA PRD,Pandalopsis dispar,Sidestripe shrimp,NA,Digitized Shrimp Management Area map,canada/west_coast/dfo_west_shrimp_areas_polygons.shp,CODE,PRD,
DFO-SSSHRIMPSMA14-1987-2011-WATSON,SSSHRIMPSMA14,DFO,DFO,Canada,Canada West Coast,Shrimp Management Area 14,SMA-14,Sidestripe shrimp SMA 14,Pandalopsis dispar,Sidestripe shrimp,NA,Digitized Shrimp Management Area map,canada/west_coast/dfo_west_shrimp_areas_polygons.shp,CODE,14,
DFO-SSSHRIMPSMA16-1987-2011-WATSON,SSSHRIMPSMA16,DFO,DFO,Canada,Canada West Coast,Shrimp Management Area 16,SMA-16,Sidestripe shrimp SMA 16,Pandalopsis dispar,Sidestripe shrimp,NA,Digitized Shrimp Management Area map,canada/west_coast/dfo_west_shrimp_areas_polygons.shp,CODE,16,
DFO-SSSHRIMPSMA18-19-1987-2011-WATSON,SSSHRIMPSMA18-19,DFO,DFO,Canada,Canada West Coast,Shrimp Management Areas 18 and 19,SMA-18-19,Sidestripe shrimp SMA 18-19,Pandalopsis dispar,Sidestripe shrimp,NA,Digitized Shrimp Management Area map,canada/west_coast/dfo_west_shrimp_areas_polygons.shp,CODE,"18, 19",
DFO-SSSHRIMPSMAFR-1987-2011-WATSON,SSSHRIMPSMAFR,DFO,DFO,Canada,Canada West Coast,Shrimp Management Area FR,SMA-FR,Sidestripe shrimp SMA FR,Pandalopsis dispar,Sidestripe shrimp,NA,Digitized Shrimp Management Area map,canada/west_coast/dfo_west_shrimp_areas_polygons.shp,CODE,FR,
DFO-YEYEROCKPCOASTIN-1918-2009-WATSON,YEYEROCKPCOASTIN,DFO,DFO,Canada,Canada West Coast,Pacific Coast of Canada (Inside),PCOASTIN,Yelloweye rockfish Pacific Coast of Canada (Inside),Sebastes ruberrimus,Yelloweye rockfish,NA,Sean MacConnachie (DFO),canada/pfma_macconachie/pfma_areas_inside_outside.shp,UNIT,Inside,
DPIF-MULLQNSW-1945-2003-BANOBI,MULLQNSW,DPIF,DPIF,Australia,Australia,Queensland and New South Wales,QNSW,Sea Mullet Queensland and New South Wales,Mugil cephalus,Sea mullet,,50 km buffer on Australia coast line based on image,australia/processed/mullet_50km_buffer.shp,NA,50 km buffer on Australia coast line based on image,
EWG-BS-WHITBLACK-1994-2011-HIVELY,WHITBLACK,STECF,EWG-BS,Europe,European Union,Black Sea,BLACK,Whiting Black Sea,Merlangius merlangus,Whiting,NA,FAO website,europe/gfcm/GSAs_simplified,SECT_COD,GSA29,
FAJ-APOLLPJPN-1975-2014-KUROTA,APOLLPJPN,FAFRFJ,FAJ,Japan,Russia Japan,Pacific Coast of Japan,PJPN,Alaskan Pollock Pacific Coast of Japan,Theragra chalcogramma,Walleye pollock,NA,Digitized from stock assessment,japan/data/walleye_pollock_pacific_coast_erase.shp,ZONE,already dissolved,Digitized stock boundary from stock assessment
FAJ-BMACKECS-1992-2014-KUROTA,BMACKECS,FAFRFJ,FAJ,Japan,Russia Japan,East China Sea,ECS,Blue mackerel East China Sea,Scomber australasicus,Blue mackerel,,Digitized from stock assessment,japan/data/blue_mackerel_east_china_sea_erase.shp,ZONE,already dissolved,Digitized stock boundary from stock assessment
FAJ-BMACKPJPN-1982-2014-KUROTA,BMACKPJPN,FAFRFJ,FAJ,Japan,Russia Japan,Pacific Coast of Japan,PJPN,Blue mackerel Pacific Coast of Japan,Scomber australasicus,Blue mackerel,NA,Digitized from stock assessment,japan/data/blue_mackerel_pacific_coast_erase.shp,ZONE,already dissolved,Digitized stock boundary from stock assessment
FAJ-BRMSOJ-1980-2010-ONO,BRMSOJ,FAFRFJ,FAJ,Japan,Russia Japan,Sea of Japan,SOJ,Yellow sea bream Sea of Japan,Dentex tumifrons,Yellow sea bream,,Sea of Japan region,japan/data/eez_lr_japan_regions.shp,REGION,Sea of Japan,Used Sea of Japan region
FAJ-CMACKPJPN-1970-2009-ONO,CMACKPJPN,FAFRFJ,FAJ,Japan,Russia Japan,Pacific Coast of Japan,PJPN,Chub mackerel Pacific Coast of Japan,Scomber japonicus,Chub mackerel,Pacific chub mackerel,Japanese EEZ - Pacific Coast (outlying island EEZ excluded),japan/data/pacific_coast_skinny.shp,ZONE,already dissolved,Japan's Pacific Coast EEZ from the mainland (outlying island EEZ excluded)
FAJ-CMACKTSST-1973-2014-KUROTA,CMACKTSST,FAFRFJ,FAJ,Japan,Russia Japan,Tsushima Strait,TSST,Chub mackerel Tsushima Strait,Scomber japonicus,Chub mackerel,Pacific chub mackerel,Digitized from stock assessment,japan/data/chub_mackerel_tsushima_strait_erase.shp,ZONE,already dissolved,Digitized stock boundary from stock assessment
FAJ-JANCHOPJPN-1978-2014-KUROTA,JANCHOPJPN,FAFRFJ,FAJ,Japan,Russia Japan,Pacific Coast of Japan,PJPN,Japanese anchovy Pacific Coast of Japan,Engraulis japonicus,Japanese anchovy,,Digitized from stock assessment,japan/data/japanese_anchovy_pacific_coast_erase.shp,ZONE,already dissolved,Digitized stock boundary from stock assessment
FAJ-JANCHOSETO-1955-2014-KUROTA,JANCHOSETO,FAFRFJ,FAJ,Japan,Russia Japan,Inland Sea of Japan,SETO,Japanese anchovy Inland Sea of Japan,Engraulis japonicus,Japanese anchovy,,Digitized from stock assessment,japan/data/japanese_anchovy_inland_sea_erase.shp,ZONE,already dissolved,Digitized stock boundary from stock assessment
FAJ-JANCHOTSST-1977-2014-KUROTA,JANCHOTSST,FAFRFJ,FAJ,Japan,Russia Japan,Tsushima Strait,TSST,Japanese anchovy Tsushima Strait,Engraulis japonicus,Japanese anchovy,,Japanese EEZ - Tsushima Strait (wide version),japan/data/tsushima_strait_wide.shp,ZONE,already dissolved,A wider version of Tsushima Strait in Japan's EEZ
FAJ-JMACKPJPN-1982-2009-ONO,JMACKPJPN,FAFRFJ,FAJ,Japan,Russia Japan,Pacific Coast of Japan,PJPN,Jack mackerel Pacific Coast of Japan,Trachurus japonicus,Japanese jack mackerel,,Japanese EEZ - Pacific Coast (outlying island EEZ excluded),japan/data/pacific_coast_skinny.shp,ZONE,already dissolved,Japan's Pacific Coast EEZ from the mainland (outlying island EEZ excluded)
FAJ-JMACKTSST-1973-2010-ONO,JMACKTSST,FAFRFJ,FAJ,Japan,Russia Japan,Tsushima Strait,TSST,Japanese jack mackerel Tsushima Strait,Trachurus japonicus,Japanese jack mackerel,,TS chub mackerel boundary (digitized from stock assessment) ,japan/data/chub_mackerel_tsushima_strait_erase.shp,ZONE,already dissolved,Used  Tsushima Strait Chub mackerel boundary (which was digitized from the assessment) 
FAJ-OFLOUNECS-1986-2010-ONO,OFLOUNECS,FAFRFJ,FAJ,Japan,Russia Japan,East China Sea,ECS,Olive flounder East China Sea,Paralichthys olivaceus,Olive flounder,,Japanese EEZ - East China Sea (wide version),japan/data/east_china_sea_wide.shp,ZONE,already dissolved,A wider version of East China Sea in Japan's EEZ
FAJ-OFLOUNNSJ-1999-2010-ONO,OFLOUNNSJ,FAFRFJ,FAJ,Japan,Russia Japan,Sea of Japan North,NSJ,Olive flounder Sea of Japan North,Paralichthys olivaceus,Olive flounder,,Sea of Japan region,japan/data/eez_lr_japan_regions.shp,REGION,Sea of Japan,Used entire Sea of Japan region
FAJ-OFLOUNPAC-1990-2009-ONO,OFLOUNPAC,FAFRFJ,FAJ,Japan,Russia Japan,Pacific Ocean,PAC,Olive flounder Pacific Ocean,Paralichthys olivaceus,Olive flounder,,Japanese EEZ - Pacific Coast (outlying island EEZ excluded),japan/data/pacific_coast_skinny.shp,ZONE,already dissolved,Japan's Pacific Coast EEZ from the mainland (outlying island EEZ excluded)
FAJ-OFLOUNSETO-1987-2010-ONO,OFLOUNSETO,FAFRFJ,FAJ,Japan,Russia Japan,Inland Sea of Japan,SETO,flounder Inland Sea of Japan,Paralichthys olivaceus,Olive flounder,,Inland Sea of Japan region,japan/data/eez_lr_japan_regions.shp,REGION,Inland Sea of Japan,Used Inland Sea of Japan region
FAJ-PILCHPJPN-1976-2009-ONO,PILCHPJPN,FAFRFJ,FAJ,Japan,Russia Japan,Pacific Coast of Japan,PJPN,South american pilchard Pacific Coast of Japan,Sardinops melanostictus,Japanese pilchard,Japanese sardine,Japanese EEZ - Pacific Coast (outlying island EEZ excluded),japan/data/pacific_coast_skinny.shp,ZONE,already dissolved,Japan's Pacific Coast EEZ from the mainland (outlying island EEZ excluded)
FAJ-PILCHTSST-1960-2010-ONO,PILCHTSST,FAFRFJ,FAJ,Japan,Russia Japan,Tsushima Strait,TSST,Japanese pilchard Tsushima Strait,Sardinops melanostictus,Japanese pilchard,Japanese sardine,Japanese EEZ - Tsushima Strait (wide version),japan/data/tsushima_strait_wide.shp,ZONE,already dissolved,A wider version of Tsushima Strait in Japan's EEZ
FAJ-RBRMECS-1969-2010-ONO,RBRMECS,FAFRFJ,FAJ,Japan,Russia Japan,East China Sea,ECS,Red seabream East China Sea,Pagrus major,Red seabream,Sea bream,Japanese EEZ - East China Sea (wide version),japan/data/east_china_sea_wide.shp,ZONE,already dissolved,A wider version of East China Sea in Japan's EEZ
FAJ-RBRMSETOE-1977-2010-ONO,RBRMSETOE,FAFRFJ,FAJ,Japan,Russia Japan,Inland Sea of Japan (East),SETOE,Red seabream Inland Sea of Japan (East),Pagrus major,Red seabream,Sea bream,Inland Sea of Japan region (divided by me),japan/data/inland_sea_split.shp,ZONE,East,Inland Sea of Japan divided at natural physical/geographical break point (bottleneck)
FAJ-RBRMSETOW-1977-2010-ONO,RBRMSETOW,FAFRFJ,FAJ,Japan,Russia Japan,Inland Sea of Japan (West),SETOW,Red seabream Inland Sea of Japan (West),Pagrus major,Red seabream,Sea bream,Inland Sea of Japan region (divided by me),japan/data/inland_sea_split.shp,ZONE,West,Inland Sea of Japan divided at natural physical/geographical break point (bottleneck)
FAJ-RHERRTSST-1975-2014-KUROTA,RHERRTSST,FAFRFJ,FAJ,Japan,Russia Japan,Tsushima Strait,TSST,Round herring Tsushima Strait,Etrumeus teres,Round herring,,Digitized from stock assessment,japan/data/round_herring_tsushima_strait_erase.shp,ZONE,already dissolved,Digitized stock boundary from stock assessment
FAJ-SAURNWPAC-1980-2010-ONO,SAURNWPAC,FAFRFJ,FAJ,Japan,Russia Japan,Northwest Pacific,NWPAC,Pacific saury Northwest Pacific,Cololabis saira,Pacific saury,,Digitized from Ito et al. 2004,japan/pacific_saury_erase.shp,ZONE,already dissolved,Digitized pacific saury life history areas from Ito et al. 2004
FAJ-SPANMACKSETO-1987-2010-ONO,SPANMACKSETO,FAFRFJ,FAJ,Japan,Russia Japan,Inland Sea of Japan,SETO,Japanese Spanish mackerel Inland Sea of Japan,Scomberomorus niphonius,Japanese Spanish mackerel,,Inland Sea of Japan region,japan/data/eez_lr_japan_regions.shp,REGION,Inland Sea of Japan,Used Inland Sea of Japan region
FAO-DRSS-BCROAKWASG1-1994-2007-CHING,BCROAKWASG1,FAO,FAO-DRSS,West Africa,West Africa,West Africa Subgroup 1,SG1,Bobo croaker West Africa Subgroup 1,Pseudotolithus elongatus,Bobo croaker,NA,CMF - EEZs of sub-group countries in assessment,west_africa/eez_west_africa_subgroups.shp,ISOCODE,"LBR, SLE, GIN","WG-South: Liberia, Sierra Leone, Guinea"
FAO-DRSS-BGRUNTWASG2-1990-2006-CHING,BGRUNTWASG2,FAO,FAO-DRSS,West Africa,West Africa,West Africa Subgroup 2,SG2,Bigeye Grunt West Africa Subgroup 2,Brachydeuterus auritus,Bigeye grunt,NA,CMF - EEZs of sub-group countries in assessment,west_africa/eez_west_africa_subgroups.shp,ISOCODE,"CIV, GHA, TGO, BEN","WG-South: Cote d'Ivoire, Ghana, Togo, Benin"
FAO-DRSS-BGRUNTWASG3-1995-2007-CHING,BGRUNTWASG3,FAO,FAO-DRSS,West Africa,West Africa,West Africa Subgroup 3,SG3,Bigeye Grunt West Africa Subgroup 3,Brachydeuterus auritus,Bigeye grunt,NA,CMF - EEZs of sub-group countries in assessment,west_africa/eez_west_africa_subgroups.shp,ISOCODE,"COG, AGO","WG-South: Congo, Angola (Nigeria also stock)"
FAO-DRSS-BHAKEWASG3-1995-2007-CHING,BHAKEWASG3,FAO,FAO-DRSS,West Africa,West Africa,West Africa Subgroup 3,SG3,Benguela Hake West Africa Subgroup 3,Merluccius polli,Benguela hake,NA,CMF - EEZs of sub-group countries in assessment,west_africa/eez_west_africa_subgroups.shp,ISOCODE,AGO,WG-South: Angola
FAO-DRSS-BRMSPPWASG1-1994-2007-CHING,BRMSPPWASG1,FAO,FAO-DRSS,West Africa,West Africa,West Africa Subgroup 1,SG1,Seabream West Africa Subgroup 1,Dentex spp,Seabream,NA,CMF - EEZs of sub-group countries in assessment,west_africa/eez_west_africa_subgroups.shp,ISOCODE,"LBR, SLE, GIN","WG-South: Liberia, Sierra Leone, Guinea"
FAO-DRSS-BRMSPPWASG2-1990-2007-CHING,BRMSPPWASG2,FAO,FAO-DRSS,West Africa,West Africa,West Africa Subgroup 2,SG2,Seabream West Africa Subgroup 2,Dentex spp,Seabream,NA,CMF - EEZs of sub-group countries in assessment,west_africa/eez_west_africa_subgroups.shp,ISOCODE,"CIV, GHA, TGO, BEN","WG-South: Cote d'Ivoire, Ghana, Togo, Benin"
FAO-DRSS-BRMSPPWASG3-1995-2007-CHING,BRMSPPWASG3,FAO,FAO-DRSS,West Africa,West Africa,West Africa Subgroup 3,SG3,Seabream West Africa Subgroup 3,Dentex spp,Seabream,NA,CMF - EEZs of sub-group countries in assessment,west_africa/eez_west_africa_subgroups.shp,ISOCODE,"GAB, COG, COD, AGO","WG-South: Gabon, Congo, Democratic Republic of Congo, Angola"
FAO-DRSS-CATWASG1-1994-2008-CHING,CATWASG1,FAO,FAO-DRSS,West Africa,West Africa,West Africa Subgroup 1,SG1,Catfish West Africa Subgroup 1,Arius spp,Catfish,NA,CMF - EEZs of sub-group countries in assessment,west_africa/eez_west_africa_subgroups.shp,ISOCODE,"LBR, SLE, GIN","WG-South: Liberia, Sierra Leone, Guinea"
FAO-DRSS-CATWASG3-1995-2007-CHING,CATWASG3,FAO,FAO-DRSS,West Africa,West Africa,West Africa Subgroup 3,SG3,Catfish West Africa Subgroup 3,Arius spp,Catfish,NA,CMF - EEZs of sub-group countries in assessment,west_africa/eez_west_africa_subgroups.shp,ISOCODE,"CMR, GAB",WG-South: Cameroon and Gabon
FAO-DRSS-CROAKSPPWASG1-1994-2007-CHING,CROAKSPPWASG1,FAO,FAO-DRSS,West Africa,West Africa,West Africa Subgroup 1,SG1,Croaker West Africa Subgroup 1,Pseudotolithus spp,Croaker,NA,CMF - EEZs of sub-group countries in assessment,west_africa/eez_west_africa_subgroups.shp,ISOCODE,"LBR, SLE, GIN","WG-South: Liberia, Sierra Leone, Guinea"
FAO-DRSS-CROAKSPPWASG2-1990-2006-CHING,CROAKSPPWASG2,FAO,FAO-DRSS,West Africa,West Africa,West Africa Subgroup 2,SG2,Croaker West Africa Subgroup 2,Pseudotolithus spp,Croaker,NA,CMF - EEZs of sub-group countries in assessment,west_africa/eez_west_africa_subgroups.shp,ISOCODE,"CIV, GHA, TGO, BEN","WG-South: Cote d'Ivoire, Ghana, Togo, Benin"
FAO-DRSS-CROAKSPPWASG3-1990-2007-CHING,CROAKSPPWASG3,FAO,FAO-DRSS,West Africa,West Africa,West Africa Subgroup 3,SG3,Croaker West Africa Subgroup 3,Pseudotolithus spp,Croaker,NA,CMF - EEZs of sub-group countries in assessment,west_africa/eez_west_africa_subgroups.shp,ISOCODE,"GAB, COG, COD, AGO","WG-South: Gabon, Congo, Democratic Republic of Congo, Angola (Nigeria/Cameroon also a stock)"
FAO-DRSS-CSHRIMPWA-1990-2007-CHING,CSHRIMPWA,FAO,FAO-DRSS,West Africa,West Africa,West Africa,WA,Coastal Shrimp West Africa,Penaeus spp,Coastal shrimp,NA,CMF - EEZs of sub-group countries in assessment,west_africa/eez_west_africa_subgroups.shp,ISOCODE,"NGA, CMR, COD","WG-South Shrimp: Nigeria, Cameroon, Dem. Rep. Congo"
FAO-DRSS-CUTTLEWA-1990-2007-CHING,CUTTLEWA,FAO,FAO-DRSS,West Africa,West Africa,West Africa,WA,Cuttlefish West Africa,Sepia spp,Cuttlefish,NA,CMF - EEZs of sub-group countries in assessment,west_africa/eez_west_africa_subgroups.shp,ISOCODE,GHA,WG-South Cephalopods: Ghana
FAO-DRSS-DRSHRIMPWA-1990-2007-CHING,DRSHRIMPWA,FAO,FAO-DRSS,West Africa,West Africa,West Africa,WA,Deepwater Rose Shrimp West Africa,Parapenaeus longirostris,Deep-water rose shrimp,NA,CMF - EEZs of sub-group countries in assessment,west_africa/eez_west_africa_subgroups.shp,ISOCODE,"GIN, GNB, SLE, LBR, COG, AGO","WG-South Shrimp: Guinea, Guinea-Bissau, Sierra Leone, Liberia, Congo, Angola"
FAO-DRSS-GGRUNTWASG1-1994-2007-CHING,GGRUNTWASG1,FAO,FAO-DRSS,West Africa,West Africa,West Africa Subgroup 1,SG1,Grey Grunt West Africa Subgroup 1,Pomadasys spp,Grey grunt,NA,CMF - EEZs of sub-group countries in assessment,west_africa/eez_west_africa_subgroups.shp,ISOCODE,"LBR, SLE, GIN","WG-South: Liberia, Sierra Leone, Guinea"
FAO-DRSS-GGRUNTWASG3-1995-2007-CHING,GGRUNTWASG3,FAO,FAO-DRSS,West Africa,West Africa,West Africa Subgroup 3,SG3,Grey Grunt West Africa Subgroup 3,Pomadasys spp,Grey grunt,NA,CMF - EEZs of sub-group countries in assessment,west_africa/eez_west_africa_subgroups.shp,ISOCODE,"GAB, COG, COD, AGO","WG-South: Gabon, Congo, Democratic Republic of Congo, Angola"
FAO-DRSS-LDENTWASG3-1995-2007-CHING,LDENTWASG3,FAO,FAO-DRSS,West Africa,West Africa,West Africa Subgroup 3,SG3,Large-eye Dentex West Africa Subgroup 3,Dentex macrophthalmus,Large-eye dentex,NA,CMF - EEZs of sub-group countries in assessment,west_africa/eez_west_africa_subgroups.shp,ISOCODE,"GAB, COG, COD, AGO","WG-South: Gabon, Congo, Democratic Republic of Congo, Angola"
FAO-DRSS-OCTOWA-1990-2007-CHING,OCTOWA,FAO,FAO-DRSS,West Africa,West Africa,West Africa,WA,Octopus West Africa,Octopus vulgaris,Octopus,NA,CMF - EEZs of sub-group countries in assessment,west_africa/eez_west_africa_subgroups.shp,ISOCODE,"GIN, GNB","WG-South Cephalopods: Guinea-Bissau, Guinea"
FAO-DRSS-RPANDWASG2-1990-2007-CHING,RPANDWASG2,FAO,FAO-DRSS,West Africa,West Africa,West Africa Subgroup 2,SG2,Red Pandora West Africa Subgroup 2,Pagellus bellottii,Red pandora,NA,CMF - EEZs of sub-group countries in assessment,west_africa/eez_west_africa_subgroups.shp,ISOCODE,"CIV, GHA, TGO, BEN","WG-South: Cote d'Ivoire, Ghana, Togo, Benin"
FAO-DRSS-SOLEWASG1-1994-2007-CHING,SOLEWASG1,FAO,FAO-DRSS,West Africa,West Africa,West Africa Subgroup 1,SG1,Sole West Africa Subgroup 1,Cynoglossus spp,Sole,NA,CMF - EEZs of sub-group countries in assessment,west_africa/eez_west_africa_subgroups.shp,ISOCODE,"LBR, SLE, GIN","WG-South: Liberia, Sierra Leone, Guinea"
FAO-DRSS-SOLEWASG3-1991-2007-CHING,SOLEWASG3,FAO,FAO-DRSS,West Africa,West Africa,West Africa Subgroup 3,SG3,Sole West Africa Subgroup 3,Cynoglossus spp,Sole,NA,CMF - EEZs of sub-group countries in assessment,west_africa/eez_west_africa_subgroups.shp,ISOCODE,"GAB, COG, COD","WG-South: Gabon, Congo, Democratic Republic of Congo (Angola also a stock)"
FAO-DRSS-SPSHRIMPWA-1990-2007-CHING,SPSHRIMPWA,FAO,FAO-DRSS,West Africa,West Africa,West Africa,WA,Southern Pink Shrimp West Africa,Farfantepenaeus notialis,Southern pink shrimp,NA,CMF - EEZs of sub-group countries in assessment,west_africa/eez_west_africa_subgroups.shp,ISOCODE,"GIN, SLE, GHA, GAB, AGO","WG-South Shrimp: Guinea, Sierra Leone, Ghana, Gabon, Angola"
FAO-DRSS-THREADWASG1-1994-2007-CHING,THREADWASG1,FAO,FAO-DRSS,West Africa,West Africa,West Africa Subgroup 1,SG1,Threadfin West Africa Subgroup 1,Galeoides decadactylus,Threadfin,NA,CMF - EEZs of sub-group countries in assessment,west_africa/eez_west_africa_subgroups.shp,ISOCODE,"LBR, SLE, GIN","WG-South: Liberia, Sierra Leone, Guinea"
FAO-DRSS-THREADWASG2-1990-2006-CHING,THREADWASG2,FAO,FAO-DRSS,West Africa,West Africa,West Africa Subgroup 2,SG2,Threadfin West Africa Subgroup 2,Galeoides decadactylus,Threadfin,NA,CMF - EEZs of sub-group countries in assessment,west_africa/eez_west_africa_subgroups.shp,ISOCODE,"CIV, GHA, TGO, BEN","WG-South: Cote d'Ivoire, Ghana, Togo, Benin"
FAO-DRSS-THREADWASG3-1990-2007-CHING,THREADWASG3,FAO,FAO-DRSS,West Africa,West Africa,West Africa Subgroup 3,SG3,Threadfin West Africa Subgroup 3,Galeoides decadactylus,Threadfin,NA,CMF - EEZs of sub-group countries in assessment,west_africa/eez_west_africa_subgroups.shp,ISOCODE,"GAB, COG, COD, AGO","WG-South: Gabon, Congo, Democratic Republic of Congo, Angola (Nigeria/Cameroon also a stock)"
FAO-SPNWA-ANCHOWA-1990-2010-CHING,ANCHOWA,FAO,FAO-SPNWA,West Africa,West Africa,West Africa,WA,Anchovy West Africa,Engraulis encrasicolus,Anchovy,European anchovy,CMF - EEZs clipped by latitudes in assessment,west_africa/eez_north_west_africa.shp,ISOCODE,"MAR, MRT",Morocco/Mauritania; one stock whole region
FAO-SPNWA-BONGAWA-1990-2010-CHING,BONGAWA,FAO,FAO-SPNWA,West Africa,West Africa,West Africa,WA,Bonga West Africa,Ethmalosa fimbriata,Bonga,NA,CMF - EEZs clipped by latitudes in assessment,west_africa/eez_north_west_africa.shp,ISOCODE,"GMB, MRT, SEN",Gambia/Mauritania/Senegal; one stock whole region
FAO-SPNWA-CHMACKWA-1990-2010-CHING,CHMACKWA,FAO,FAO-SPNWA,West Africa,West Africa,West Africa,WA,Cunene Horse Mackerel West Africa,Trachurus trecae,Cunene horse mackerel,NA,CMF - EEZs clipped by latitudes in assessment,west_africa/nw_africa_cunene_horse_mackerel.shp,use whole,use whole,one stock
FAO-SPNWA-CMACKWA-1990-2010-CHING,CMACKWA,FAO,FAO-SPNWA,West Africa,West Africa,West Africa,WA,Chub Mackerel West Africa,Scomber japonicus,Chub mackerel,Pacific chub mackerel,CMF - EEZs clipped by latitudes in assessment,west_africa/nw_africa_chub_mackerel.shp,ZONE,"North, South",two stocks but assessed as one
FAO-SPNWA-FSCADWA-1990-2010-CHING,FSCADWA,FAO,FAO-SPNWA,West Africa,West Africa,West Africa,WA,False Scad West Africa,Caranx rhonchus,False scad,NA,CMF - EEZs clipped by latitudes in assessment,west_africa/nw_africa_false_scad.shp,use whole,use whole,grouped with horse mackerels
FAO-SPNWA-HMACKWA-1990-2010-CHING,HMACKWA,FAO,FAO-SPNWA,West Africa,West Africa,West Africa,WA,Horse Mackerel West Africa,Trachurus trachurus,Horse mackerel,NA,CMF - EEZs clipped by latitudes in assessment,west_africa/nw_africa_horse_mackerel.shp,ZONE,"North, South",two stocks but assessed as one
FAO-SPNWA-RSARDINWA-1990-2010-CHING,RSARDINWA,FAO,FAO-SPNWA,West Africa,West Africa,West Africa,WA,Round Sardinella West Africa,Sardinella aurita,Round sardinella,NA,CMF - EEZs clipped by latitudes in assessment,west_africa/nw_africa_round_sardinella.shp,ZONE,"North, Central, South",three stocks but assessed as one
FAO-SPNWA-SARDINWA-1990-2010-CHING,SARDINWA,FAO,FAO-SPNWA,West Africa,West Africa,West Africa,WA,Sardinella West Africa,Sardinella spp,Sardinella,NA,CMF - EEZs clipped by latitudes in assessment,west_africa/nw_africa_sardinella_spp.shp,use whole,use whole,Sardinella maderensis
FAO-SPNWA-SARDWAZAB-1990-2010-CHING,SARDWAZAB,FAO,FAO-SPNWA,West Africa,West Africa,West Africa Zone A+B,Z-AB,Sardine West Africa Zone A+B,Sardina pilchardus,European pilchard,Spanish sardine,CMF - EEZs clipped by latitudes in assessment,west_africa/nw_africa_sardine.shp,ZONE,"Zone A, Zone B","3 stocks: Zone A+B, Zone C, north stock"
FAO-SPNWA-SARDWAZC-1990-2010-CHING,SARDWAZC,FAO,FAO-SPNWA,West Africa,West Africa,West Africa Zone C,Z-C,Sardine West Africa Zone C,Sardina pilchardus,European pilchard,Spanish sardine,CMF - EEZs clipped by latitudes in assessment,west_africa/nw_africa_sardine.shp,ZONE,Zone C,"3 stocks: Zone A+B, Zone C, north stock"
GRP7-RBRMMEDGSA1-3-2009-2011-BANOBI,RBRMMEDGSA1-3,GFCM,GRP7,Europe,Mediterranean-Black Sea,"Alboran Island Sea (GSA 1,3)",GSA1-3,Red Seabream Alboran Sea,Pagellus bogaraveo,Red seabream,NA,FAO website,europe/gfcm/GSAs_simplified,SECT_COD,"GSA01, GSA02, GSA03",
HAWG-HERR2224IIIa-1991-2011-NEUBAUER,HERR2224IIIa,ICES,HAWG,Europe,European Union,22-24-IIIa,22-24-IIIa,Herring ICES 22-24-IIIa,Clupea harengus,Herring,Atlantic herring,ICES website,europe/ices/ices_areas.shp,ICES_area,"22, 24, IIIa",
HAWG-HERRNIRS-1960-2010-NEUBAUER,HERRNIRS,ICES,HAWG,Europe,European Union,Irish Sea,VIIa,Herring Northern Irish Sea,Clupea harengus,Herring,Atlantic herring,ICES website,europe/ices/ices_areas.shp,ICES_area,VIIa,
HAWG-HERRNS-1960-2011-NEUBAUER,HERRNS,ICES,HAWG,Europe,European Union,North Sea,IV,Herring North Sea,Clupea harengus,Herring,Atlantic herring,ICES website,europe/ices/ices_areas.shp,ICES_area,"IVa, IVb, IVc",
HAWG-HERRSIRS-1957-2010-NEUBAUER,HERRSIRS,ICES,HAWG,Europe,European Union,ICES VIIa-g-h-j,VIIa-g-h-j,Herring ICES VIIa-g-h-j,Clupea harengus,Herring,Atlantic herring,ICES website,europe/ices/ices_areas.shp,ICES_area,"VIIa, VIIg, VIIh, VIIj1, VIIj2",
HAWG-HERRVIa-1956-2010-NEUBAUER,HERRVIa,ICES,HAWG,Europe,European Union,West of Scotland,VIa,Herring ICES VIa,Clupea harengus,Herring,Atlantic herring,ICES website,europe/ices/ices_areas.shp,ICES_area,VIa,
HAWG-HERRVIaVIIbc-1956-2010-NEUBAUER,HERRVIaVIIbc,ICES,HAWG,Europe,European Union,"VIa, VIIb and VIIc",VIa-VIIb-VIIc,Herring ICES VIa-VIIb-VIIc,Clupea harengus,Herring,Atlantic herring,ICES website,europe/ices/ices_areas.shp,ICES_area,"VIa, VIIb, VIIc1, VIIc2",
HAWG-SPRATNS-1995-2007-MINTO,SPRATNS,ICES,HAWG,Europe,European Union,North Sea,IV,Sprat North Sea,Sprattus sprattus,Sprat,European sprat,ICES website,europe/ices/ices_areas.shp,ICES_area,"IVa, IVb, IVc",
IATTC-BIGEYEEPAC-1954-2012-PONS,BIGEYEEPAC,IATTC,IATTC,Tuna-RFMO,Pacific Ocean,Eastern Pacific,EPAC,Bigeye tuna Eastern Pacific,Thunnus obesus,Bigeye tuna,NA,RFMO/RFB shapfile database,tuna/IATTC_erase.shp,NA,already dissolved,Full IATTC area of competence
IATTC-STMARLINNEPAC-1954-2009-BRANCH,STMARLINNEPAC,IATTC,IATTC,Tuna-RFMO,Atlantic Ocean,Northeast Pacific,NEPAC,Striped marlin Northeast Pacific,Kajikia audax,Striped marlin,Pacific striped marlin,RFMO/RFB shapfile database,tuna/IATTC_northeast_pacific_clip.shp,NA,already dissolved,Clippec IATTC AoC based on stock assessment map
IATTC-SWORDEPAC-1951-2012-PONS,SWORDEPAC,IATTC,IATTC,Tuna-RFMO,Pacific Ocean,Eastern Pacific,EPAC,Swordfish Eastern Pacific,Xiphias gladius,Swordfish,NA,RFMO/RFB shapfile database,tuna/IATTC_erase.shp,NA,already dissolved,Full IATTC area of competence
IATTC-YFINEPAC-1950-2012-PONS,YFINEPAC,IATTC,IATTC,Tuna-RFMO,Pacific Ocean,Northeast Pacific,NEPAC,Yellowfin tuna Eastern Pacific,Thunnus albacares,Yellowfin tuna,NA,RFMO/RFB shapfile database,tuna/IATTC_erase.shp,NA,already dissolved,Full IATTC area of competence
ICCAT-ALBAMED-1956-2011-CHING,ALBAMED,ICCAT,ICCAT,Tuna-RFMO,Mediterranean-Black Sea,Mediterranean Sea,MED,Albacore tuna Mediterranean,Thunnus alalunga,Albacore tuna,NA,RFMO/RFB shapfile database,tuna/ICCAT_north_south_med.shp,ZONE,Meditteranean,"North, South, Med - N/S by equator, Med by 5W"
ICCAT-ALBANATL-1930-2015-PONS,ALBANATL,ICCAT,ICCAT,Tuna-RFMO,Atlantic Ocean,Northern Atlantic,NATL,Albacore tuna North Atlantic,Thunnus alalunga,Albacore tuna,NA,RFMO/RFB shapfile database,tuna/ICCAT_north_south_med.shp,ZONE,North Atlantic,"North, South, Med - N/S by equator, Med by 5W"
ICCAT-ALBASATL-1950-2015-PONS,ALBASATL,ICCAT,ICCAT,Tuna-RFMO,Atlantic Ocean,South Atlantic,SATL,Albacore tuna South Atlantic,Thunnus alalunga,Albacore tuna,NA,RFMO/RFB shapfile database,tuna/ICCAT_north_south_med.shp,ZONE,South Atlantic,"North, South, Med - N/S by equator, Med by 5W"
ICCAT-ATBTUNAEATL-1950-2015-PONS,ATBTUNAEATL,ICCAT,ICCAT,Tuna-RFMO,Atlantic Ocean,Eastern Atlantic,EATL,Bluefin tuna Eastern Atlantic,Thunnus thynnus,Atlantic bluefin tuna,Northern bluefin tuna,RFMO/RFB shapfile database,tuna/ICCAT_east_west_diagonal_split.shp,ZONE,East Atlantic,East and West (+Med) zones split along diagonal separator
ICCAT-ATBTUNAWATL-1950-2015-PONS,ATBTUNAWATL,ICCAT,ICCAT,Tuna-RFMO,Atlantic Ocean,Western Atlantic,WATL,Bluefin tuna Western Atlantic,Thunnus thynnus,Atlantic bluefin tuna,Northern bluefin tuna,RFMO/RFB shapfile database,tuna/ICCAT_east_west_diagonal_split.shp,ZONE,West Atlantic,East and West (+Med) zones split along diagonal separator
ICCAT-BIGEYEATL-1950-2010-CHING,BIGEYEATL,ICCAT,ICCAT,Tuna-RFMO,Atlantic Ocean,Atlantic Ocean,ATL,Bigeye tuna Atlantic,Thunnus obesus,Bigeye tuna,NA,RFMO/RFB shapfile database,tuna/ICCAT_minus_med.shp,ZONE,already dissolved,Whole AoC minus Med
ICCAT-BMARLINATL-1956-2010-CHING,BMARLINATL,ICCAT,ICCAT,Tuna-RFMO,Atlantic Ocean,Atlantic Ocean,ATL,Blue marlin Atlantic,Makaira nigricans,Blue marlin,,RFMO/RFB shapfile database,tuna/ICCAT_minus_med.shp,ZONE,already dissolved,Whole AoC minus Med
ICCAT-SAILEATL-1956-2010-CHING,SAILEATL,ICCAT,ICCAT,Tuna-RFMO,Atlantic Ocean,Eastern Atlantic,EATL,Sailfish Eastern Atlantic,Istiophorus albicans,Sailfish,,RFMO/RFB shapfile database,tuna/ICCAT_east_west_diagonal_split.shp,ZONE,East Atlantic,East and West (+Med) zones split along diagonal separator
ICCAT-SAILWATL-1956-2010-CHING,SAILWATL,ICCAT,ICCAT,Tuna-RFMO,Atlantic Ocean,Western Atlantic,WATL,Sailfish Western Atlantic,Istiophorus albicans,Sailfish,,RFMO/RFB shapfile database,tuna/ICCAT_east_west_diagonal_split.shp,ZONE,West Atlantic,East and West (+Med) zones split along diagonal separator
ICCAT-SKJEATL-1950-2010-CHING,SKJEATL,ICCAT,ICCAT,Tuna-RFMO,Atlantic Ocean,Eastern Atlantic,EATL,Skipjack tuna Eastern Atlantic,Katsuwonus pelamis,Skipjack tuna,NA,RFMO/RFB shapfile database,tuna/ICCAT_east_west_30W_minus_med.shp,ZONE,East,East and West (-Med) zones split at 30W
ICCAT-SKJWATL-1950-2014-PONS,SKJWATL,ICCAT,ICCAT,Tuna-RFMO,Atlantic Ocean,Western Atlantic,WATL,Skipjack tuna Western Atlantic,Katsuwonus pelamis,Skipjack tuna,NA,RFMO/RFB shapfile database,tuna/ICCAT_east_west_30W_minus_med.shp,ZONE,West,East and West (-Med) zones split at 30W
ICCAT-SWORDMED-1950-2009-CHING,SWORDMED,ICCAT,ICCAT,Tuna-RFMO,Mediterranean-Black Sea,Mediterranean Sea,MED,Swordfish Mediterranean Sea,Xiphias gladius,Swordfish,NA,RFMO/RFB shapfile database,tuna/ICCAT_north_south_med.shp,ZONE,Meditteranean,"North, South, Med - N/S by equator, Med by 5W"
ICCAT-SWORDNATL-1950-2015-PONS,SWORDNATL,ICCAT,ICCAT,Tuna-RFMO,Atlantic Ocean,Northern Atlantic,NATL,Swordfish North Atlantic,Xiphias gladius,Swordfish,NA,RFMO/RFB shapfile database,tuna/ICCAT_north_south_med.shp,ZONE,North Atlantic,"North, South, Med - N/S by equator, Med by 5W"
ICCAT-SWORDSATL-1950-2015-PONS,SWORDSATL,ICCAT,ICCAT,Tuna-RFMO,Atlantic Ocean,South Atlantic,SATL,Swordfish South Atlantic,Xiphias gladius,Swordfish,NA,RFMO/RFB shapfile database,tuna/ICCAT_north_south_med.shp,ZONE,South Atlantic,"North, South, Med - N/S by equator, Med by 5W"
ICCAT-WMARLINATL-1956-2011-CHING,WMARLINATL,ICCAT,ICCAT,Tuna-RFMO,Atlantic Ocean,Atlantic Ocean,ATL,White marlin Atlantic,Tetrapturus albidus,White Marlin,,RFMO/RFB shapfile database,tuna/ICCAT_minus_med.shp,ZONE,already dissolved,Whole AoC minus Med
ICCAT-YFINATL-1950-2011-CHING,YFINATL,ICCAT,ICCAT,Tuna-RFMO,Atlantic Ocean,Atlantic Ocean,ATL,Yellowfin tuna Atlantic,Thunnus albacares,Yellowfin tuna,NA,RFMO/RFB shapfile database,tuna/ICCAT_minus_med.shp,ZONE,already dissolved,Whole AoC minus Med
IFOP-AFLONCH-1998-2011-CHING,AFLONCH,SPRFMO,IFOP,Chile,South America,Chilean EEZ and offshore,CH,Alfonsino Chile,Beryx splendens,Alfonsino,NA,Chilean EEZ clipped based on Borquez & Hernandez 2009,chile/chile_eez.shp,ZONE,already dissolved,
IFOP-BSQLOBSTERCH-1979-2012-CHING,BSQLOBSTERCH,SPRFMO,IFOP,Chile,South America,Chilean EEZ and offshore,CH,Blue Squat Lobster Chilean,Cervimunida Johni,Blue squat lobster,NA,Chilean EEZ clipped based on Borquez & Hernandez 2009,chile/chile_eez.shp,ZONE,already dissolved,
IFOP-BWHITCH-1979-2012-CHING,BWHITCH,SPRFMO,IFOP,Chile,South America,Chilean EEZ and offshore,CH,Blue Whiting Chile,Micromesistius poutassou,Blue whiting,NA,Chilean EEZ clipped based on Borquez & Hernandez 2009,chile/chile_eez.shp,ZONE,already dissolved,
IFOP-CHERRCHVX-1960-2012-CHING,CHERRCHVX,SPRFMO,IFOP,Chile,South America,Chilean EEZ and offshore region V-X,V-X,Chilean Herring Chile Region V-X,Clupea bentincki,Chilean herring,NA,Chilean EEZ clipped based on Borquez & Hernandez 2009,chile/chile_eez_regions_dissolve.shp,ID_ROMAN,"V, VI, VII, VIII, XI, X, XIV",same as southern zone
IFOP-CHTRACCH-1950-2010-RICARD,CHTRACCH,SPRFMO,IFOP,Chile,South America,Chilean EEZ and offshore,CH,Chilean jack mackerel Chilean EEZ and offshore,Trachurus murphyi,Chilean jack mackerel,NA,Chilean EEZ clipped based on Borquez & Hernandez 2009,chile/chile_eez.shp,ZONE,already dissolved,
IFOP-HMACKCH-1970-2011-CHING,HMACKCH,SPRFMO,IFOP,Chile,South America,Chilean EEZ and offshore,CH,Horse Mackerel Chile,Trachurus trachurus,Horse mackerel,NA,Chilean EEZ clipped based on Borquez & Hernandez 2009,chile/chile_eez.shp,ZONE,already dissolved,
IFOP-NSHRIMPCH-1949-2012-CHING,NSHRIMPCH,SPRFMO,IFOP,Chile,South America,Chilean EEZ and offshore,CH,Nylon Shrimp Chile,Heterocarpus reedi,Nylon shrimp,NA,Chilean EEZ clipped based on Borquez & Hernandez 2009,chile/chile_eez.shp,ZONE,already dissolved,
IFOP-OROUGHYCH-1999-2011-CHING,OROUGHYCH,SPRFMO,IFOP,Chile,South America,Chilean EEZ and offshore,CH,Orange Rough Chile,Hoplostethus atlanticus,Orange roughy,NA,Chilean EEZ clipped based on Borquez & Hernandez 2009,chile/chile_eez.shp,ZONE,already dissolved,
IFOP-PANCHCHVX-1960-2012-CHING,PANCHCHVX,SPRFMO,IFOP,Chile,South America,Chilean EEZ and offshore region V-X,V-X,Peruvian Anchoveta Chile Region V-X,Engraulis ringens,Peruvian anchoveta,Anchoveta,Chilean EEZ clipped based on Borquez & Hernandez 2009,chile/chile_eez_regions_dissolve.shp,ID_ROMAN,"V, VI, VII, VIII, XI, X, XIV",same as southern zone
IFOP-PANCHNCH-1984-2012-CHING,PANCHNCH,SPRFMO,IFOP,Chile,South America,North Chilean EEZ and offshore,NCH,Peruvian Anchoveta North Chile,Engraulis ringens,Peruvian anchoveta,Anchoveta,Chilean EEZ clipped based on Borquez & Hernandez 2009,chile/chile_eez_regions_dissolve.shp,REGION,North Chile,
IFOP-PANCHSCH-1984-2012-CHING,PANCHSCH,SPRFMO,IFOP,Chile,South America,South Chilean EEZ and offshore,SCH,Peruvian Anchoveta South Chile,Engraulis ringens,Peruvian anchoveta,Anchoveta,Chilean EEZ clipped based on Borquez & Hernandez 2009,chile/chile_eez_regions_dissolve.shp,REGION,South Chile,same as regions V-X
IFOP-PATGRENADIERCH-1977-2012-CHING,PATGRENADIERCH,SPRFMO,IFOP,Chile,South America,Chilean EEZ and offshore,CH,Patagonian grenadier Chile,Macruronus magellanicus,Patagonian grenadier,Merluza de cola,Chilean EEZ clipped based on Borquez & Hernandez 2009,chile/chile_eez.shp,ZONE,already dissolved,
IFOP-PCEELCH-1978-2011-CHING,PCEELCH,SPRFMO,IFOP,Chile,South America,Chilean EEZ and offshore,CH,Pink Cusk-eel Chile,Genypterus blacodes,New Zealand ling,NA,Chilean EEZ clipped based on Borquez & Hernandez 2009,chile/chile_eez.shp,ZONE,already dissolved,
IFOP-PTOOTHFISHCH-1989-2011-CHING,PTOOTHFISHCH,SPRFMO,IFOP,Chile,South America,Chilean EEZ and offshore,CH,Patagonian Toothfish Chile,Dissostichus eleginoides,Patagonian toothfish,NA,Chilean EEZ clipped based on Borquez & Hernandez 2009,chile/chile_eez.shp,ZONE,already dissolved,
IFOP-RSQLOBSTERCH-1968-2012-CHING,RSQLOBSTERCH,SPRFMO,IFOP,Chile,South America,Chilean EEZ and offshore region V-VIII,V-VIII,Red Squat Lobster Chile Region V-VIII,Pleuroncodes monodon,Red squat lobster,NA,Chilean EEZ clipped based on Borquez & Hernandez 2009,chile/chile_eez_regions_dissolve.shp,ID_ROMAN,"V, VI, VII, VIII",
IFOP-SBREAMCH-1989-2011-CHING,SBREAMCH,SPRFMO,IFOP,Chile,South America,Chilean EEZ and offshore,CH,Deepwater Cardinalfish Chile,Epigonus crassicaudus,Deepwater cardinalfish,NA,Chilean EEZ clipped based on Borquez & Hernandez 2009,chile/chile_eez.shp,ZONE,already dissolved,
IFOP-SOUTHHAKECH-1977-2011-CHING,SOUTHHAKECH,SPRFMO,IFOP,Chile,South America,Chilean EEZ and offshore,CH,South Hake Chile,Merluccius australis,Southern hake,NA,Chilean EEZ clipped based on Borquez & Hernandez 2009,chile/chile_eez.shp,ZONE,already dissolved,
IFOP-SPHAKECH-1968-2012-CHING,SPHAKECH,SPRFMO,IFOP,Chile,South America,Chilean EEZ and offshore,CH,South Pacific Hake Chile,Merluccius gayi,Peruvian hake,NA,Chilean EEZ clipped based on Borquez & Hernandez 2009,chile/chile_eez.shp,ZONE,already dissolved,
IFOP-SSARDCH-2006-2012-CHING,SSARDCH,SPRFMO,IFOP,Chile,South America,Chilean EEZ and offshore,CH,Southern Sardine Chile,Sprattus fuengensis,Southern sardine,NA,Chilean EEZ clipped based on Borquez & Hernandez 2009,chile/chile_eez.shp,ZONE,already dissolved,
IFOP-YNOSESKACH-1979-2011-CHING,YNOSESKACH,SPRFMO,IFOP,Chile,South America,Chilean EEZ and offshore,CH,Yellownose Skate Chile,Zearaja chilensis,Yellownose skate,NA,Chilean EEZ clipped based on Borquez & Hernandez 2009,chile/chile_eez.shp,ZONE,already dissolved,
IFREMER-ANCHMEDGSA7-1993-2012-BANOBI,ANCHMEDGSA7,GFCM,IFREMER,Europe,Mediterranean-Black Sea,Gulf of Lions,GSA7,Anchovy Gulf of Lions,Engraulis encrasicolus,Anchovy,European anchovy,FAO website,europe/gfcm/GSAs_simplified,SECT_COD,GSA07,
IFREMER-SARDMEDGSA7-1993-2012-BANOBI,SARDMEDGSA7,GFCM,IFREMER,Europe,Mediterranean-Black Sea,Gulf of Lions,GSA7,Sardine Gulf of Lions,Sardina pilchardus,European pilchard,Spanish sardine,FAO website,europe/gfcm/GSAs_simplified,SECT_COD,GSA07,
IMARM-SFMAKONWPAC-1990-2003-FAUCONNET,SFMAKONWPAC,UNKNOWN,IMARM,Taiwan,Pacific Ocean,Nothwest Pacific Ocean,NWPAC,Shortfin mako Nothwest Pacific Ocean,Isurus oxyrinchus,Shortfin mako,NA,Digitized from Chang & Liu (2009),taiwan/shortfin_mako_taiwan_erase.shp,ZONE,already dissolved,
IMARPE-PANCHPERUNC-1959-2008-HIVELY,PANCHPERUNC,IMARPE,IMARPE,Peru,South America,North-Central Peruvian coast,NC,Peruvian anchoveta North-Central Peru,Engraulis ringens,Peruvian anchoveta,Anchoveta,Digitized from stock assessment,south_america/peruvian_anchoveta_stocks.shp,STOCK,North-Central,
INIDEP-ARGANCHONARG-1989-2007-Parma,ARGANCHONARG,CFP,INIDEP,Argentina,South America,Northern Argentina,ARG-N,Argentine anchoita Northern Argentina,Engraulis anchoita,Argentine anchoita,Anchoita,Split Argentinan EEZ at 41S based on assessments,argentina/aregentina_eez_north_south.shp,STOCK,North,
INIDEP-ARGANCHOSARG-1992-2007-Parma,ARGANCHOSARG,CFP,INIDEP,Argentina,South America,Southern Argentina,ARG-S,Argentine anchoita Southern Argentina,Engraulis anchoita,Argentine anchoita,Anchoita,Split Argentinan EEZ at 41S based on assessments,argentina/aregentina_eez_north_south.shp,STOCK,South,
INIDEP-ARGHAKENARG-1986-2011-CHING,ARGHAKENARG,CFP,INIDEP,Argentina,South America,Northern Argentina,ARG-N,Argentine hake Northern Argentina,Merluccius hubbsi,Argentine hake,NA,Split Argentinan EEZ at 41S based on assessments,argentina/aregentina_eez_north_south.shp,STOCK,North,
INIDEP-ARGHAKESARG-1990-2011-CHING,ARGHAKESARG,CFP,INIDEP,Argentina,South America,Southern Argentina,ARG-S,Argentine hake Southern Argentina,Merluccius hubbsi,Argentine hake,NA,Split Argentinan EEZ at 41S based on assessments,argentina/aregentina_eez_north_south.shp,STOCK,South,
INIDEP-PATGRENADIERSARG-1983-2006-Parma,PATGRENADIERSARG,CFP,INIDEP,Argentina,South America,Southern Argentina,ARG-S,Patagonian grenadier Southern Argentina,Macruronus magellanicus,Patagonian grenadier,Merluza de cola,Split Argentinan EEZ at 41S based on assessments,argentina/aregentina_eez_north_south.shp,STOCK,South,
INIDEP-SBWHITARGS-1985-2007-Parma,SBWHITARGS,CFP,INIDEP,Argentina,South America,Southern Argentina,ARG-S,Southern blue whiting Southern Argentina,Micromesistius australis,Southern blue whiting,NA,Split Argentinan EEZ at 41S based on assessments,argentina/aregentina_eez_north_south.shp,STOCK,South,
IOTC-ALBAIO-1950-2014-PONS,ALBAIO,IOTC,IOTC,Tuna-RFMO,Indian Ocean,Indian Ocean,IO,Albacore tuna Indian Ocean,Thunnus alalunga,Albacore tuna,NA,RFMO/RFB shapfile database,tuna/IOTC_indian_ocean_only.shp,ZONE,already dissolved,whole AoC minus Red Sea and Persian Gulf
IOTC-BIGEYEIO-1950-2014-PONS,BIGEYEIO,IOTC,IOTC,Tuna-RFMO,Indian Ocean,Indian Ocean,IO,Bigeye tuna Indian Ocean,Thunnus obesus,Bigeye tuna,NA,RFMO/RFB shapfile database,tuna/IOTC_indian_ocean_north_of_cape_horn,ZONE,already dissolved,AoC north of Cape Horn minus Red Sea and Persian Gulf
IOTC-BLKMARLINIO-1950-2014-PONS,BLKMARLINIO,IOTC,IOTC,Tuna-RFMO,Indian Ocean,Indian Ocean,IO,Black marlin Indian Ocean,Istiompax indica,Black marlin,NA,RFMO/RFB shapfile database,tuna/IOTC_indian_ocean_north_of_40S,ZONE,already dissolved,AoC north of 40S minus Red Sea and Persian Gulf
IOTC-BMARLINIO-1950-2014-PONS,BMARLINIO,IOTC,IOTC,Tuna-RFMO,Indian Ocean,Indian Ocean,IO,Indo-Pacific blue marlin Indian Ocean,Makaira mazara,Indo-Pacific blue marlin,NA,RFMO/RFB shapfile database,tuna/IOTC_indian_ocean_north_of_40S,ZONE,already dissolved,AoC north of 40S minus Red Sea and Persian Gulf
IOTC-SKJCIO-1950-2014-PONS,SKJCIO,IOTC,IOTC,Tuna-RFMO,Indian Ocean,Indian Ocean,IO,Skipjack tuna Indian Ocean,Katsuwonus pelamis,Skipjack tuna,NA,RFMO/RFB shapfile database,tuna/IOTC_indian_ocean_only.shp,ZONE,already dissolved,whole AoC minus Red Sea and Persian Gulf
IOTC-STMARLINIO-1950-2014-PONS,STMARLINIO,IOTC,IOTC,Tuna-RFMO,Indian Ocean,Indian Ocean,IO,Striped marlin Indian Ocean,Kajikia audax,Striped marlin,Pacific striped marlin,RFMO/RFB shapfile database,tuna/IOTC_indian_ocean_north_of_40S,ZONE,already dissolved,AoC north of 40S minus Red Sea and Persian Gulf
IOTC-SWORDIO-1950-2014-PONS,SWORDIO,IOTC,IOTC,Tuna-RFMO,Indian Ocean,Indian Ocean,IO,Swordfish Indian Ocean,Xiphias gladius,Swordfish,NA,RFMO/RFB shapfile database,tuna/IOTC_indian_ocean_north_of_40S,ZONE,already dissolved,AoC north of 40S minus Red Sea and Persian Gulf
IOTC-YFINEIO-1950-2014-PONS,YFINEIO,IOTC,IOTC,Tuna-RFMO,Indian Ocean,Indian Ocean,IO,Yellowfin tuna Indian Ocean,Thunnus albacares,Yellowfin tuna,NA,RFMO/RFB shapfile database,tuna/IOTC_indian_ocean_north_of_40S,ZONE,already dissolved,AoC north of 40S minus Red Sea and Persian Gulf
IPHC-PHALNPAC-1888-2014-HIVELY,PHALNPAC,IPHC,IPHC,North Pacific,US Alaska,North Pacific,NPAC,Pacific halibut North Pacific,Hippoglossus stenolepis,Pacific halibut,NA,RFMO/RFB shapfile database,multinational/rfmos/pacific_ocean/iphc.shp,RFB,IPHC,whole IPHC area of competence
ISC-ALBANPAC-1950-2012-PONS,ALBANPAC,ISC,ISC,Tuna-RFMO,US West Coast,North Pacific Ocean,NPAC,Albacore tuna North Pacific,Thunnus alalunga,Albacore tuna,NA,Digitized from stock assessment,tuna/ISC_albacore_n_pacific_erase.shp,NA,already dissolved,
ISC-BMARLINPAC-1952-2011-PONS,BMARLINPAC,ISC,ISC,Tuna-RFMO,Pacific Ocean,Pacific Ocean,PAC,Blue marlin Pacific Ocean,Makaira nigricans,Blue marlin,,Entire Pacific Ocean,tuna/ISC_bluefin_tuna_blue_marlin_whole_pacific_erase.shp,NA,already dissolved,Whole Pacific Ocean with northern/southern limits defined by other tuna/marlin distributions
ISC-PACBTUNA-1952-2012-PONS,PACBTUNA,ISC,ISC,Tuna-RFMO,Pacific Ocean,Pacific Ocean,PAC,Pacific bluefin tuna Pacific Ocean,Thunnus orientalis,Pacific bluefin tuna,,Entire Pacific Ocean,tuna/ISC_bluefin_tuna_blue_marlin_whole_pacific_erase.shp,NA,already dissolved,Whole Pacific Ocean with northern/southern limits defined by other tuna/marlin distributions
ISC-STMARLINWCNPAC-1951-2010-CHING,STMARLINWCNPAC,ISC,ISC,Tuna-RFMO,Pacific Ocean,Western and Central North Pacific,WCNPAC,Striped marlin Western and Central North Pacific,Kajikia audax,Striped marlin,Pacific striped marlin,Digitized from stock assessment,tuna/ISC_striped_marlin_wcn_pacific_erase.shp,NA,already dissolved,
ISC-SWORDNPAC-1951-2012-PONS,SWORDNPAC,ISC,ISC,Tuna-RFMO,Pacific Ocean,North Pacific Ocean,NPAC,Swordfish North Pacific,Xiphias gladius,Swordfish,NA,Digitized from stock assessment,tuna/ISC_swordfish_wc_pacific_erase.shp,NA,already dissolved,
MARAM-ANCHOSA-1984-2011-deMoor,ANCHOSA,DETMCM,MARAM,South Africa,South Africa,South Africa,SA,Anchovy South Africa,Engraulis encrasicolus,Anchovy,European anchovy,Entire Coast EEZ,south_africa/eez_south_africa.shp,ZONE,mainland,
MARAM-CHAKESA-1917-2015-Rademeyer,CHAKESA,DETMCM,MARAM,South Africa,South Africa,South Africa,SA,Shallow-water cape hake South Africa,Merluccius capensis,Shallow-water cape hake,South African hake,West+South Coast EEZ,south_africa/south_africa_eez_zones.shp,ZONE,West+South Coast EEZ,
MARAM-CHSQUIDSA-1971-2013-GLAZER,CHSQUIDSA,DETMCM,MARAM,South Africa,South Africa,South Africa,SA,Cape Hope squid South Africa,Loligo reynaudii,Cape Hope squid,Chokka squid,West+South Coast EEZ,south_africa/south_africa_eez_zones.shp,ZONE,West+South Coast EEZ,
MARAM-CRLOBSTERSA12-1910-2014-Johnston,CRLOBSTERSA12,DETMCM,MARAM,South Africa,South Africa,South Africa Areas 1-2,2-Jan,West coast rock lobster South Africa Areas 1-2,Jasus lalandii,South African west coast rock lobster,Cape rock lobster,CMF - based on DAFF 2013 WCRL report,south_africa/south_africa_lobster_areas1-8.shp,AREA_NUM,"1, 2",Port Nolloth and Hondeklip Bay
MARAM-CRLOBSTERSA34-1910-2014-Johnston,CRLOBSTERSA34,DETMCM,MARAM,South Africa,South Africa,South Africa Areas 3-4,4-Mar,West coast rock lobster South Africa Areas 3-4,Jasus lalandii,South African west coast rock lobster,Cape rock lobster,CMF - based on DAFF 2013 WCRL report,south_africa/south_africa_lobster_areas1-8.shp,AREA_NUM,"3, 4",Lamberts Bay and Elands Bay
MARAM-CRLOBSTERSA56-1910-2014-Johnston,CRLOBSTERSA56,DETMCM,MARAM,South Africa,South Africa,South Africa Areas 5-6,6-May,West coast rock lobster South Africa Areas 5-6,Jasus lalandii,South African west coast rock lobster,Cape rock lobster,CMF - based on DAFF 2013 WCRL report,south_africa/south_africa_lobster_areas1-8.shp,AREA_NUM,"5, 6",Saldanha Bay
MARAM-CRLOBSTERSA7-1910-2014-Johnston,CRLOBSTERSA7,DETMCM,MARAM,South Africa,South Africa,South Africa Area 7,7,West coast rock lobster South Africa Area 7,Jasus lalandii,South African west coast rock lobster,Cape rock lobster,CMF - based on DAFF 2013 WCRL report,south_africa/south_africa_lobster_areas1-8.shp,AREA_NUM,7,Dassen Island
MARAM-CRLOBSTERSA8-1910-2014-Johnston,CRLOBSTERSA8,DETMCM,MARAM,South Africa,South Africa,South Africa Area 8,8,West coast rock lobster South Africa Area 8,Jasus lalandii,South African west coast rock lobster,Cape rock lobster,CMF - based on DAFF 2013 WCRL report,south_africa/south_africa_lobster_areas1-8.shp,AREA_NUM,8,Cape Point
MARAM-CTRACSA-1949-2013-Furman,CTRACSA,DETMCM,MARAM,South Africa,South Africa,South Africa South coast,SASC,Cape horse mackerel South Africa South coast,Trachurus capensis,Cape horse mackerel,NA,South Coast EEZ,south_africa/south_africa_eez_zones.shp,ZONE,South Coast EEZ,
MARAM-DEEPCHAKESA-1917-2015-Rademeyer,DEEPCHAKESA,DETMCM,MARAM,South Africa,South Africa,South Africa,SA,Deep-water cape hake South Africa,Merluccius paradoxus,Deep-water cape hake,Deep-water hake,West+South Coast EEZ,south_africa/south_africa_eez_zones.shp,ZONE,West+South Coast EEZ,
MARAM-KINGKLIPSA-1986-2012-Brandao,KINGKLIPSA,DETMCM,MARAM,South Africa,South Africa,South Africa,SA,Kingklip South Africa,Genypterus capensis,Kingklip,NA,Entire Coast EEZ,south_africa/eez_south_africa.shp,ZONE,mainland,
MARAM-PTOOTHFISHPEI-1960-2015-Brandao,PTOOTHFISHPEI,DETMCM,MARAM,South Africa,South Africa,South Africa Subantarctic Prince Edward Islands,PEI,Patagonian toothfish South Africa Subantarctic Prince Edward Islands,Dissostichus eleginoides,Patagonian toothfish,NA,PEI EEZ,south_africa/eez_south_africa.shp,ZONE,PEI,PEI EEZ
MARAM-SAABALONESA-1951-2015-Brandao,SAABALONESA,DETMCM,MARAM,South Africa,South Africa,South Africa,SA,Abalone South Africa,Haliotis midae,South African abalone,NA,Entire Coast EEZ,south_africa/eez_south_africa.shp,ZONE,mainland,
MARAM-SARDSA-1984-2011-deMoor,SARDSA,DETMCM,MARAM,South Africa,South Africa,South Africa,SA,Sardine South Africa,Sardinops sagax,Sardine,Pacific sardine,Entire Coast EEZ,south_africa/eez_south_africa.shp,ZONE,Entire Coast EEZ,
MARAM-SSLOBSTERSASC-1973-2014-Johnston,SSLOBSTERSASC,DETMCM,MARAM,South Africa,South Africa,South Africa South coast,SASC,Southern spiny lobster South Africa South coast,Palinurus gilchristi,Southern spiny lobster,NA,South Coast EEZ,south_africa/south_africa_eez_zones.shp,ZONE,South Coast EEZ,
NAFO-SC-AMPL3LNO-1955-2007-BAUM,AMPL3LNO,NAFO,NAFO-SC,North Atlantic,Canada East Coast,Grand Banks,3LNO,American Plaice NAFO-3LNO,Hippoglossoides platessoides,American plaice,NA,NAFO GIS website,canada/nafo/Divisions.shp,ZONE,"3L, 3N, 3O",
NAFO-SC-AMPL3M-1960-2007-BAUM,AMPL3M,NAFO,NAFO-SC,North Atlantic,Canada East Coast,Flemish Cap,3M,American Plaice NAFO-3M,Hippoglossoides platessoides,American plaice,NA,NAFO GIS website,canada/nafo/Divisions.shp,ZONE,3M,
NAFO-SC-COD3M-1960-2012-CHING,COD3M,NAFO,NAFO-SC,North Atlantic,Canada East Coast,Flemish Cap,3M,Atlantic cod NAFO 3M,Gadus morhua,Atlantic cod,NA,NAFO GIS website,canada/nafo/Divisions.shp,ZONE,3M,
NAFO-SC-COD3NO-1953-2011-CHING,COD3NO,NAFO,NAFO-SC,North Atlantic,Canada East Coast,Southern Grand Banks,3NO,Atlantic cod NAFO 3NO,Gadus morhua,Atlantic cod,NA,NAFO GIS website,canada/nafo/Divisions.shp,ZONE,"3N, 3O",
NAFO-SC-GHAL01ABCDEF-1987-2006-PREFONTAINE,GHAL01ABCDEF,NAFO,NAFO-SC,North Atlantic,European Union,NAFO divisions 01ABCDEF,01ABCDEF,Greenland halibut NAFO 01ABCDEF,Reinhardtius hippoglossoides,Greenland halibut,Greenland turbot,NAFO GIS website,canada/nafo/Divisions.shp,ZONE,"1A, 1B, 1C, 1D, 1E, 1F",
NAFO-SC-GHAL23KLMNO-1960-2010-WATSON,GHAL23KLMNO,NAFO,NAFO-SC,North Atlantic,Canada East Coast,Labrador Shelf - Grand Banks,23KLMNO,Greenland halibut NAFO 23KLMNO,Reinhardtius hippoglossoides,Greenland halibut,Greenland turbot,NAFO GIS website,canada/nafo/Divisions.shp,ZONE,"2G, 2H, 2J, 3K, 3L, 3M, 3N, 3O",
NAFO-SC-REDFISHSPP1-1965-2004-PREFONTAINE,REDFISHSPP1,NAFO,NAFO-SC,North Atlantic,European Union,West Greenland,1,Redfish species NAFO 1,Sebastes spp,Sebastes species,NA,NAFO GIS website,canada/nafo/Divisions.shp,ZONE,"1A, 1B, 1C, 1D, 1E, 1F",
NAFO-SC-REDFISHSPP3LN-1959-2013-WATSON,REDFISHSPP3LN,NAFO,NAFO-SC,North Atlantic,Canada East Coast,N and SW Grand Banks,3LN,Redfish species NAFO 3LN,Sebastes spp,Sebastes species,NA,NAFO GIS website,canada/nafo/Divisions.shp,ZONE,"3L, 3N",
NAFO-SC-REDFISHSPP3M-1988-2014-WATSON,REDFISHSPP3M,NAFO,NAFO-SC,North Atlantic,Canada East Coast,Flemish Cap,3M,Redfish species NAFO 3M,Sebastes spp,Sebastes species,NA,NAFO GIS website,canada/nafo/Divisions.shp,ZONE,3M,
NAFO-SC-TSKA3LNOPs-1960-2014-OSGOOD,TSKA3LNOPs,NAFO,NAFO-SC,North Atlantic,Canada East Coast,Grand Bank and St Pierre Bank,3LNOPs,Thorny skate NAFO-3LNOPs,Amblyraja radiata,Thorny skate,NA,NAFO GIS website,canada/nafo/Divisions.shp,ZONE,"3L, 3N, 3O, 3Ps",
NAFO-SC-WHAKE3NOPs-1960-2015-OSGOOD,WHAKE3NOPs,NAFO,NAFO-SC,North Atlantic,Canada East Coast,Grand Bank and St. Pierre Bank,3NOPs,White hake Southern Grand Bank and St. Pierre Bank,Urophycis tenuis,White hake,NA,NAFO GIS website,canada/nafo/Divisions.shp,ZONE,"3N, 3O, 3Ps",
NAFO-SC-YELL3LNO-1960-2015-WATSON,YELL3LNO,NAFO,NAFO-SC,North Atlantic,Canada East Coast,Grand Banks,3LNO,Yellowtail Flounder NAFO 3LNO,Limanda ferruginea,Yellowtail flounder,NA,NAFO GIS website,canada/nafo/Divisions.shp,ZONE,"3L, 3N, 3O",
NEFSC-ACADREDGOMGB-1913-2007-MILLER,ACADREDGOMGB,NMFS,NEFSC,USA,US East Coast,Gulf of Maine / Georges Bank,5YZ,Acadian redfish Gulf of Maine / Georges Bank,Sebastes fasciatus,Acadian redfish,Redfish,NOAA EFH GIS Data Inventory,usa/noaa_ne_efh/new_england_efh_nad83.shp,SITENAME_L,Redfish,All life stages
NEFSC-AMPL5YZ-1960-2010-HIVELY,AMPL5YZ,NMFS,NEFSC,USA,US East Coast,Gulf of Maine / Georges Bank,5YZ,American Plaice NAFO-5YZ,Hippoglossoides platessoides,American plaice,NA,NOAA EFH GIS Data Inventory,usa/noaa_ne_efh/new_england_efh_nad83.shp,SITENAME_L,American Plaice,All life stages
NEFSC-ATHAL5YZ-1800-2007-COL,ATHAL5YZ,NMFS,NEFSC,USA,US East Coast,Gulf of Maine / Georges Bank,5YZ,Atlantic Halibut NAFO-5YZ,Hippoglossus hippoglossus,Atlantic Halibut,NA,NOAA EFH GIS Data Inventory,usa/noaa_ne_efh/new_england_efh_nad83.shp,SITENAME_L,Atlantic Halibut,All life stages
NEFSC-BLUEFISHATLC-1981-2007-SHEPHERD,BLUEFISHATLC,NMFS,NEFSC,USA,US East Coast,Atlantic Coast,ATLC,Bluefish Atlantic Coast,Pomatomus saltatrix,Bluefish,NA,NOAA EFH GIS Data Inventory,usa/noaa_ma_efh/mid_atlantic_efh_nad83.shp,SITENAME_L,Bluefish,All life stages
NEFSC-BSBASSMATLC-1968-2007-SHEPHERD,BSBASSMATLC,NMFS,NEFSC,USA,US East Coast,Mid-Atlantic Coast,MATLC,Black sea bass Mid-Atlantic Coast,Centropristis striata,Black sea bass,NA,NOAA EFH GIS Data Inventory,usa/noaa_ma_efh/mid_atlantic_efh_nad83.shp,SITENAME_L,Black Sea Bass,All life stages
NEFSC-BSKAT5YZSNE-1963-2005-SOSEBEE,BSKAT5YZSNE,NMFS,NEFSC,USA,US East Coast,Gulf of Maine / Georges Bank-Southern New England,5YZSNE,Barndoor skate Gulf of Marine / Georges Bank-Southern New England,Dipturus laevis,Barndoor skate,NA,NOAA EFH GIS Data Inventory,usa/noaa_ne_efh/new_england_efh_nad83.shp,SITENAME_L,Barndoor Skate,All life stages
NEFSC-BUTTERGOMCHATT-1965-2012-HIVELY,BUTTERGOMCHATT,NMFS,NEFSC,USA,US East Coast,Gulf of Maine / Cape Hatteras,5YCHATT,Atlantic butterfish Gulf of Maine / Cape Hatteras,Peprilus triacanthus,Atlantic butterfish,butterfish,NOAA EFH GIS Data Inventory,usa/noaa_ma_efh/mid_atlantic_efh_nad83.shp,SITENAME_L,Atlantic Butterfish,All life stages
NEFSC-CODGB-1976-2011-CHING,CODGB,NMFS,NEFSC,USA,US East Coast,Georges Bank,5Z,Atlantic cod Georges Bank,Gadus morhua,Atlantic cod,NA,NOAA EFH GIS Data Inventory,usa/noaa_ne_efh/new_england_efh_nad83.shp,SITENAME_L,Atlantic Cod,"All life stages, clipped to GB"
NEFSC-CODGOM-1981-2011-CHING,CODGOM,NMFS,NEFSC,USA,US East Coast,Gulf of Maine,5Y,Atlantic cod Gulf of Maine,Gadus morhua,Atlantic cod,NA,NOAA EFH GIS Data Inventory,usa/noaa_ne_efh/new_england_efh_nad83.shp,SITENAME_L,Atlantic Cod,"All life stages, clipped to GOM"
NEFSC-CSKATMATLC-1975-2005-SOSEBEE,CSKATMATLC,NMFS,NEFSC,USA,US East Coast,Mid-Atlantic Coast,MATLC,Clearnose skate Mid-Atlantic Coast,Raja eglanteria,Clearnose skate,NA,NOAA EFH GIS Data Inventory,usa/noaa_ne_efh/new_england_efh_nad83.shp,SITENAME_L,Clearnose Skate,All life stages
NEFSC-HAD5Y-1964-2011-CHING,HAD5Y,NMFS,NEFSC,USA,US East Coast,Gulf of Maine,5Y,Haddock NAFO-5Y,Melanogrammus aeglefinus,Haddock,NA,NOAA EFH GIS Data Inventory,usa/noaa_ne_efh/new_england_efh_nad83.shp,SITENAME_L,Haddock,"All life stages, clipped to GOM"
NEFSC-HERRNWATLC-1964-2011-HIVELY,HERRNWATLC,NMFS,NEFSC,USA,US East Coast,Northwestern Atlantic Coast,NWATLC,Atlantic herring Northwestern Atlantic Coast,Clupea harengus,Herring,Atlantic herring,NOAA EFH GIS Data Inventory,usa/noaa_ne_efh/new_england_efh_nad83.shp,SITENAME_L,Atlantic Herring,All life stages
NEFSC-ILLEXNWATLC-1967-2005-HENDRICKSON,ILLEXNWATLC,NMFS,NEFSC,USA,US East Coast,Northwestern Atlantic Coast,NWATLC,Northern shortfin squid Northwestern Atlantic Coast,Illex illecebrosus,Northern shortfin squid,NA,NOAA EFH GIS Data Inventory,usa/noaa_ma_efh/mid_atlantic_efh_nad83.shp,SITENAME_L,Northern Shortfin Squid,All life stages
NEFSC-LSKAT5YCHATT-1968-2006-SOSEBEE,LSKAT5YCHATT,NMFS,NEFSC,USA,US East Coast,Gulf of Maine / Cape Hatteras,5YCHATT,Little skate Gulf of Maine / Cape Hatteras,Leucoraja erinacea,Little skate,NA,NOAA EFH GIS Data Inventory,usa/noaa_ne_efh/new_england_efh_nad83.shp,SITENAME_L,Little Skate,All life stages
NEFSC-MONKGOMNGB-1980-2009-HIVELY,MONKGOMNGB,NMFS,NEFSC,USA,US East Coast,Gulf of Maine / Northern Georges Bank,GOMNGB,Monkfish Gulf of Maine / Northern Georges Bank,Lophius americanus,Monkfish,Goosefish,NOAA EFH GIS Data Inventory,usa/noaa_ne_efh/new_england_efh_nad83.shp,SITENAME_L,Monkfish,"All life stages, clipped to nGB/GOM"
NEFSC-MONKSGBMATL-1980-2009-HIVELY,MONKSGBMATL,NMFS,NEFSC,USA,US East Coast,Southern Georges Bank / Mid-Atlantic,SGBMATL,Monkfish Southern Georges Bank / Mid-Atlantic,Lophius americanus,Monkfish,Goosefish,NOAA EFH GIS Data Inventory,usa/noaa_ne_efh/new_england_efh_nad83.shp,SITENAME_L,Monkfish,"All life stages, clipped to sGB/SNEMA"
NEFSC-OPOUTNWATLC-1962-2008-WIGLEY,OPOUTNWATLC,NMFS,NEFSC,USA,US East Coast,Northwestern Atlantic Coast,NWATLC,Ocean pout Northwestern Atlantic Coast,Zoarces americanus,Ocean pout,NA,NOAA EFH GIS Data Inventory,usa/noaa_ne_efh/new_england_efh_nad83.shp,SITENAME_L,Ocean Pout,All life stages
NEFSC-POLL5YZ-1960-2009-CHING,POLL5YZ,NMFS,NEFSC,USA,US East Coast,Gulf of Maine / Georges Bank,5YZ,Pollock NAFO-5YZ,Pollachius virens,Pollock,Saithe,NOAA EFH GIS Data Inventory,usa/noaa_ne_efh/new_england_efh_nad83.shp,SITENAME_L,Pollock,All life stages
NEFSC-QUAHATLC-1978-2008-CHUTE,QUAHATLC,NMFS,NEFSC,USA,US East Coast,Atlantic Coast,ATLC,Ocean quahog Atlantic Coast,Arctica islandica,Ocean quahog,NA,NOAA EFH GIS Data Inventory,usa/noaa_ma_efh/mid_atlantic_efh_nad83.shp,SITENAME_L,Ocean Quahog,All life stages
NEFSC-RDEEPCRABNWATL-1982-2008-CHUTE,RDEEPCRABNWATL,NMFS,NEFSC,USA,US East Coast,Northwestern Atlantic,NWATL,Red deepsea crab Northwestern Atlantic,Chaceon quinquedens,Red deepsea crab,NA,NOAA EFH GIS Data Inventory,usa/noaa_ne_efh/new_england_efh_nad83.shp,SITENAME_L,Red Crab,All life stages
NEFSC-RSKATMATLC-1967-2005-SOSEBEE,RSKATMATLC,NMFS,NEFSC,USA,US East Coast,Mid-Atlantic Coast,MATLC,Rosette skate Mid-Atlantic Coast,Leucoraja garmani,Rosette skate,Freckled skate,NOAA EFH GIS Data Inventory,usa/noaa_ne_efh/new_england_efh_nad83.shp,SITENAME_L,Rosette Skate,All life stages
NEFSC-SCALL5ZMAB-1964-2013-HIVELY,SCALL5ZMAB,NMFS,NEFSC,USA,US East Coast,Georges Bank and Mid-Atlantic Bight,5ZMAB,Sea scallop Georges Bank and Mid-Atlantic Bight,Placopecten magellanicus,Sea scallop,NA,NOAA EFH GIS Data Inventory,usa/noaa_ne_efh/new_england_efh_nad83.shp,SITENAME_L,Winter Skate,All life stages
NEFSC-SCUPNWATLC-1960-2007-TERCEIRO,SCUPNWATLC,NMFS,NEFSC,USA,US East Coast,Northwestern Atlantic Coast,NWATLC,Scup Atlantic Coast,Stenotomus chrysops,Scup,NA,NOAA EFH GIS Data Inventory,usa/noaa_ma_efh/mid_atlantic_efh_nad83.shp,SITENAME_L,Scup,All life stages
NEFSC-SDOGATLC-1962-2006-SOSEBEE,SDOGATLC,NMFS,NEFSC,USA,US East Coast,Atlantic Coast,ATLC,Spiny dogfish Atlantic Coast,Squalus acanthias,Spiny dogfish,Picked dogfish,NOAA EFH GIS Data Inventory,usa/noaa_ma_efh/mid_atlantic_efh_nad83.shp,SITENAME_L,Spiny Dogfish,All life stages
NEFSC-SFLOUNMATLC-1940-2012-HIVELY,SFLOUNMATLC,NMFS,NEFSC,USA,US East Coast,Mid-Atlantic Coast,MATLC,Summer flounder Mid-Atlantic Coast,Paralichthys dentatus,Summer flounder,NA,NOAA EFH GIS Data Inventory,usa/noaa_ma_efh/mid_atlantic_efh_nad83.shp,SITENAME_L,Summer Flounder,All life stages
NEFSC-SHAKEGOMNGB-1955-2009-CHING,SHAKEGOMNGB,NMFS,NEFSC,USA,US East Coast,Gulf of Maine / Georges Bank,5YZ,Silver hake Gulf of Maine / Northern Georges Bank,Merluccius bilinearis,Silver Hake,NA,NOAA EFH GIS Data Inventory,usa/noaa_ne_efh/new_england_efh_nad83.shp,SITENAME_L,Silver Hake,"All life stages, clipped to nGB/GOM"
NEFSC-SHAKESGBMATL-1955-2009-CHING,SHAKESGBMATL,NMFS,NEFSC,USA,US East Coast,Southern Georges Bank / Mid-Atlantic,SGBMATL,Silver hake Southern Georges Bank / Mid-Atlantic,Merluccius bilinearis,Silver Hake,NA,NOAA EFH GIS Data Inventory,usa/noaa_ne_efh/new_england_efh_nad83.shp,SITENAME_L,Silver Hake,"All life stages, clipped to sGB/SNEMA"
NEFSC-SSKAT5YZSNE-1963-2005-SOSEBEE,SSKAT5YZSNE,NMFS,NEFSC,USA,US East Coast,Gulf of Maine / Georges Bank-Southern New England,5YZSNE,Smooth skate Gulf of Marine / Georges Bank-Southern New England,Malacoraja senta,Smooth skate,NA,NOAA EFH GIS Data Inventory,usa/noaa_ne_efh/new_england_efh_nad83.shp,SITENAME_L,Smooth Skate,All life stages
NEFSC-STRIPEDBASSGOMCHATT-1981-2012-HIVELY,STRIPEDBASSGOMCHATT,NMFS,NEFSC,USA,US East Coast,Gulf of Maine / Cape Hatteras,5YCHATT,Striped bass Gulf of Maine / Cape Hatteras,Morone saxatilis,Striped bass,NA,Digitized boundary from stock assessment,usa/digitized/striped_bass_erase.shp,ZONE,Digitized boundary from stock assessment,Digitized boundary from stock assessment
NEFSC-SURFMATLC-1965-2008-JACOBSON,SURFMATLC,NMFS,NEFSC,USA,US East Coast,Mid-Atlantic Coast,MATLC,Atlantic surfclam Mid-Atlantic Coast,Spisula solidissima,Atlantic surfclam,NA,NOAA EFH GIS Data Inventory,usa/noaa_ma_efh/mid_atlantic_efh_nad83.shp,SITENAME_L,Atlantic Surfclam,All life stages
NEFSC-TILEMATLC-1915-2012-HIVELY,TILEMATLC,NMFS,NEFSC,USA,US East Coast,Mid-Atlantic Coast,MATLC,Tilefish Mid-Atlantic Coast,Lopholatilus chamaeleonticeps,Tilefish,NA,NOAA EFH GIS Data Inventory,usa/noaa_ma_efh/mid_atlantic_efh_nad83.shp,SITENAME_L,Golden Tilefish,All life stages
NEFSC-TSKAT5YZSNE-1963-2005-SOSEBEE,TSKAT5YZSNE,NMFS,NEFSC,USA,US East Coast,Gulf of Maine / Georges Bank-Southern New England,5YZSNE,Thorny skate Gulf of Marine / Georges Bank-Southern New England,Amblyraja radiata,Thorny skate,NA,NOAA EFH GIS Data Inventory,usa/noaa_ne_efh/new_england_efh_nad83.shp,SITENAME_L,Thorny Skate,All life stages
NEFSC-WEAKFISHATLC-1981-2008-STANTON,WEAKFISHATLC,NMFS,NEFSC,USA,US East Coast,Atlantic Coast,ATLC,Weakfish Atlantic Coast,Cynoscion regalis,Weakfish,NA,US EEZ East Coast,usa/eez/eez_lr_usa_east_coast.shp,ZONE,US EEZ East Coast,US EEZ East Coast
NEFSC-WHAKEGBGOM-1962-2011-HIVELY,WHAKEGBGOM,NMFS,NEFSC,USA,US East Coast,Gulf of Maine / Georges Bank,5YZ,White hake Georges Bank / Gulf of Maine,Urophycis tenuis,White hake,NA,NOAA EFH GIS Data Inventory,usa/noaa_ne_efh/new_england_efh_nad83.shp,SITENAME_L,White Hake,All life stages
NEFSC-WINDOWGOMGB-1975-2007-HENDRICKSON,WINDOWGOMGB,NMFS,NEFSC,USA,US East Coast,Gulf of Maine / Georges Bank,5YZ,Windowpane flounder - Gulf of Maine / Georges Bank,Scophthalmus aquosus,Windowpane,Windowpane flounder,NOAA EFH GIS Data Inventory,usa/noaa_ne_efh/new_england_efh_nad83.shp,SITENAME_L,Window Pane Flounder,"All life stages, clipped to GB/GOM"
NEFSC-WINDOWSNEMATL-1975-2007-HENDRICKSON,WINDOWSNEMATL,NMFS,NEFSC,USA,US East Coast,Southern New England /Mid Atlantic,SNEMATL,Windowpane Southern New England-Mid Atlantic,Scophthalmus aquosus,Windowpane,Windowpane flounder,NOAA EFH GIS Data Inventory,usa/noaa_ne_efh/new_england_efh_nad83.shp,SITENAME_L,Window Pane Flounder,"All life stages, clipped to SNEMA"
NEFSC-WINFLOUN5Z-1964-2011-HIVELY,WINFLOUN5Z,NMFS,NEFSC,USA,US East Coast,Georges Bank,5Z,Winter Flounder NAFO-5Z,Pseudopleuronectes americanus,Winter flounder,NA,NOAA EFH GIS Data Inventory,usa/noaa_ne_efh/new_england_efh_nad83.shp,SITENAME_L,Winter Flounder,"All life stages, clipped to GB"
NEFSC-WINFLOUND5Y-1982-2008-NITSCHKE,WINFLOUND5Y,NMFS,NEFSC,USA,US East Coast,Gulf of Maine,5Y,Winter Flounder NAFO-5Y,Pseudopleuronectes americanus,Winter flounder,NA,NOAA EFH GIS Data Inventory,usa/noaa_ne_efh/new_england_efh_nad83.shp,SITENAME_L,Winter Flounder,"All life stages, clipped to GOM"
NEFSC-WINFLOUNSNEMATL-1980-2010-HIVELY,WINFLOUNSNEMATL,NMFS,NEFSC,USA,US East Coast,Southern New England /Mid Atlantic,SNEMATL,Winter Flounder Southern New England-Mid Atlantic,Pseudopleuronectes americanus,Winter flounder,NA,NOAA EFH GIS Data Inventory,usa/noaa_ne_efh/new_england_efh_nad83.shp,SITENAME_L,Winter Flounder,"All life stages, clipped to SNEMA"
NEFSC-WITFLOUN5Y-1982-2008-WIGLEY,WITFLOUN5Y,NMFS,NEFSC,USA,US East Coast,Gulf of Maine,5Y,Witch Flounder NAFO-5Y,Glyptocephalus cynoglossus,Witch flounder,NA,NOAA EFH GIS Data Inventory,usa/noaa_ne_efh/new_england_efh_nad83.shp,SITENAME_L,Witch Flounder,All life stages
NEFSC-WSKAT5YCHATT-1967-2005-SOSEBEE,WSKAT5YCHATT,NMFS,NEFSC,USA,US East Coast,Gulf of Maine / Cape Hatteras,5YCHATT,Winter skate Gulf of Maine / Cape Hatteras,Leucoraja ocellata,Winter skate,NA,NOAA EFH GIS Data Inventory,usa/noaa_ne_efh/new_england_efh_nad83.shp,SITENAME_L,Winter Skate,All life stages
NEFSC-YELLCCODGOM-1935-2008-LEGAULT,YELLCCODGOM,NMFS,NEFSC,USA,US East Coast,Cape Cod / Gulf of Maine,CCOD5Y,Yellowtail flounder Cape Cod / Gulf of Maine,Limanda ferruginea,Yellowtail flounder,NA,NOAA EFH GIS Data Inventory,usa/noaa_ne_efh/new_england_efh_nad83.shp,SITENAME_L,Yellowtail Flounder,"All life stages, clipped to GOM"
NEFSC-YELLSNEMATL-1935-2011-HIVELY,YELLSNEMATL,NMFS,NEFSC,USA,US East Coast,Southern New England /Mid Atlantic,SNEMATL,Yellowtail Flounder Southern New England-Mid Atlantic,Limanda ferruginea,Yellowtail flounder,NA,NOAA EFH GIS Data Inventory,usa/noaa_ne_efh/new_england_efh_nad83.shp,SITENAME_L,Yellowtail Flounder,"All life stages, clipped to SNEMA"
NIWA-AUSSALMONNZ-1929-2013-FU,AUSSALMONNZ,MFish,NIWA,New Zealand,New Zealand,New Zealand,NZ,Australian salmon New Zealand,Arripis trutta,Australian salmon,NA,Phil Neubauer,new_zealand/qma/QMA_Kahawai_region.shp,CODE,KAH1,
NIWA-BKCDLFENI-1923-2009-CORDUE,BKCDLFENI,MFish,NIWA,New Zealand,New Zealand,East coast of North Island,ENI,Black cardinalfish East coast of North Island,Epigonus telescopus,Black cardinalfish,,Phil Neubauer,new_zealand/qma/QMA_Cardinal_fish_region.shp,CODE,"CDL2, CDL3, CDL4",
NIWA-BLACKOREOPR-1974-2009-CORDUE,BLACKOREOPR,MFish,NIWA,New Zealand,New Zealand,Pukaki Rise,PR,Black Oreo Pukaki Rise,Allocyttus niger,Black oreo,NA,Phil Neubauer,new_zealand/qma/QMA_Oreo_region.shp,CODE,OEO6 (part),
NIWA-DOYSFS-1906-2012-FU,DOYSFS,MFish,NIWA,New Zealand,New Zealand,Foveax Strait,FS,Dredge oyster Foveax Strait,Ostrea chilensis,Dredge oyster,NA,Phil Neubauer,new_zealand/qma/QMA_Dredge_oyster_region.shp,CODE,Digitized from stock assessment,
NIWA-GSTRGZRSTA7-1964-2007-CORDUE,GSTRGZRSTA7,MFish,NIWA,New Zealand,New Zealand,NZ Area STA7,STA7,Giant stargazer NZ Area STA7,Kathetostoma giganteum,Giant stargazer,,Phil Neubauer,new_zealand/qma/QMA_Stargazer_region.shp,CODE,STA7,
NIWA-HOKIENZ-1970-2015-FU,HOKIENZ,MFish,NIWA,New Zealand,New Zealand,Eastern New Zealand,ENZ,Hoki Eastern New Zealand,Macruronus novaezelandiae,Hoki,New Zealand whiptail,Phil Neubauer,new_zealand/qma/QMA_Hoki_region.shp,CODE,HOK1 (part),
NIWA-HOKIWNZ-1970-2015-FU,HOKIWNZ,MFish,NIWA,New Zealand,New Zealand,Western New Zealand,WNZ,Hoki Western New Zealand,Macruronus novaezelandiae,Hoki,New Zealand whiptail,Phil Neubauer,new_zealand/qma/QMA_Hoki_region.shp,CODE,HOK1 (part),
NIWA-NZLINGLIN3-4-1968-2014-FU,NZLINGLIN3-4,MFish,NIWA,New Zealand,New Zealand,New Zealand Areas LIN 3 and 4,LIN3-4,New Zealand ling New Zealand Areas LIN 3 and 4,Genypterus blacodes,New Zealand ling,NA,Phil Neubauer,new_zealand/qma/QMA_Ling_region.shp,CODE,"LIN3, LIN4",
NIWA-NZLINGLIN5-6-1968-2014-FU,NZLINGLIN5-6,MFish,NIWA,New Zealand,New Zealand,New Zealand Areas LIN 5 and 6,LIN5-6,New Zealand ling New Zealand Areas LIN 5 and 6,Genypterus blacodes,New Zealand ling,NA,Phil Neubauer,new_zealand/qma/QMA_Ling_region.shp,CODE,"LIN5, LIN6 (part)",
NIWA-NZSNAPNZ1BOP-HAGU-1899-2013-FU,NZSNAPNZ1BOP-HAGU,MFish,NIWA,New Zealand,New Zealand,New Zealand SNA 1 Bay of Plenty and Hauraki Gulf,SNA1-BOP-HAGU,New Zealand snapper New Zealand SNA 1 Bay of Plenty and Hauraki Gulf,Chrysophrys auratus,New Zealand snapper,Snapper,Phil Neubauer,new_zealand/qma/QMA_Snapper_region.shp,CODE,SNA1 (part),
NIWA-NZSNAPNZ1ENLD-1899-2013-FU,NZSNAPNZ1ENLD,MFish,NIWA,New Zealand,New Zealand,New Zealand SNA 1 east Northland,SNA-1-ENLD,New Zealand snapper New Zealand SNA 1 east Northland,Chrysophrys auratus,New Zealand snapper,Snapper,Phil Neubauer,new_zealand/qma/QMA_Snapper_region.shp,CODE,SNA1 (part),
NIWA-OROUGHYESCR-1910-2014-FU,OROUGHYESCR,MFish,NIWA,New Zealand,New Zealand,East and South Chatham Rise,ESCR,Orange roughy East and South Chatham Rise,Hoplostethus atlanticus,Orange roughy,NA,Phil Neubauer,new_zealand/qma/QMA_Orange_roughy_region.shp,CODE,ORH3B (part),
NIWA-OROUGHYNWCR-1910-2014-FU,OROUGHYNWCR,MFish,NIWA,New Zealand,New Zealand,Northwest Chatham Rise,NWCR,Orange roughy Northwest Chatham Rise,Hoplostethus atlanticus,Orange roughy,NA,Phil Neubauer,new_zealand/qma/QMA_Orange_roughy_region.shp,CODE,ORH3B (part),
NIWA-OROUGHYNZ7A-1910-2014-FU,OROUGHYNZ7A,MFish,NIWA,New Zealand,New Zealand,New Zealand Challenger Plateau,NZ7A,Orange roughy New Zealand Challenger Plateau,Hoplostethus atlanticus,Orange roughy,NA,Phil Neubauer,new_zealand/qma/QMA_Orange_roughy_region.shp,CODE,ORH7A (entire),
NIWA-OROUGHYNZMEC-1882-2014-FU,OROUGHYNZMEC,MFish,NIWA,New Zealand,New Zealand,New Zealand Mid East Coast,NZMEC,Orange roughy New Zealand Mid East Coast,Hoplostethus atlanticus,Orange roughy,NA,Phil Neubauer,new_zealand/qma/QMA_Orange_roughy_region.shp,CODE,"ORH2A (part), ORH2B (entire), ORH3A (entire)",
NIWA-PAUANPAU5A-1965-2014-FU,PAUANPAU5A,MFish,NIWA,New Zealand,New Zealand,NZ Area North PAUA 5A,NPAU5A,Black Foot Paua NZ North PAUA5A,Haliotis iris,Blackfoot abalone,NA,Phil Neubauer,new_zealand/qma/QMA_Paua_region.shp,CODE,PAU5A (part),
NIWA-PAUAPAU7-1965-2015-FU,PAUAPAU7,MFish,NIWA,New Zealand,New Zealand,New Zealand Area PAU 7 (Marlborough),PAU7,New Zealand abalone species New Zealand Area PAU 7,Haliotis iris,Blackfoot abalone,NA,Phil Neubauer,new_zealand/qma/QMA_Paua_region.shp,CODE,PAU7,
NIWA-PAUASPAU5A-1965-2014-FU,PAUASPAU5A,MFish,NIWA,New Zealand,New Zealand,NZ Area South PAUA 5A,SPAU5A,Black Foot Paua NZ South PAUA5A,Haliotis iris,Blackfoot abalone,NA,Phil Neubauer,new_zealand/qma/QMA_Paua_region.shp,CODE,PAU5A (part),
NIWA-SCMPBP-1985-2012-FU,SCMPBP,MFish,NIWA,New Zealand,New Zealand,Bay of Plenty,BOP,Scampi Bay of Plenty,Metanephrops challengeri,Scampi,,Phil Neubauer,new_zealand/qma/QMA_Scampi_region.shp,CODE,SCI1,
NIWA-SCMPMB-1989-2014-FU,SCMPMB,MFish,NIWA,New Zealand,New Zealand,Mernoo Bank,MB,Scampi Mernoo Bank,Metanephrops challengeri,Scampi,,Phil Neubauer,new_zealand/qma/QMA_Scampi_region.shp,CODE,SCI3,
NIWA-SCMPWHB-1985-2012-FU,SCMPWHB,MFish,NIWA,New Zealand,New Zealand,Wairarapa/Hawke Bay,WHB,Scampi Wairapa/Hawke Bay,Metanephrops challengeri,Scampi,,Phil Neubauer,new_zealand/qma/QMA_Scampi_region.shp,CODE,SCI2,
NIWA-SMOOTHOREOBP-1983-2008-CORDUE,SMOOTHOREOBP,MFish,NIWA,New Zealand,New Zealand,Bounty Plateau,BP,Smooth Oreo Bounty Plateau,Pseudocyttus maculatus,Smooth oreo,NA,Phil Neubauer,new_zealand/qma/QMA_Oreo_region.shp,CODE,OEO6 (part),
NIWA-SMOOTHOREOCR-1955-2013-FU,SMOOTHOREOCR,MFish,NIWA,New Zealand,New Zealand,Chatham Rise,CR,Smooth oreo Chatham Rise,Pseudocyttus maculatus,Smooth oreo,NA,Phil Neubauer,new_zealand/qma/QMA_Oreo_region.shp,CODE,OEO4,
NIWA-SMOOTHOREOEPR-1973-2006-CORDUE,SMOOTHOREOEPR,MFish,NIWA,New Zealand,New Zealand,East Pukaki Rise,EPR,Smooth Oreo East Pukaki Rise,Pseudocyttus maculatus,Smooth oreo,NA,Phil Neubauer,new_zealand/qma/QMA_Oreo_region.shp,CODE,OEO6 (part) - digitized for black oreo,
NIWA-SMOOTHOREOSLD-1973-2007-CORDUE,SMOOTHOREOSLD,MFish,NIWA,New Zealand,New Zealand,Southland,SLD,Smooth Oreo Southland,Pseudocyttus maculatus,Smooth oreo,NA,Phil Neubauer,new_zealand/qma/QMA_Oreo_region.shp,CODE,"OEO1 (part), OEO3A",
NIWA-SMOOTHOREOWECR-1965-2009-CORDUE,SMOOTHOREOWECR,MFish,NIWA,New Zealand,New Zealand,West end of Chatham Rise,WECR,Smooth oreo West end of Chatham Rise,Pseudocyttus maculatus,Smooth oreo,NA,Phil Neubauer,new_zealand/qma/QMA_Oreo_region.shp,CODE,OEO3A,
NIWA-SOUTHHAKECR-1974-2012-FU,SOUTHHAKECR,MFish,NIWA,New Zealand,New Zealand,Chatham Rise,CR,Southern hake Chatham Rise,Merluccius australis,Southern hake,NA,Phil Neubauer,new_zealand/qma/QMA_Hake_region.shp,CODE,"HAK4, HAK1 (part)",
NIWA-SOUTHHAKESA-1974-2014-FU,SOUTHHAKESA,MFish,NIWA,New Zealand,New Zealand,Sub-Antarctic,SA,Southern hake Sub-Antarctic,Merluccius australis,Southern hake,NA,Phil Neubauer,new_zealand/qma/QMA_Hake_region.shp,CODE,HAK1 (part),
NIWA-SOUTHHAKEWCSI-1973-2012-FU,SOUTHHAKEWCSI,MFish,NIWA,New Zealand,New Zealand,West Coast South Island,WCSI,Southern hake West Coast South Island,Merluccius australis,Southern hake,NA,Phil Neubauer,new_zealand/qma/QMA_Hake_region.shp,CODE,HAK7 (part),
NIWA-TARAKNZ-1932-2007-CORDUE,TARAKNZ,MFish,NIWA,New Zealand,New Zealand,Sub-Antarctic,SA,Tarakihi New Zealand,Nemadactylus macropterus,Hawaiian morwong,Jackass morwong,Phil Neubauer,new_zealand/qma/QMA_Tarakihi_region.shp,CODE,TAR7,
NMFS-MENATLAN-1940-2005-STANTON,MENATLAN,NMFS,NMFS,USA,US East Coast,Atlantic,ATL,Atlantic menhaden Atlantic,Brevoortia tyrannus,Atlantic menhaden,NA,US EEZ East Coast,usa/eez/eez_lr_usa_east_coast.shp,ZONE,US EEZ East Coast,US EEZ East Coast
NWFSC-ARFLOUNDPCOAST-1916-2007-BRANCH,ARFLOUNDPCOAST,NMFS,NWFSC,USA,US West Coast,Pacific Coast,PCOAST,Arrowtooth flounder Pacific Coast,Reinhardtius stomias,Arrowtooth flounder,NA,NOAA EFH GIS Data Inventory,usa/noaa_wc_efh/noaa_wc_groundfish_efh_cmf.shp,use whole,use whole,Entire West Coast
NWFSC-BGROCKPCOAST-1950-2011-STACHURA,BGROCKPCOAST,NMFS,NWFSC,USA,US West Coast,Pacific Coast,PCOAST,Blackgill rockfish  Pacific Coast,Sebastes melanostomus,Blackgill rockfish,NA,NOAA EFH GIS Data Inventory,usa/noaa_wc_efh/noaa_wc_groundfish_efh_cmf.shp,use whole,use whole,Clip to Conception/Monterey
NWFSC-BLACKROCKNPCOAST-1914-2006-BRANCH,BLACKROCKNPCOAST,NMFS,NWFSC,USA,US West Coast,Northern Pacific Coast,NPCOAST,Black rockfish Northern Pacific Coast,Sebastes melanops,Black rockfish,NA,NOAA EFH GIS Data Inventory,usa/noaa_wc_efh/noaa_wc_groundfish_efh_cmf.shp,use whole,use whole,Clip to Cape Falcon-North
NWFSC-BLACKROCKSPCOAST-1915-2007-BRANCH,BLACKROCKSPCOAST,NMFS,NWFSC,USA,US West Coast,Southern Pacific Coast,SPCOAST,Black rockfish Southern Pacific Coast,Sebastes melanops,Black rockfish,NA,NOAA EFH GIS Data Inventory,usa/noaa_wc_efh/noaa_wc_groundfish_efh_cmf.shp,use whole,use whole,Clip to Cape Falcon-South
NWFSC-BLUEROCKCAL-1916-2007-BRANCH,BLUEROCKCAL,NMFS,NWFSC,USA,US West Coast,California,CAL,Blue rockfish California,Sebastes mystinus,Blue rockfish,NA,NOAA EFH GIS Data Inventory,usa/noaa_wc_efh/noaa_wc_groundfish_efh_cmf.shp,use whole,use whole,Clip to CA-North
NWFSC-CABEZORECOAST-1973-2009-STACHURA,CABEZORECOAST,NMFS,NWFSC,USA,US West Coast,Oregon Coast,ORECOAST,Cabezon Oregon Coast,Scorpaenichthys marmoratus,Cabezon,NA,NOAA EFH GIS Data Inventory,usa/noaa_wc_efh/noaa_wc_groundfish_efh_cmf.shp,use whole,use whole,Clip to OR
NWFSC-CHILISPCOAST-1892-2007-BRANCH,CHILISPCOAST,NMFS,NWFSC,USA,US West Coast,Southern Pacific Coast,SPCOAST,Chilipepper Southern Pacific Coast,Sebastes goodei,Chilipepper rockfish,Chilipepper,NOAA EFH GIS Data Inventory,usa/noaa_wc_efh/noaa_wc_groundfish_efh_cmf.shp,use whole,use whole,Clip to CA/OR
NWFSC-CROCKPCOAST-1916-2011-STACHURA,CROCKPCOAST,NMFS,NWFSC,USA,US West Coast,Pacific Coast,PCOAST,Canary rockfish Pacific Coast,Sebastes pinniger,Canary rockfish,NA,NOAA EFH GIS Data Inventory,usa/noaa_wc_efh/noaa_wc_groundfish_efh_cmf.shp,use whole,use whole,Entire West Coast
NWFSC-DKROCKPCOAST-1928-2011-STACHURA,DKROCKPCOAST,NMFS,NWFSC,USA,US West Coast,Pacific Coast,PCOAST,Darkblotched rockfish Pacific Coast,Sebastes crameri,Darkblotched rockfish,NA,NOAA EFH GIS Data Inventory,usa/noaa_wc_efh/noaa_wc_groundfish_efh_cmf.shp,use whole,use whole,Entire West Coast
NWFSC-ESOLEPCOAST-1876-2007-BRANCH,ESOLEPCOAST,NMFS,NWFSC,USA,US West Coast,Pacific Coast,PCOAST,English sole Pacific Coast,Parophrys vetulus,English sole,NA,NOAA EFH GIS Data Inventory,usa/noaa_wc_efh/noaa_wc_groundfish_efh_cmf.shp,use whole,use whole,Entire West Coast
NWFSC-KELPGREENLINGORECOAST-1979-2005-STANTON,KELPGREENLINGORECOAST,NMFS,NWFSC,USA,US West Coast,Oregon Coast,ORECOAST,Kelp greenling Oregon Coast,Hexagrammos decagrammus,Kelp greenling,NA,NOAA EFH GIS Data Inventory,usa/noaa_wc_efh/noaa_wc_groundfish_efh_cmf.shp,use whole,use whole,Clip to OR
NWFSC-LINGCODNPCOAST-1928-2009-STACHURA,LINGCODNPCOAST,NMFS,NWFSC,USA,US West Coast,Northern Pacific Coast,NPCOAST,Lingcod Northern Pacific Coast,Ophiodon elongatus,Lingcod,NA,NOAA EFH GIS Data Inventory,usa/noaa_wc_efh/noaa_wc_groundfish_efh_cmf.shp,use whole,use whole,Clip to WA/OR
NWFSC-LINGCODSPCOAST-1928-2009-STACHURA,LINGCODSPCOAST,NMFS,NWFSC,USA,US West Coast,Southern Pacific Coast,SPCOAST,Lingcod Southern Pacific Coast,Ophiodon elongatus,Lingcod,NA,NOAA EFH GIS Data Inventory,usa/noaa_wc_efh/noaa_wc_groundfish_efh_cmf.shp,use whole,use whole,Clip to CA
NWFSC-LNOSESKAPCOAST-1915-2007-BRANCH,LNOSESKAPCOAST,NMFS,NWFSC,USA,US West Coast,Pacific Coast,PCOAST,Longnose skate Pacific Coast,Raja rhina,Longnose skate,NA,NOAA EFH GIS Data Inventory,usa/noaa_wc_efh/noaa_wc_groundfish_efh_cmf.shp,use whole,use whole,Entire West Coast
NWFSC-LSTHORNHPCOAST-1964-2012-HIVELY,LSTHORNHPCOAST,NMFS,NWFSC,USA,US West Coast,Pacific Coast,PCOAST,Longspine thornyhead Pacific Coast,Sebastolobus altivelis,Longspine thornyhead,NA,NOAA EFH GIS Data Inventory,usa/noaa_wc_efh/noaa_wc_groundfish_efh_cmf.shp,use whole,use whole,Entire West Coast
NWFSC-POPERCHPCOAST-1940-2011-STACHURA,POPERCHPCOAST,NMFS,NWFSC,USA,US West Coast,Pacific Coast,PCOAST,Pacific ocean perch Pacific Coast,Sebastes alutus,Pacific ocean perch,NA,NOAA EFH GIS Data Inventory,usa/noaa_wc_efh/noaa_wc_groundfish_efh_cmf.shp,use whole,use whole,Entire West Coast
NWFSC-SABLEFPCOAST-1900-2011-STACHURA,SABLEFPCOAST,NMFS,NWFSC,USA,US West Coast,Pacific Coast,PCOAST,Sablefish Pacific Coast,Anoplopoma fimbria,Sablefish,NA,NOAA EFH GIS Data Inventory,usa/noaa_wc_efh/noaa_wc_groundfish_efh_cmf.shp,use whole,use whole,Entire West Coast
NWFSC-SNROCKPCOAST-1905-2009-STANTON,SNROCKPCOAST,NMFS,NWFSC,USA,US West Coast,Pacific Coast,PCOAST,Splitnose Rockfish Pacific Coast,Sebastes diploproa,Splitnose Rockfish,,NOAA EFH GIS Data Inventory,usa/noaa_wc_efh/noaa_wc_groundfish_efh_cmf.shp,use whole,use whole,Entire West Coast
NWFSC-SPSDOGPCOAST-1916-2011-STACHURA,SPSDOGPCOAST,NMFS,NWFSC,USA,US West Coast,Pacific Coast,PCOAST,Spotted spiny dogfish Pacific Coast,Squalus suckleyi,Spotted spiny dogfish,,NOAA EFH GIS Data Inventory,usa/noaa_wc_efh/noaa_wc_groundfish_efh_cmf.shp,use whole,use whole,Entire West Coast
NWFSC-SSTHORNHPCOAST-1901-2005-STANTON,SSTHORNHPCOAST,NMFS,NWFSC,USA,US West Coast,Pacific Coast,PCOAST,Shortspine thornyhead Pacific Coast,Sebastolobus alascanus,Shortspine thornyhead,NA,NOAA EFH GIS Data Inventory,usa/noaa_wc_efh/noaa_wc_groundfish_efh_cmf.shp,use whole,use whole,Entire West Coast
NWFSC-WROCKPCOAST-1916-2011-STACHURA,WROCKPCOAST,NMFS,NWFSC,USA,US West Coast,Pacific Coast,PCOAST,Widow rockfish Pacific Coast,Sebastes entomelas,Widow rockfish,NA,NOAA EFH GIS Data Inventory,usa/noaa_wc_efh/noaa_wc_groundfish_efh_cmf.shp,use whole,use whole,Entire West Coast
NWFSC-YEYEROCKPCOAST-1916-2011-STACHURA,YEYEROCKPCOAST,NMFS,NWFSC,USA,US West Coast,Pacific Coast,PCOAST,Yelloweye rockfish Pacific Coast,Sebastes ruberrimus,Yelloweye rockfish,NA,NOAA EFH GIS Data Inventory,usa/noaa_wc_efh/noaa_wc_groundfish_efh_cmf.shp,use whole,use whole,Entire West Coast
NWFSC-YTROCKNPCOAST-1967-2005-STANTON,YTROCKNPCOAST,NMFS,NWFSC,USA,US West Coast,Northern Pacific Coast,NPCOAST,Yellowtail rockfish Northern Pacific Coast,Sebastes flavidus,Yellowtail rockfish,NA,NOAA EFH GIS Data Inventory,usa/noaa_wc_efh/noaa_wc_groundfish_efh_cmf.shp,use whole,use whole,Clip to Eureka/Columbia/Vancouver
NWWG-CAPEICE-1977-2010-NEUBAUER,CAPEICE,ICES,NWWG,Europe,Europe non EU,Iceland Grounds,Va,Capelin Iceland,Mallotus villosus,Capelin,NA,ICES website,europe/ices/ices_areas.shp,ICES_area,"Va1, Va2",
NWWG-CODFAPL-1959-2012-CHING,CODFAPL,ICES,NWWG,Europe,Europe non EU,Faroe Plateau,Vb1,Atlantic cod Faroe Plateau,Gadus morhua,Atlantic cod,NA,ICES website,europe/ices/ices_areas.shp,ICES_area,"Vb1a, Vb1b",
NWWG-CODICE-1952-2012-CHING,CODICE,ICES,NWWG,Europe,Europe non EU,Iceland Grounds,Va,Atlantic cod Iceland,Gadus morhua,Atlantic cod,NA,ICES website,europe/ices/ices_areas.shp,ICES_area,"Va1, Va2",
NWWG-HADFAPL-1955-2012-CHING,HADFAPL,ICES,NWWG,Europe,Europe non EU,Faroe Plateau,Vb1,Haddock Faroe Plateau,Melanogrammus aeglefinus,Haddock,NA,ICES website,europe/ices/ices_areas.shp,ICES_area,"Vb1a, Vb1b",
NWWG-HADICE-1977-2012-CHING,HADICE,ICES,NWWG,Europe,Europe non EU,Iceland Grounds,Va,Haddock Iceland,Melanogrammus aeglefinus,Haddock,NA,ICES website,europe/ices/ices_areas.shp,ICES_area,"Va1, Va2",
NWWG-HERRIsum-1984-2011-NEUBAUER,HERRIsum,ICES,NWWG,Europe,Europe non EU,Iceland Grounds,Va,Herring Iceland (Summer spawners),Clupea harengus,Herring,Atlantic herring,ICES website,europe/ices/ices_areas.shp,ICES_area,"Va1, Va2",
NWWG-POLLFAPL-1958-2012-CHING,POLLFAPL,ICES,NWWG,Europe,Europe non EU,Faroe Plateau,Vb1,Pollock Faroe Plateau,Pollachius virens,Pollock,Saithe,ICES website,europe/ices/ices_areas.shp,ICES_area,"Vb1a, Vb1b",
NWWG-POLLIEG-1977-2012-CHING,POLLIEG,ICES,NWWG,Europe,Europe non EU,Iceland Grounds,Va,Pollock or saithe Iceland Grounds,Pollachius virens,Pollock,Saithe,ICES website,europe/ices/ices_areas.shp,ICES_area,"Va1, Va2",
NZMFishDEEPWATER-BLACKOREOWECR-1973-2007-JENSEN,BLACKOREOWECR,MFish,NZMFishDEEPWATER,New Zealand,New Zealand,West end of Chatham Rise,WECR,Black oreo West end of Chatham Rise,Allocyttus niger,Black oreo,NA,Phil Neubauer,new_zealand/qma/QMA_Oreo_region.shp,CODE,OEO3A,
NZMFishINSHOREWG-BNSNZ-1935-2011-CORDUE,BNSNZ,MFish,NZMFishINSHOREWG,New Zealand,New Zealand,New Zealand,NZ,Bluenose New Zealand,Hyperoglyphe antarctica,Bluenose,,Phil Neubauer,new_zealand/qma/QMA_Bluenose_region.shp,CODE,"BNS1, BNS2, BNS3, BNS7, BNS8, BNS10",
NZMFishINSHOREWG-NZSNAPNZ7-1931-2014-LANGLEY,NZSNAPNZ7,MFish,NZMFishINSHOREWG,New Zealand,New Zealand,New Zealand SNA 7,SNA-7,New Zealand snapper New Zealand SNA 7,Chrysophrys auratus,New Zealand snapper,Snapper,Phil Neubauer,new_zealand/qma/QMA_Snapper_region.shp,CODE,SNA7,
NZMFishINSHOREWG-NZSNAPNZ8-1931-2005-JENSEN,NZSNAPNZ8,MFish,NZMFishINSHOREWG,New Zealand,New Zealand,New Zealand Area 8 (Auckland and Central West),8,New Zealand snapper New Zealand Area 8,Chrysophrys auratus,New Zealand snapper,Snapper,Phil Neubauer,new_zealand/qma/QMA_Snapper_region.shp,CODE,SNA8,
NZMFishINSHOREWG-TREVALLYTRE7-1944-2014-LANGLEY,TREVALLYTRE7,MFish,NZMFishINSHOREWG,New Zealand,New Zealand,New Zealand Areas TRE 7,TRE7,Trevally New Zealand Areas TRE 7,Pseudocaranx dentex,Trevally,White trevally,Phil Neubauer,new_zealand/qma/QMA_Trevally_region.shp,CODE,TRE7,
NZMFishLOBSTERWG-RROCKLOBSTERCRA1-1945-2001-JENSEN,RROCKLOBSTERCRA1,MFish,NZMFishLOBSTERWG,New Zealand,New Zealand,New Zealand Area CRA1,CRA1,Red rock lobster New Zealand area CRA1,Jasus edwardsii,Red rock lobster,NA,Phil Neubauer,new_zealand/qma/QMA_Spiny_rock_lobster_region.shp,CODE,CRA1,
NZMFishLOBSTERWG-RROCKLOBSTERCRA2-1945-2001-JENSEN,RROCKLOBSTERCRA2,MFish,NZMFishLOBSTERWG,New Zealand,New Zealand,New Zealand Area CRA2,CRA2,Red rock lobster New Zealand area CRA2,Jasus edwardsii,Red rock lobster,NA,Phil Neubauer,new_zealand/qma/QMA_Spiny_rock_lobster_region.shp,CODE,CRA2,
NZMFishLOBSTERWG-RROCKLOBSTERCRA3-1945-2007-JENSEN,RROCKLOBSTERCRA3,MFish,NZMFishLOBSTERWG,New Zealand,New Zealand,New Zealand Area CRA3,CRA3,Red rock lobster New Zealand area CRA3,Jasus edwardsii,Red rock lobster,NA,Phil Neubauer,new_zealand/qma/QMA_Spiny_rock_lobster_region.shp,CODE,CRA3,
NZMFishLOBSTERWG-RROCKLOBSTERCRA4-1945-2005-JENSEN,RROCKLOBSTERCRA4,MFish,NZMFishLOBSTERWG,New Zealand,New Zealand,New Zealand Area CRA4,CRA4,Red rock lobster New Zealand area CRA4,Jasus edwardsii,Red rock lobster,NA,Phil Neubauer,new_zealand/qma/QMA_Spiny_rock_lobster_region.shp,CODE,CRA4,
NZMFishLOBSTERWG-RROCKLOBSTERCRA5-1945-2002-JENSEN,RROCKLOBSTERCRA5,MFish,NZMFishLOBSTERWG,New Zealand,New Zealand,New Zealand Area CRA5,CRA5,Red rock lobster New Zealand area CRA5,Jasus edwardsii,Red rock lobster,NA,Phil Neubauer,new_zealand/qma/QMA_Spiny_rock_lobster_region.shp,CODE,CRA5,
NZMFishLOBSTERWG-RROCKLOBSTERCRA7-1976-2005-JENSEN,RROCKLOBSTERCRA7,MFish,NZMFishLOBSTERWG,New Zealand,New Zealand,New Zealand Area CRA7,CRA7,Red rock lobster New Zealand area CRA7,Jasus edwardsii,Red rock lobster,NA,Phil Neubauer,new_zealand/qma/QMA_Spiny_rock_lobster_region.shp,CODE,CRA7,
NZMFishLOBSTERWG-RROCKLOBSTERCRA8-1976-2005-JENSEN,RROCKLOBSTERCRA8,MFish,NZMFishLOBSTERWG,New Zealand,New Zealand,New Zealand Area CRA8,CRA8,Red rock lobster New Zealand area CRA8,Jasus edwardsii,Red rock lobster,NA,Phil Neubauer,new_zealand/qma/QMA_Spiny_rock_lobster_region.shp,CODE,CRA8,
NZMFishMIDDEPTHSWG-GEMFISHNZ-1952-2007-JENSEN,GEMFISHNZ,MFish,NZMFishMIDDEPTHSWG,New Zealand,New Zealand,New Zealand,NZ,common gemfish New Zealand,Rexea solandri,common gemfish,hake,Phil Neubauer,new_zealand/qma/QMA_Gemfish_region.shp,CODE,"SKI1, SKI2",
NZMFishMIDDEPTHSWG-NZLINGLIN6b-1980-2006-JENSEN,NZLINGLIN6b,MFish,NZMFishMIDDEPTHSWG,New Zealand,New Zealand,New Zealand Areas LIN 6b,LIN6b,New Zealand ling New Zealand Area LIN 6b,Genypterus blacodes,New Zealand ling,NA,Phil Neubauer,new_zealand/qma/QMA_Ling_region.shp,CODE,LIN6 (part),
NZMFishMIDDEPTHSWG-NZLINGLIN72-1968-2010-FU,NZLINGLIN72,MFish,NZMFishMIDDEPTHSWG,New Zealand,New Zealand,New Zealand Areas LIN 72,LIN72,New Zealand ling New Zealand Area LIN 72,Genypterus blacodes,New Zealand ling,NA,Phil Neubauer,new_zealand/qma/QMA_Ling_region.shp,CODE,"LIN2 (part), LIN7 (part)",
NZMFishMIDDEPTHSWG-NZLINGLIN7WC-1968-2012-FU,NZLINGLIN7WC,MFish,NZMFishMIDDEPTHSWG,New Zealand,New Zealand,New Zealand Areas LIN 7WC-WCSI,LIN7WC-WCSI,New Zealand ling New Zealand Area LIN 7WC - WCSI,Genypterus blacodes,New Zealand ling,NA,Phil Neubauer,new_zealand/qma/QMA_Ling_region.shp,CODE,LIN7,
NZMFishMIDDEPTHSWG-SBWHITACIR-1977-2013-FU,SBWHITACIR,MFish,NZMFishMIDDEPTHSWG,New Zealand,New Zealand,New Zealand - Campbell Island Rise,CIR,Southern blue whiting Campbell Island Rise,Micromesistius australis,Southern blue whiting,NA,Phil Neubauer,new_zealand/qma/QMA_Southern_blue_whiting_region.shp,CODE,SBW6I,
NZMFishSHELLFISHWG-PAUAPAU5B-1965-2013-FU,PAUAPAU5B,MFish,NZMFishSHELLFISHWG,New Zealand,New Zealand,New Zealand Area PAU 5B (Stewart Island),PAU5B,New Zealand abalone species New Zealand Area PAU 5B,Haliotis iris,Blackfoot abalone,NA,Phil Neubauer,new_zealand/qma/QMA_Paua_region.shp,CODE,PAU5B,
NZMFishSHELLFISHWG-PAUAPAU5D-1965-2012-FU,PAUAPAU5D,MFish,NZMFishSHELLFISHWG,New Zealand,New Zealand,New Zealand Area PAU 5D (Otago),PAU5D,New Zealand abalone species New Zealand Area PAU 5D,Haliotis iris,Blackfoot abalone,NA,Phil Neubauer,new_zealand/qma/QMA_Paua_region.shp,CODE,PAU5D,
PFMC-BNKROCKCAL-1979-1999-CHING,BNKROCKCAL,NMFS,PFMC,USA,US West Coast,California,CAL,Bank Rockfish California,Sebastes rufus,Bank Rockfish,,NOAA EFH GIS Data Inventory,usa/noaa_wc_efh/noaa_wc_groundfish_efh_cmf.shp,use whole,use whole,Clip to Bank Rockfish
PFMC-BOCACCSPCOAST-1930-2009-CHING,BOCACCSPCOAST,NMFS,PFMC,USA,US West Coast,Southern Pacific Coast,SPCOAST,Bocaccio Southern Pacific Coast,Sebastes paucispinis,Bocaccio,NA,NOAA EFH GIS Data Inventory,usa/noaa_wc_efh/noaa_wc_groundfish_efh_cmf.shp,use whole,use whole,Clip to Conception/Monterey/Eureka
PFMC-CABEZNCAL-1930-2009-CHING,CABEZNCAL,NMFS,PFMC,USA,US West Coast,Northern California,NCAL,Cabezon Northern California,Scorpaenichthys marmoratus,Cabezon,NA,NOAA EFH GIS Data Inventory,usa/noaa_wc_efh/noaa_wc_groundfish_efh_cmf.shp,use whole,use whole,Clip to CA-North
PFMC-CABEZSCAL-1930-2009-CHING,CABEZSCAL,NMFS,PFMC,USA,US West Coast,Southern California,SCAL,Cabezon Southern California,Scorpaenichthys marmoratus,Cabezon,NA,NOAA EFH GIS Data Inventory,usa/noaa_wc_efh/noaa_wc_groundfish_efh_cmf.shp,use whole,use whole,Clip to CA-South
PFMC-COWCODSCAL-1900-2015-HIVELY,COWCODSCAL,NMFS,PFMC,USA,US West Coast,Southern California,SCAL,Cowcod Southern California,Sebastes levis,Cowcod,NA,NOAA EFH GIS Data Inventory,usa/noaa_wc_efh/noaa_wc_groundfish_efh_cmf.shp,use whole,use whole,Clip to CA-South
PFMC-GRNSTROCKPCOAST-1916-2009-STANTON,GRNSTROCKPCOAST,NMFS,PFMC,USA,US West Coast,Pacific Coast,PCOAST,Greenstriped rockfish Pacific Coast,Sebastes elongatus,Greenstriped rockfish,,NOAA EFH GIS Data Inventory,usa/noaa_wc_efh/noaa_wc_groundfish_efh_cmf.shp,use whole,use whole,Entire West Coast
PFMC-PHAKEPCOAST-1966-2016-WATSON,PHAKEPCOAST,NMFS,PFMC,USA,US West Coast,Pacific Coast,PCOAST,Pacific hake Pacific Coast,Merluccius productus,Pacific hake,North Pacific hake,NOAA EFH GIS Data Inventory,usa/noaa_wc_efh/noaa_wc_groundfish_efh_cmf.shp,use whole,use whole,Entire West Coast
PFMC-PSOLEPCOAST-1930-2011-CHING,PSOLEPCOAST,NMFS,PFMC,USA,US West Coast,Pacific Coast,PCOAST,Petrale sole Pacific Coast,Eopsetta jordani,Petrale sole,NA,NOAA EFH GIS Data Inventory,usa/noaa_wc_efh/noaa_wc_groundfish_efh_cmf.shp,use whole,use whole,Entire West Coast
SARDI-RROCKLOBSTERSAUSNZ-1966-2010-BANOBI,RROCKLOBSTERSAUSNZ,SARDI,SARDI,Australia,Australia,South Australia Northern Zone,SAUSNZ,Rock Lobster South Australia Northern Zone,Jasus edwardsii,Red rock lobster,NA,Atlas of Living Australia,australia/processed/rock_lobster_zones_erase.shp,NA,North,
SARDI-RROCKLOBSTERSAUSSZ-1965-2010-BANOBI,RROCKLOBSTERSAUSSZ,SARDI,SARDI,Australia,Australia,South Australia Southern Zone,SAUSSZ,Rock Lobster South Australia Southern Zone,Jasus edwardsii,Red rock lobster,NA,Atlas of Living Australia,australia/processed/rock_lobster_zones_erase.shp,NA,South,
SARDI-SNAPSAUSNSG-1983-2010-BANOBI,SNAPSAUSNSG,SARDI,SARDI,Australia,Australia,Northern Spencer Gulf,SAUSNSG,Snapper Northern Spencer Gulf,Chrysophrys auratus,New Zealand snapper,Snapper,Atlas of Living Australia,australia/processed/snapper_stocks.shp,NA,clipped snapper distribution clipped to Northern Spencer Gulf,
SARDI-SNAPSAUSSGSV-1983-2010-BANOBI,SNAPSAUSSGSV,SARDI,SARDI,Australia,Australia,Southern Gulf St. Vincent,SAUSSGSV,Snapper Southern Gulf St. Vincent,Chrysophrys auratus,New Zealand snapper,Snapper,Atlas of Living Australia,australia/processed/snapper_stocks.shp,NA,clipped snapper distribution clipped to Gulf of St. Vincent,
SARDI-SNAPSAUSSSG-1984-2010-BANOBI,SNAPSAUSSSG,SARDI,SARDI,Australia,Australia,Southern Spencer Gulf,SAUSSSG,Snapper Southern Spencer Gulf,Chrysophrys auratus,New Zealand snapper,Snapper,Atlas of Living Australia,australia/processed/snapper_stocks.shp,NA,clipped snapper distribution clipped to Southern Spencer Gulf,
SEFSC-BHEADSHARATL-1950-2011-HIVELY,BHEADSHARATL,NMFS,SEFSC,USA,US Southeast and Gulf,Atlantic,ATL,Bonnethead shark Atlantic,Sphyrna tiburo,Bonnethead shark,NA,NOAA EFH GIS Data Inventory,usa/noaa_hms_efh/HMS_EFH_2009Bonnethead_Shark_dissolve.shp,dissolve all,dissolve all,All life stages
SEFSC-BLACKGROUPERGMSATL-1986-2008-THORSON,BLACKGROUPERGMSATL,NMFS,SEFSC,USA,US Southeast and Gulf,Gulf of Mexico and South Atlantic,GMSATL,Black Grouper Gulf of Mexico and South Atlantic,Mycteroperca bonaci,Black grouper,,NOAA EFH GIS Data Inventory,usa/noaa_se_efh/SEGOM_reef_fish_merge_dissolve.shp,dissolve all,dissolve all,GOM Reef Fish & SE Snapper-Grouper EFH shapefiles
SEFSC-BNOSESHARATL-1950-2005-FAUCONNET,BNOSESHARATL,NMFS,SEFSC,USA,US Southeast and Gulf,Atlantic,ATL,Blacknose shark Atlantic,Carcharhinus acronotus,Blacknose shark,NA,NOAA EFH GIS Data Inventory,usa/noaa_hms_efh/HMS_EFH_2009Blacknose_Shark_dissolve.shp,dissolve all,dissolve all,All life stages
SEFSC-BRNSHRIMPGM-1984-2011-HIVELY,BRNSHRIMPGM,NMFS,SEFSC,USA,US Southeast and Gulf,Gulf of Mexico,GM,Brown shrimp Gulf of Mexico,Farfantepenaeus aztecus,Brown shrimp,NA,NOAA EFH GIS Data Inventory,usa/noaa_gom_efh/Shrimp_EFH_GOM.shp,dissolve all,dissolve all,GOM shrimp EFH shapefile; managed in GOM Shrimp FMP
SEFSC-BSBASSSATL-1950-2010-HIVELY,BSBASSSATL,NMFS,SEFSC,USA,US Southeast and Gulf,South Atlantic,SATL,Black sea bass South Atlantic,Centropristis striata,Black sea bass,NA,NOAA EFH GIS Data Inventory,usa/noaa_se_efh/SE_snapper_grouper_comples_dissolve.shp,dissolve all,dissolve all,SE Snapper-Grouper EFH shapefile; managed in SE Snapper-Grouper FMP
SEFSC-BTIPSHARATL-1981-2004-FAUCONNET,BTIPSHARATL,NMFS,SEFSC,USA,Atlantic Ocean,Atlantic,ATL,Blacktip shark Atlantic,Carcharhinus limbatus,Blacktip shark,NA,NOAA EFH GIS Data Inventory,usa/noaa_hms_efh/HMS_EFH_2009Blacktip_Shark_atlantic_dissolve.shp,dissolve all,dissolve all,"All life stages; stock spans Atlantic, Gulf of Mexico, and Caribbean"
SEFSC-BTIPSHARGM-1981-2010-HIVELY,BTIPSHARGM,NMFS,SEFSC,USA,US Southeast and Gulf,Gulf of Mexico,GM,Blacktip shark Gulf of Mexico,Carcharhinus limbatus,Blacktip shark,NA,NOAA EFH GIS Data Inventory,usa/noaa_hms_efh/HMS_EFH_2009Blacktip_Shark_gom_dissolve.shp,dissolve all,dissolve all,All life stages
SEFSC-FTOOTHSHARATL-1976-2005-FAUCONNET,FTOOTHSHARATL,NMFS,SEFSC,USA,Atlantic Ocean,Atlantic,ATL,Finetooth shark Atlantic,Carcharhinus isodon,Finetooth shark,NA,NOAA EFH GIS Data Inventory,usa/noaa_hms_efh/HMS_EFH_2009Finetooth_Shark_dissolve.shp,dissolve all,dissolve all,"All life stages; stock spans Atlantic, Gulf of Mexico, and Caribbean"
SEFSC-GAGGM-1963-2012-HIVELY,GAGGM,NMFS,SEFSC,USA,US Southeast and Gulf,Gulf of Mexico,GM,Gag Gulf of Mexico,Mycteroperca microlepis,Gag,NA,NOAA EFH GIS Data Inventory,usa/noaa_gom_efh/ReefFish_EFH_GOM.shp,dissolve all,dissolve all,GOM reef fish EFH shapefile; managed in GOM Reef Fish FMP
SEFSC-GAGSATLC-1962-2005-JENSEN,GAGSATLC,NMFS,SEFSC,USA,US Southeast and Gulf,Southern Atlantic coast,SATLC,Gag Southern Atlantic coast,Mycteroperca microlepis,Gag,NA,NOAA EFH GIS Data Inventory,usa/noaa_se_efh/SE_snapper_grouper_comples_dissolve.shp,dissolve all,dissolve all,SE Snapper-Grouper EFH shapefile; managed in SE Snapper-Grouper FMP
SEFSC-GRAMBERGM-1986-2004-JENSEN,GRAMBERGM,NMFS,SEFSC,USA,US Southeast and Gulf,Gulf of Mexico,GM,Greater amberjack Gulf of Mexico,Seriola dumerili,Greater amberjack,NA,NOAA EFH GIS Data Inventory,usa/noaa_gom_efh/ReefFish_EFH_GOM.shp,dissolve all,dissolve all,GOM reef fish EFH shapefile; managed in GOM Reef Fish FMP
SEFSC-GRAMBERSATLC-1946-2006-JENSEN,GRAMBERSATLC,NMFS,SEFSC,USA,US Southeast and Gulf,Southern Atlantic coast,SATLC,Greater amberjack Southern Atlantic coast,Seriola dumerili,Greater amberjack,NA,NOAA EFH GIS Data Inventory,usa/noaa_se_efh/SE_snapper_grouper_comples_dissolve.shp,dissolve all,dissolve all,SE Snapper-Grouper EFH shapefile; managed in SE Snapper-Grouper FMP
SEFSC-GTRIGGM-1962-2010-HIVELY,GTRIGGM,NMFS,SEFSC,USA,US Southeast and Gulf,Gulf of Mexico,GM,Gray triggerfish Gulf of Mexico,Balistes capriscus,Gray triggerfish,NA,NOAA EFH GIS Data Inventory,usa/noaa_gom_efh/ReefFish_EFH_GOM.shp,dissolve all,dissolve all,GOM reef fish EFH shapefile; managed in GOM Reef Fish FMP
SEFSC-KMACKGM-1929-2012-HIVELY,KMACKGM,NMFS,SEFSC,USA,US Southeast and Gulf,Gulf of Mexico,GM,King mackerel Gulf of Mexico,Scomberomorus cavalla,King Mackerel,NA,NOAA EFH GIS Data Inventory,usa/noaa_gom_efh/Coastal_migratory_pelagic_EFH_GOM.shp,dissolve all,dissolve all,Coastal migratory pelagics EFH shapefile; managed in GOM CMP FMP
SEFSC-KMACKSATLC-1901-2012-HIVELY,KMACKSATLC,NMFS,SEFSC,USA,US Southeast and Gulf,Southern Atlantic coast,SATLC,King mackerel Southern Atlantic Coast,Scomberomorus cavalla,King Mackerel,NA,NOAA EFH GIS Data Inventory,usa/noaa_se_efh/SE_coastal_migratory_pelagics_dissolve.shp,dissolve all,dissolve all,SE Coastal Pelagics EFH shapefile; managed in SE Coastal Pelagics FMP
SEFSC-LISQUIDATLC-1963-2009-HIVELY,LISQUIDATLC,NMFS,SEFSC,USA,US Southeast and Gulf,Atlantic Coast,ATLC,Longfin inshore squid Atlantic Coast,Loligo pealeii,Longfin inshore squid,NA,NOAA EFH GIS Data Inventory,usa/noaa_ma_efh/MA_longfin_inshore_squid_efh_dissolve.shp,SITENAME_L,Longfin Inshore Squid,All life stages
SEFSC-MENATGM-1948-2011-HIVELY,MENATGM,NMFS,SEFSC,USA,US Southeast and Gulf,Gulf of Mexico,GM,Gulf menhaden Gulf of Mexico,Brevoortia patronus,Gulf menhaden,NA,Digitized boundary from stock assessment,usa/digitized/GOM_gulf_menhaden_erase.shp,ZONE,Digitized boundary from stock assessment,Digitized boundary from stock assessment
SEFSC-MUTSNAPSATLCGM-1981-2006-JENSEN,MUTSNAPSATLCGM,NMFS,SEFSC,USA,US Southeast and Gulf,Southern Atlantic coast and Gulf of Mexico,SATLCGM,Mutton snapper Southern Atlantic coast and Gulf of Mexico,Lutjanus analis,Mutton snapper,NA,NOAA EFH GIS Data Inventory,usa/noaa_se_efh/SEGOM_reef_fish_merge_dissolve.shp,dissolve all,dissolve all,GOM Reef Fish & SE Snapper-Grouper EFH shapefiles
SEFSC-PINKSHRIMPGM-1984-2011-HIVELY,PINKSHRIMPGM,NMFS,SEFSC,USA,US Southeast and Gulf,Gulf of Mexico,GM,Pink shrimp Gulf of Mexico,Farfantepenaeus duorarum,Pink shrimp,Northern pink shrimp,NOAA EFH GIS Data Inventory,usa/noaa_gom_efh/Shrimp_EFH_GOM.shp,dissolve all,dissolve all,GOM shrimp EFH shapefile; managed in GOM Shrimp FMP
SEFSC-RGROUPGM-1986-2005-JENSEN,RGROUPGM,NMFS,SEFSC,USA,US Southeast and Gulf,Gulf of Mexico,GM,Red grouper Gulf of Mexico,Epinephelus morio,Red grouper,NA,NOAA EFH GIS Data Inventory,usa/noaa_gom_efh/ReefFish_EFH_GOM.shp,dissolve all,dissolve all,GOM reef fish EFH shapefile; managed in GOM Reef Fish FMP
SEFSC-RGROUPSATL-1976-2009-HIVELY,RGROUPSATL,NMFS,SEFSC,USA,US Southeast and Gulf,South Atlantic,SATL,Red grouper South Atlantic,Epinephelus morio,Red grouper,NA,NOAA EFH GIS Data Inventory,usa/noaa_se_efh/SE_snapper_grouper_comples_dissolve.shp,dissolve all,dissolve all,SE Snapper-Grouper EFH shapefile; managed in SE Snapper-Grouper FMP
SEFSC-RPORGYSATLC-1972-2012-HIVELY,RPORGYSATLC,NMFS,SEFSC,USA,US Southeast and Gulf,Southern Atlantic coast,SATLC,Red porgy Southern Atlantic coast,Pagrus pagrus,Common seabream,Red porgy,NOAA EFH GIS Data Inventory,usa/noaa_se_efh/SE_snapper_grouper_comples_dissolve.shp,dissolve all,dissolve all,SE Snapper-Grouper EFH shapefile; managed in SE Snapper-Grouper FMP
SEFSC-RSNAPGM-1872-2011-HIVELY,RSNAPGM,NMFS,SEFSC,USA,US Southeast and Gulf,Gulf of Mexico,GM,Red snapper Gulf of Mexico,Lutjanus campechanus,Red snapper,NA,NOAA EFH GIS Data Inventory,usa/noaa_gom_efh/ReefFish_EFH_GOM.shp,dissolve all,dissolve all,GOM reef fish EFH shapefile; managed in GOM Reef Fish FMP
SEFSC-RSNAPSATLC-1954-2010-HIVELY,RSNAPSATLC,NMFS,SEFSC,USA,US Southeast and Gulf,Southern Atlantic coast,SATLC,Red snapper Southern Atlantic coast,Lutjanus campechanus,Red snapper,NA,NOAA EFH GIS Data Inventory,usa/noaa_se_efh/SE_snapper_grouper_comples_dissolve.shp,dissolve all,dissolve all,SE Snapper-Grouper EFH shapefile; managed in SE Snapper-Grouper FMP
SEFSC-SBARSHARATL-1975-2004-FAUCONNET,SBARSHARATL,NMFS,SEFSC,USA,US Southeast and Gulf,Atlantic,ATL,Sandbar shark Atlantic,Carcharhinus plumbeus,Sandbar shark,NA,NOAA EFH GIS Data Inventory,usa/noaa_hms_efh/HMS_EFH_2009Sandbar_Shark_dissolve.shp,dissolve all,dissolve all,All life stages
SEFSC-SNOSESHARATL-1950-2005-FAUCONNET,SNOSESHARATL,NMFS,SEFSC,USA,Atlantic Ocean,Atlantic,ATL,Atlantic sharpnose shark Atlantic,Rhizoprionodon terraenovae,Atlantic sharpnose shark,NA,NOAA EFH GIS Data Inventory,usa/noaa_hms_efh/HMS_EFH_2009Atlantic_Sharpnose_Shark_dissolve.shp,dissolve all,dissolve all,"All life stages; stock spans Atlantic, Gulf of Mexico, and Caribbean"
SEFSC-SNOWGROUPSATLC-1974-2013-HIVELY,SNOWGROUPSATLC,NMFS,SEFSC,USA,US Southeast and Gulf,Southern Atlantic coast,SATLC,Snowy grouper Southern Atlantic coast,Epinephelus niveatus,Snowy grouper,NA,NOAA EFH GIS Data Inventory,usa/noaa_se_efh/SE_snapper_grouper_comples_dissolve.shp,dissolve all,dissolve all,SE Snapper-Grouper EFH shapefile; managed in SE Snapper-Grouper FMP
SEFSC-SPANMACKGM-1886-2011-HIVELY,SPANMACKGM,NMFS,SEFSC,USA,US Southeast and Gulf,Gulf of Mexico,GM,Spanish mackerel Gulf of Mexico,Scomberomorus maculatus,Spanish mackerel,NA,NOAA EFH GIS Data Inventory,usa/noaa_gom_efh/Coastal_migratory_pelagic_EFH_GOM.shp,dissolve all,dissolve all,Coastal migratory pelagics EFH shapefile; managed in GOM CMP FMP
SEFSC-SPANMACKSATLC-1950-2012-HIVELY,SPANMACKSATLC,NMFS,SEFSC,USA,US Southeast and Gulf,Southern Atlantic coast,SATLC,Spanish mackerel Southern Atlantic Coast,Scomberomorus maculatus,Spanish mackerel,NA,NOAA EFH GIS Data Inventory,usa/noaa_se_efh/SE_coastal_migratory_pelagics_dissolve.shp,dissolve all,dissolve all,SE Coastal Pelagics EFH shapefile; managed in SE Coastal Pelagics FMP
SEFSC-TILEGM-1965-2009-HIVELY,TILEGM,NMFS,SEFSC,USA,US Southeast and Gulf,Gulf of Mexico,GM,Tilefish Gulf of Mexico,Lopholatilus chamaeleonticeps,Tilefish,NA,NOAA EFH GIS Data Inventory,usa/noaa_gom_efh/ReefFish_EFH_GOM.shp,dissolve all,dissolve all,GOM reef fish EFH shapefile; managed in GOM Reef Fish FMP
SEFSC-TILESATLC-1961-2011-HIVELY,TILESATLC,NMFS,SEFSC,USA,US Southeast and Gulf,Southern Atlantic coast,SATLC,Tilefish Southern Atlantic coast,Lopholatilus chamaeleonticeps,Tilefish,NA,NOAA EFH GIS Data Inventory,usa/noaa_se_efh/SE_snapper_grouper_comples_dissolve.shp,dissolve all,dissolve all,SE Snapper-Grouper EFH shapefile; managed in SE Snapper-Grouper FMP
SEFSC-VSNAPGM-1981-2004-JENSEN,VSNAPGM,NMFS,SEFSC,USA,US Southeast and Gulf,Gulf of Mexico,GM,Vermilion snapper Gulf of Mexico,Rhomboplites aurorubens,Vermilion snapper,NA,NOAA EFH GIS Data Inventory,usa/noaa_gom_efh/ReefFish_EFH_GOM.shp,dissolve all,dissolve all,GOM reef fish EFH shapefile; managed in GOM Reef Fish FMP
SEFSC-VSNAPSATLC-1945-2012-HIVELY,VSNAPSATLC,NMFS,SEFSC,USA,US Southeast and Gulf,Southern Atlantic coast,SATLC,Vermilion snapper Southern Atlantic coast,Rhomboplites aurorubens,Vermilion snapper,NA,NOAA EFH GIS Data Inventory,usa/noaa_se_efh/SE_snapper_grouper_comples_dissolve.shp,dissolve all,dissolve all,SE Snapper-Grouper EFH shapefile; managed in SE Snapper-Grouper FMP
SEFSC-WSHRIMPGM-1984-2011-HIVELY,WSHRIMPGM,NMFS,SEFSC,USA,US Southeast and Gulf,Gulf of Mexico,GM,White shrimp Gulf of Mexico,Litopenaeus setiferus,White shrimp,NA,NOAA EFH GIS Data Inventory,usa/noaa_gom_efh/Shrimp_EFH_GOM.shp,dissolve all,dissolve all,GOM shrimp EFH shapefile; managed in GOM Shrimp FMP
SEFSC-YEGROUPGM-1975-2009-HIVELY,YEGROUPGM,NMFS,SEFSC,USA,US Southeast and Gulf,Gulf of Mexico,GM,Yellowedge grouper Gulf of Mexico,Epinephelus flavolimbatus,Yellowedge grouper,NA,NOAA EFH GIS Data Inventory,usa/noaa_gom_efh/ReefFish_EFH_GOM.shp,dissolve all,dissolve all,GOM reef fish EFH shapefile; managed in GOM Reef Fish FMP
SEFSC-YTSNAPSATLCGM-1950-2011-HIVELY,YTSNAPSATLCGM,NMFS,SEFSC,USA,US Southeast and Gulf,Southern Atlantic coast and Gulf of Mexico,SATLCGM,Yellowtail Snapper Southern Atlantic Coast and Gulf of Mexico,Ocyurus chrysurus,Yellowtail snapper,NA,NOAA EFH GIS Data Inventory,usa/noaa_se_efh/SEGOM_reef_fish_merge_dissolve.shp,dissolve all,dissolve all,GOM Reef Fish & SE Snapper-Grouper EFH shapefiles
SPC-ALBASPAC-1960-2010-PONS,ALBASPAC,WCPFC,SPC,Tuna-RFMO,Pacific Ocean,South Pacific Ocean,SPAC,Albacore tuna South Pacific Ocean,Thunnus alalunga,Albacore tuna,NA,Digitized from stock assessment,tuna/SPC_albacore_s_pacific_erase.shp,NA,already dissolved,
SPC-BIGEYECWPAC-1952-2012-PONS,BIGEYECWPAC,WCPFC,SPC,Tuna-RFMO,Pacific Ocean,Central Western Pacific Ocean,CWPAC,Bigeye tuna Central Western Pacific,Thunnus obesus,Bigeye tuna,NA,Digitized from stock assessment,tuna/SPC_bigeye_cw_pacific_erase.shp,NA,already dissolved,
SPC-BIGEYEWPO-1952-2006-JENSEN,BIGEYEWPO,WCPFC,SPC,Tuna-RFMO,Pacific Ocean,Western Pacific Ocean,WPO,Bigeye tuna Western Pacific Ocean,Thunnus obesus,Bigeye tuna,NA,Digitized from stock assessment,tuna/SPC_bigeye_w_pacific_erase.shp,NA,already dissolved,
SPC-SKJCWPAC-1950-2012-PONS,SKJCWPAC,WCPFC,SPC,Tuna-RFMO,Pacific Ocean,Central Western Pacific Ocean,CWPAC,Skipjack tuna Central Western Pacific,Katsuwonus pelamis,Skipjack tuna,NA,Digitized from stock assessment,tuna/SPC_skipjack_w_pacific_erase.shp,NA,already dissolved,
SPC-STMARLINSWPO-1952-2011-CHING,STMARLINSWPO,WCPFC,SPC,Tuna-RFMO,Pacific Ocean,Western Pacific Ocean,WPO,Striped marlin Southwestern Pacific Ocean,Kajikia audax,Striped marlin,Pacific striped marlin,Digitized from stock assessment,tuna/SPC_striped_marlin_w_pacific_erase.shp,NA,already dissolved,
SPC-YFINCWPAC-1952-2012-PONS,YFINCWPAC,WCPFC,SPC,Tuna-RFMO,Pacific Ocean,Central Western Pacific Ocean,CWPAC,Yellowfin tuna Central Western Pacific,Thunnus albacares,Yellowfin tuna,NA,Digitized from stock assessment,tuna/SPC_yellowfin_w_pacific_erase.shp,NA,already dissolved,
STECF-ANCHMEDGSA1-2002-2009-OSIO,ANCHMEDGSA1,GFCM,STECF,Europe,Mediterranean-Black Sea,Northern Alboran Sea,GSA1,Anchovy Northern Alboran Sea,Engraulis encrasicolus,Anchovy,European anchovy,FAO website,europe/gfcm/GSAs_simplified,SECT_COD,GSA01,
STECF-ANCHMEDGSA16-2004-2011-OSIO,ANCHMEDGSA16,GFCM,STECF,Europe,Mediterranean-Black Sea,South of Sicily,GSA16,Anchovy South of Sicily,Engraulis encrasicolus,Anchovy,European anchovy,FAO website,europe/gfcm/GSAs_simplified,SECT_COD,GSA16,
STECF-ANCHMEDGSA17-18-1976-2013-OSIO,ANCHMEDGSA17-18,GFCM,STECF,Europe,Mediterranean-Black Sea,"Adriatic Sea (GSA 17,18)",GSA17-18,Anchovy Adriatic Sea,Engraulis encrasicolus,Anchovy,European anchovy,FAO website,europe/gfcm/GSAs_simplified,SECT_COD,"GSA17, GSA18",
STECF-ANCHMEDGSA19-2006-2012-OSIO,ANCHMEDGSA19,GFCM,STECF,Europe,Mediterranean-Black Sea,Western Ionian Sea,GSA19,Anchovy Western Ionian Sea,Engraulis encrasicolus,Anchovy,European anchovy,FAO website,europe/gfcm/GSAs_simplified,SECT_COD,GSA19,
STECF-ANCHMEDGSA20-2000-2008-OSIO,ANCHMEDGSA20,GFCM,STECF,Europe,Mediterranean-Black Sea,Eastern Ionian Sea,GSA20,Anchovy Eastern Ionian Sea,Engraulis encrasicolus,Anchovy,European anchovy,FAO website,europe/gfcm/GSAs_simplified,SECT_COD,GSA20,
STECF-ANCHMEDGSA22-2000-2008-OSIO,ANCHMEDGSA22,GFCM,STECF,Europe,Mediterranean-Black Sea,Aegean Sea,GSA22,Anchovy Aegean Sea,Engraulis encrasicolus,Anchovy,European anchovy,FAO website,europe/gfcm/GSAs_simplified,SECT_COD,GSA22,
STECF-ANCHMEDGSA29-1988-2014-OSIO,ANCHMEDGSA29,GFCM,STECF,Europe,Mediterranean-Black Sea,Black Sea,GSA29,Anchovy Black Sea,Engraulis encrasicolus,Anchovy,European anchovy,FAO website,europe/gfcm/GSAs_simplified,SECT_COD,GSA29,
STECF-ANCHMEDGSA6-2002-2009-OSIO,ANCHMEDGSA6,GFCM,STECF,Europe,Mediterranean-Black Sea,Northern Spain,GSA6,Anchovy Northern Spain,Engraulis encrasicolus,Anchovy,European anchovy,FAO website,europe/gfcm/GSAs_simplified,SECT_COD,GSA06,
STECF-ANCHMEDGSA9-2004-2010-OSIO,ANCHMEDGSA9,GFCM,STECF,Europe,Mediterranean-Black Sea,Ligurian and North Tyrrhenian Sea,GSA9,Anchovy Ligurian and North Tyrrhenian Sea,Engraulis encrasicolus,Anchovy,European anchovy,FAO website,europe/gfcm/GSAs_simplified,SECT_COD,GSA09,
STECF-ANGLMEDGSA15-16-2006-2011-OSIO,ANGLMEDGSA15-16,GFCM,STECF,Europe,Mediterranean-Black Sea,"Malta Island and South of Sicily (GSA 15, 16)",GSA15-16,Black Bellied Angler Malta Island and South of Sicily,Lophius budegassa,Black bellied angler,NA,FAO website,europe/gfcm/GSAs_simplified,SECT_COD,"GSA15, GSA16",
STECF-ANGLMEDGSA5-2003-2013-OSIO,ANGLMEDGSA5,GFCM,STECF,Europe,Mediterranean-Black Sea,Balearic Island,GSA5,Black bellied angler Balearic Island,Lophius budegassa,Black bellied angler,NA,FAO website,europe/gfcm/GSAs_simplified,SECT_COD,GSA05,
STECF-ANGLMEDGSA6-2004-2013-OSIO,ANGLMEDGSA6,GFCM,STECF,Europe,Mediterranean-Black Sea,Northern Spain,GSA6,Black bellied angler Northern Spain,Lophius budegassa,Black bellied angler,NA,FAO website,europe/gfcm/GSAs_simplified,SECT_COD,GSA06,
STECF-ANGLMEDGSA7-2005-2011-OSIO,ANGLMEDGSA7,GFCM,STECF,Europe,Mediterranean-Black Sea,Gulf of Lions,GSA7,Black bellied angler Gulf of Lions,Lophius budegassa,Black bellied angler,NA,FAO website,europe/gfcm/GSAs_simplified,SECT_COD,GSA07,
STECF-BWHITMEDGSA1-2002-2011-OSIO,BWHITMEDGSA1,GFCM,STECF,Europe,Mediterranean-Black Sea,Northern Alboran Sea,GSA1,Blue whiting Northern Alboran Sea,Micromesistius poutassou,Blue whiting,NA,FAO website,europe/gfcm/GSAs_simplified,SECT_COD,GSA01,
STECF-BWHITMEDGSA6-2009-2013-OSIO,BWHITMEDGSA6,GFCM,STECF,Europe,Mediterranean-Black Sea,Northern Spain,GSA6,Blue whiting Northern Spain,Micromesistius poutassou,Blue whiting,NA,FAO website,europe/gfcm/GSAs_simplified,SECT_COD,GSA06,
STECF-BWHITMEDGSA9-2009-2013-OSIO,BWHITMEDGSA9,GFCM,STECF,Europe,Mediterranean-Black Sea,Ligurian and North Tyrrhenian Sea,GSA9,Blue whiting Ligurian and North Tyrrhenian Sea,Micromesistius poutassou,Blue whiting,NA,FAO website,europe/gfcm/GSAs_simplified,SECT_COD,GSA09,
STECF-CPANDMEDGSA15-16-2006-2011-OSIO,CPANDMEDGSA15-16,GFCM,STECF,Europe,Mediterranean-Black Sea,"Malta Island and South of Sicily (GSA 15, 16)",GSA15-16,Common pandora Malta Island and South of Sicily,Pagellus erythrinus,Common pandora,NA,FAO website,europe/gfcm/GSAs_simplified,SECT_COD,"GSA15, GSA16",
STECF-CPANDMEDGSA9-2006-2010-OSIO,CPANDMEDGSA9,GFCM,STECF,Europe,Mediterranean-Black Sea,Ligurian and North Tyrrhenian Sea,GSA9,Common pandora Ligurian and North Tyrrhenian Sea,Pagellus erythrinus,Common pandora,NA,FAO website,europe/gfcm/GSAs_simplified,SECT_COD,GSA09,
STECF-GFORKBMEDGSA9-2007-2011-OSIO,GFORKBMEDGSA9,GFCM,STECF,Europe,Mediterranean-Black Sea,Ligurian and North Tyrrhenian Sea,GSA9,Greater forkbeard Ligurian and North Tyrrhenian Sea,Phycis blennoides,Greater forkbeard,NA,FAO website,europe/gfcm/GSAs_simplified,SECT_COD,GSA09,
STECF-GRSHRIMPMEDGSA10-2006-2014-OSIO,GRSHRIMPMEDGSA10,GFCM,STECF,Europe,Mediterranean-Black Sea,South Tyrrhenian Sea,GSA10,Giant red shrimp South Tyrrhenian Sea,Aristaeomorpha foliacea,Giant red shrimp,,FAO website,europe/gfcm/GSAs_simplified,SECT_COD,GSA10,
STECF-GRSHRIMPMEDGSA11-2006-2014-OSIO,GRSHRIMPMEDGSA11,GFCM,STECF,Europe,Mediterranean-Black Sea,Sardinia,GSA11,Giant red shrimp Sardinia,Aristaeomorpha foliacea,Giant red shrimp,,FAO website,europe/gfcm/GSAs_simplified,SECT_COD,GSA11,
STECF-GRSHRIMPMEDGSA12-16-2005-2011-OSIO,GRSHRIMPMEDGSA12-16,GFCM,STECF,Europe,Mediterranean-Black Sea,Geographical Sub-Areas 12-16,GSA12-16,Giant red shrimp Geographical Sub-Areas 12-16,Aristaeomorpha foliacea,Giant red shrimp,,FAO website,europe/gfcm/GSAs_simplified,SECT_COD,"GSA12, GSA13, GSA14, GSA15, GSA16",
STECF-GRSHRIMPMEDGSA18-19-2008-2014-OSIO,GRSHRIMPMEDGSA18-19,GFCM,STECF,Europe,Mediterranean-Black Sea,"South Adriatic Sea and West Ionian Sea (GSA 18,19)",GSA18-19,Giant red shrimp South Adriatic Sea and West Ionian Sea,Aristaeomorpha foliacea,Giant red shrimp,,FAO website,europe/gfcm/GSAs_simplified,SECT_COD,"GSA18, GSA19",
STECF-GRSHRIMPMEDGSA9-2006-2014-OSIO,GRSHRIMPMEDGSA9,GFCM,STECF,Europe,Mediterranean-Black Sea,Ligurian and North Tyrrhenian Sea,GSA9,Giant red shrimp Ligurian and North Tyrrhenian Sea,Aristaeomorpha foliacea,Giant red shrimp,,FAO website,europe/gfcm/GSAs_simplified,SECT_COD,GSA09,
STECF-HAKEMEDGSA1-7-2003-2014-OSIO,HAKEMEDGSA1-7,GFCM,STECF,Europe,Mediterranean-Black Sea,Geographical Sub-Areas 1-7,GSA1-7,Hake Geographical Sub-Areas 1-7,Merluccius merluccius,Hake,European hake,FAO website,europe/gfcm/GSAs_simplified,SECT_COD,"GSA01, GSA02, GSA03, GSA04, GSA05, GSA06, GSA07",
STECF-HAKEMEDGSA15-16-2005-2009-OSIO,HAKEMEDGSA15-16,GFCM,STECF,Europe,Mediterranean-Black Sea,"Malta Island and South of Sicily (GSA 15, 16)",GSA15-16,Hake Malta Island and South of Sicily,Merluccius merluccius,Hake,European hake,FAO website,europe/gfcm/GSAs_simplified,SECT_COD,"GSA15, GSA16",
STECF-HAKEMEDGSA17-18-2008-2014-OSIO,HAKEMEDGSA17-18,GFCM,STECF,Europe,Mediterranean-Black Sea,"Adriatic Sea (GSA 17,18)",GSA17-18,Hake Adriatic Sea,Merluccius merluccius,Hake,European hake,FAO website,europe/gfcm/GSAs_simplified,SECT_COD,"GSA17, GSA18",
STECF-HAKEMEDGSA19-2006-2014-OSIO,HAKEMEDGSA19,GFCM,STECF,Europe,Mediterranean-Black Sea,Western Ionian Sea,GSA19,Hake Western Ionian Sea,Merluccius merluccius,Hake,European hake,FAO website,europe/gfcm/GSAs_simplified,SECT_COD,GSA19,
STECF-HAKEMEDGSA20-2003-2008-OSIO,HAKEMEDGSA20,GFCM,STECF,Europe,Mediterranean-Black Sea,Eastern Ionian Sea,GSA20,Hake Eastern Ionian Sea,Merluccius merluccius,Hake,European hake,FAO website,europe/gfcm/GSAs_simplified,SECT_COD,GSA20,
STECF-HAKEMEDGSA22-23-2003-2008-OSIO,HAKEMEDGSA22-23,GFCM,STECF,Europe,Mediterranean-Black Sea,"Aegean Sea and Crete Island (GSA 22,23)",GSA22-23,Hake Aegean Sea and Crete Island,Merluccius merluccius,Hake,European hake,FAO website,europe/gfcm/GSAs_simplified,SECT_COD,"GSA22, GSA23",
STECF-HAKEMEDGSA9-11-2006-2014-OSIO,HAKEMEDGSA9-11,GFCM,STECF,Europe,Mediterranean-Black Sea,Geographical Sub-Areas 9-11,GSA9-11,Hake Geographical Sub-Areas 9-11,Merluccius merluccius,Hake,European hake,FAO website,europe/gfcm/GSAs_simplified,SECT_COD,"GSA09, GSA10, GSA11",
STECF-MHMACKMEDGSA29-2005-2014-OSIO,MHMACKMEDGSA29,GFCM,STECF,Europe,Mediterranean-Black Sea,Black Sea,GSA29,Mediterranean horse mackerel Black Sea,Trachurus mediterraneus,Mediterranean horse mackerel,NA,FAO website,europe/gfcm/GSAs_simplified,SECT_COD,GSA29,
STECF-NEPHMEDGSA1-2002-2011-OSIO,NEPHMEDGSA1,GFCM,STECF,Europe,Mediterranean-Black Sea,Northern Alboran Sea,GSA1,Norway lobster Northern Alboran Sea,Nephrops norvegicus,Norway lobster,NA,FAO website,europe/gfcm/GSAs_simplified,SECT_COD,GSA01,
STECF-NEPHMEDGSA15-16-2002-2012-OSIO,NEPHMEDGSA15-16,GFCM,STECF,Europe,Mediterranean-Black Sea,"Malta Island and South of Sicily (GSA 15, 16)",GSA15-16,Norway lobster Malta Island and South of Sicily,Nephrops norvegicus,Norway lobster,NA,FAO website,europe/gfcm/GSAs_simplified,SECT_COD,"GSA15, GSA16",
STECF-NEPHMEDGSA17-2004-2008-OSIO,NEPHMEDGSA17,GFCM,STECF,Europe,Mediterranean-Black Sea,Northern Adriatic Sea,GSA17,Norway lobster Northern Adriatic Sea,Nephrops norvegicus,Norway lobster,NA,FAO website,europe/gfcm/GSAs_simplified,SECT_COD,GSA17,
STECF-NEPHMEDGSA18-2007-2013-OSIO,NEPHMEDGSA18,GFCM,STECF,Europe,Mediterranean-Black Sea,Southern Adriatic Sea,GSA18,Norway lobster Southern Adriatic Sea,Nephrops norvegicus,Norway lobster,NA,FAO website,europe/gfcm/GSAs_simplified,SECT_COD,GSA18,
STECF-NEPHMEDGSA5-2002-2013-OSIO,NEPHMEDGSA5,GFCM,STECF,Europe,Mediterranean-Black Sea,Balearic Island,GSA5,Norway Lobster Balearic Island,Nephrops norvegicus,Norway lobster,NA,FAO website,europe/gfcm/GSAs_simplified,SECT_COD,GSA05,
STECF-NEPHMEDGSA6-2002-2011-OSIO,NEPHMEDGSA6,GFCM,STECF,Europe,Mediterranean-Black Sea,Northern Spain,GSA6,Norway lobster Northern Spain,Nephrops norvegicus,Norway lobster,NA,FAO website,europe/gfcm/GSAs_simplified,SECT_COD,GSA06,
STECF-NEPHMEDGSA9-2006-2013-OSIO,NEPHMEDGSA9,GFCM,STECF,Europe,Mediterranean-Black Sea,Ligurian and North Tyrrhenian Sea,GSA9,Norway lobster Ligurian and North Tyrrhenian Sea,Nephrops norvegicus,Norway lobster,NA,FAO website,europe/gfcm/GSAs_simplified,SECT_COD,GSA09,
STECF-PICAMEDGSA25-2005-2010-OSIO,PICAMEDGSA25,GFCM,STECF,Europe,Mediterranean-Black Sea,Cyprus Island,GSA25,Picarel Cyprus Island,Spicara smaris,Picarel,NA,FAO website,europe/gfcm/GSAs_simplified,SECT_COD,GSA25,
STECF-PRCODMEDGSA9-2004-2011-OSIO,PRCODMEDGSA9,GFCM,STECF,Europe,Mediterranean-Black Sea,Ligurian and North Tyrrhenian Sea,GSA9,Poor cod Ligurian and North Tyrrhenian Sea,Trisopterus minutus,Poor cod,NA,FAO website,europe/gfcm/GSAs_simplified,SECT_COD,GSA09,
STECF-PSHRMPMEDGSA6-2001-2012-OSIO,PSHRMPMEDGSA6,GFCM,STECF,Europe,Mediterranean-Black Sea,Northern Spain,GSA6,Deep-water Rose Shrimp Northern Spain,Parapenaeus longirostris,Deep-water rose shrimp,NA,FAO website,europe/gfcm/GSAs_simplified,SECT_COD,GSA06,
STECF-RDSHRMPMEDGSA1-2002-2014-OSIO,RDSHRMPMEDGSA1,GFCM,STECF,Europe,Mediterranean-Black Sea,Northern Alboran Sea,GSA1,Red shrimp Northern Alboran Sea,Aristeus antennatus,Red shrimp,Blue and red shrimp,FAO website,europe/gfcm/GSAs_simplified,SECT_COD,GSA01,
STECF-RDSHRMPMEDGSA10-2006-2011-OSIO,RDSHRMPMEDGSA10,GFCM,STECF,Europe,Mediterranean-Black Sea,South Tyrrhenian Sea,GSA10,Red shrimp South Tyrrhenian Sea,Aristeus antennatus,Red shrimp,Blue and red shrimp,FAO website,europe/gfcm/GSAs_simplified,SECT_COD,GSA10,
STECF-RDSHRMPMEDGSA15-16-2009-2012-OSIO,RDSHRMPMEDGSA15-16,GFCM,STECF,Europe,Mediterranean-Black Sea,"Malta Island and South of Sicily (GSA 15, 16)",GSA15-16,Red shrimp Malta Island and South of Sicily,Aristeus antennatus,Red shrimp,Blue and red shrimp,FAO website,europe/gfcm/GSAs_simplified,SECT_COD,"GSA15, GSA16",
STECF-RDSHRMPMEDGSA6-2002-2014-OSIO,RDSHRMPMEDGSA6,GFCM,STECF,Europe,Mediterranean-Black Sea,Northern Spain,GSA6,Red Shrimp Northern Spain,Aristeus antennatus,Red shrimp,Blue and red shrimp,FAO website,europe/gfcm/GSAs_simplified,SECT_COD,GSA06,
STECF-RMULLMEDGSA1-2003-2013-OSIO,RMULLMEDGSA1,GFCM,STECF,Europe,Mediterranean-Black Sea,Northern Alboran Sea,GSA1,Red mullet Northern Alboran Sea,Mullus barbatus,Red mullet,NA,FAO website,europe/gfcm/GSAs_simplified,SECT_COD,GSA01,
STECF-RMULLMEDGSA10-2004-2010-OSIO,RMULLMEDGSA10,GFCM,STECF,Europe,Mediterranean-Black Sea,South Tyrrhenian Sea,GSA10,Red mullet South Tyrrhenian Sea,Mullus barbatus,Red mullet,NA,FAO website,europe/gfcm/GSAs_simplified,SECT_COD,GSA10,
STECF-RMULLMEDGSA11-2005-2012-OSIO,RMULLMEDGSA11,GFCM,STECF,Europe,Mediterranean-Black Sea,Sardinia,GSA11,Red mullet Sardinia,Mullus barbatus,Red mullet,NA,FAO website,europe/gfcm/GSAs_simplified,SECT_COD,"GSA111, GSA112",
STECF-RMULLMEDGSA15-16-2005-2011-OSIO,RMULLMEDGSA15-16,GFCM,STECF,Europe,Mediterranean-Black Sea,"Malta Island and South of Sicily (GSA 15, 16)",GSA15-16,Red mullet Malta Island and South of Sicily,Mullus barbatus,Red mullet,NA,FAO website,europe/gfcm/GSAs_simplified,SECT_COD,"GSA15, GSA16",
STECF-RMULLMEDGSA17-18-2008-2014-OSIO,RMULLMEDGSA17-18,GFCM,STECF,Europe,Mediterranean-Black Sea,"Adriatic Sea (GSA 17,18)",GSA17-18,Red mullet Adriatic Sea,Mullus barbatus,Red mullet,NA,FAO website,europe/gfcm/GSAs_simplified,SECT_COD,"GSA17, GSA18",
STECF-RMULLMEDGSA19-2006-2014-OSIO,RMULLMEDGSA19,GFCM,STECF,Europe,Mediterranean-Black Sea,Western Ionian Sea,GSA19,Red mullet Western Ionian Sea,Mullus barbatus,Red mullet,NA,FAO website,europe/gfcm/GSAs_simplified,SECT_COD,GSA19,
STECF-RMULLMEDGSA25-2005-2008-OSIO,RMULLMEDGSA25,GFCM,STECF,Europe,Mediterranean-Black Sea,Cyprus Island,GSA25,Red mullet Cyprus Island,Mullus barbatus,Red mullet,NA,FAO website,europe/gfcm/GSAs_simplified,SECT_COD,GSA25,
STECF-RMULLMEDGSA29-1990-2014-OSIO,RMULLMEDGSA29,GFCM,STECF,Europe,Mediterranean-Black Sea,Black Sea,GSA29,Red mullet Black Sea,Mullus barbatus,Red mullet,NA,FAO website,europe/gfcm/GSAs_simplified,SECT_COD,GSA29,
STECF-RMULLMEDGSA5-2000-2012-OSIO,RMULLMEDGSA5,GFCM,STECF,Europe,Mediterranean-Black Sea,Balearic Island,GSA5,Red mullet Balearic Island,Mullus barbatus,Red mullet,NA,FAO website,europe/gfcm/GSAs_simplified,SECT_COD,GSA05,
STECF-RMULLMEDGSA6-2002-2013-OSIO,RMULLMEDGSA6,GFCM,STECF,Europe,Mediterranean-Black Sea,Northern Spain,GSA6,Red mullet Northern Spain,Mullus barbatus,Red mullet,NA,FAO website,europe/gfcm/GSAs_simplified,SECT_COD,GSA06,
STECF-RMULLMEDGSA7-2004-2013-OSIO,RMULLMEDGSA7,GFCM,STECF,Europe,Mediterranean-Black Sea,Gulf of Lions,GSA7,Red mullet Gulf of Lions,Mullus barbatus,Red mullet,NA,FAO website,europe/gfcm/GSAs_simplified,SECT_COD,GSA07,
STECF-RMULLMEDGSA9-2006-2013-OSIO,RMULLMEDGSA9,GFCM,STECF,Europe,Mediterranean-Black Sea,Ligurian and North Tyrrhenian Sea,GSA9,Red mullet Ligurian and North Tyrrhenian Sea,Mullus barbatus,Red mullet,NA,FAO website,europe/gfcm/GSAs_simplified,SECT_COD,GSA09,
STECF-RSHRMPMEDGSA1-2003-2012-OSIO,RSHRMPMEDGSA1,GFCM,STECF,Europe,Mediterranean-Black Sea,Northern Alboran Sea,GSA1,Deep-water rose shrimp Northern Alboran Sea,Parapenaeus longirostris,Deep-water rose shrimp,NA,FAO website,europe/gfcm/GSAs_simplified,SECT_COD,GSA01,
STECF-RSHRMPMEDGSA10-2006-2012-OSIO,RSHRMPMEDGSA10,GFCM,STECF,Europe,Mediterranean-Black Sea,South Tyrrhenian Sea,GSA10,Deep-water rose shrimp South Tyrrhenian Sea,Parapenaeus longirostris,Deep-water rose shrimp,NA,FAO website,europe/gfcm/GSAs_simplified,SECT_COD,GSA10,
STECF-RSHRMPMEDGSA11-2009-2011-OSIO,RSHRMPMEDGSA11,GFCM,STECF,Europe,Mediterranean-Black Sea,Sardinia,GSA11,Deep-water rose shrimp Sardinia,Parapenaeus longirostris,Deep-water rose shrimp,NA,FAO website,europe/gfcm/GSAs_simplified,SECT_COD,"GSA111, GSA112",
STECF-RSHRMPMEDGSA12-16-2007-2009-OSIO,RSHRMPMEDGSA12-16,GFCM,STECF,Europe,Mediterranean-Black Sea,Geographical Sub-Areas 12-16,GSA12-16,Deep-water Rose Shrimp GSA 12-16,Parapenaeus longirostris,Deep-water rose shrimp,NA,FAO website,europe/gfcm/GSAs_simplified,SECT_COD,"GSA12, GSA13, GSA14, GSA15, GSA16",
STECF-RSHRMPMEDGSA17-19-2007-2014-OSIO,RSHRMPMEDGSA17-19,GFCM,STECF,Europe,Mediterranean-Black Sea,Geographical Sub-Areas 17-19,GSA17-19,Deep-water rose shrimp Geographical Sub-Areas 17-19,Parapenaeus longirostris,Deep-water rose shrimp,NA,FAO website,europe/gfcm/GSAs_simplified,SECT_COD,"GSA17, GSA18, GSA19",
STECF-RSHRMPMEDGSA5-2002-2012-OSIO,RSHRMPMEDGSA5,GFCM,STECF,Europe,Mediterranean-Black Sea,Balearic Island,GSA5,Deep-water rose shrimp Balearic Island,Parapenaeus longirostris,Deep-water rose shrimp,NA,FAO website,europe/gfcm/GSAs_simplified,SECT_COD,GSA05,
STECF-RSHRMPMEDGSA9-2006-2013-OSIO,RSHRMPMEDGSA9,GFCM,STECF,Europe,Mediterranean-Black Sea,Ligurian and North Tyrrhenian Sea,GSA9,Deep-water rose shrimp Ligurian and North Tyrrhenian Sea,Parapenaeus longirostris,Deep-water rose shrimp,NA,FAO website,europe/gfcm/GSAs_simplified,SECT_COD,GSA09,
STECF-SARDMEDGSA1-2002-2012-OSIO,SARDMEDGSA1,GFCM,STECF,Europe,Mediterranean-Black Sea,Northern Alboran Sea,GSA1,European pilchard Northern Alboran Sea,Sardina pilchardus,European pilchard,Spanish sardine,FAO website,europe/gfcm/GSAs_simplified,SECT_COD,GSA01,
STECF-SARDMEDGSA17-18-1975-2013-OSIO,SARDMEDGSA17-18,GFCM,STECF,Europe,Mediterranean-Black Sea,"Adriatic Sea (GSA 17,18)",GSA17-18,European pilchard Adriatic Sea,Sardina pilchardus,European pilchard,Spanish sardine,FAO website,europe/gfcm/GSAs_simplified,SECT_COD,"GSA17, GSA18",
STECF-SARDMEDGSA20-2000-2008-OSIO,SARDMEDGSA20,GFCM,STECF,Europe,Mediterranean-Black Sea,Eastern Ionian Sea,GSA20,European pilchard Eastern Ionian Sea,Sardina pilchardus,European pilchard,Spanish sardine,FAO website,europe/gfcm/GSAs_simplified,SECT_COD,GSA20,
STECF-SARDMEDGSA22-2000-2008-OSIO,SARDMEDGSA22,GFCM,STECF,Europe,Mediterranean-Black Sea,Aegean Sea,GSA22,European pilchard Aegean Sea,Sardina pilchardus,European pilchard,Spanish sardine,FAO website,europe/gfcm/GSAs_simplified,SECT_COD,GSA22,
STECF-SARDMEDGSA6-2003-2013-OSIO,SARDMEDGSA6,GFCM,STECF,Europe,Mediterranean-Black Sea,Northern Spain,GSA6,European pilchard Northern Spain,Sardina pilchardus,European pilchard,Spanish sardine,FAO website,europe/gfcm/GSAs_simplified,SECT_COD,GSA06,
STECF-SARDMEDGSA9-2006-2012-OSIO,SARDMEDGSA9,GFCM,STECF,Europe,Mediterranean-Black Sea,Ligurian and North Tyrrhenian Sea,GSA9,European pilchard Ligurian and North Tyrrhenian Sea,Sardina pilchardus,European pilchard,Spanish sardine,FAO website,europe/gfcm/GSAs_simplified,SECT_COD,GSA09,
STECF-SDOGBLKGSA29-1989-2014-OSIO,SDOGBLKGSA29,GFCM,STECF,Europe,Mediterranean-Black Sea,Black Sea,GSA29,Spiny Dogfish Black Sea,Squalus acanthias,Spiny dogfish,Picked dogfish,FAO website,europe/gfcm/GSAs_simplified,SECT_COD,GSA29,
STECF-SMSHRMPMEDGSA10-2011-2011-OSIO,SMSHRMPMEDGSA10,GFCM,STECF,Europe,Mediterranean-Black Sea,South Tyrrhenian Sea,GSA10,Spottail mantis shrimp South Tyrrhenian Sea,Squilla mantis,Spottail mantis shrimp,NA,FAO website,europe/gfcm/GSAs_simplified,SECT_COD,GSA10,
STECF-SMSHRMPMEDGSA17-18-2008-2014-OSIO,SMSHRMPMEDGSA17-18,GFCM,STECF,Europe,Mediterranean-Black Sea,"Adriatic Sea (GSA 17,18)",GSA17-18,Spottail mantis shrimp Adriatic Sea,Squilla mantis,Spottail mantis shrimp,NA,FAO website,europe/gfcm/GSAs_simplified,SECT_COD,"GSA17, GSA18",
STECF-SMSHRMPMEDGSA9-2004-2010-OSIO,SMSHRMPMEDGSA9,GFCM,STECF,Europe,Mediterranean-Black Sea,Ligurian and North Tyrrhenian Sea,GSA9,Spottail mantis shrimp Ligurian and North Tyrrhenian Sea,Squilla mantis,Spottail mantis shrimp,NA,FAO website,europe/gfcm/GSAs_simplified,SECT_COD,GSA09,
STECF-SMULLMEDGSA15-16-2002-2012-OSIO,SMULLMEDGSA15-16,GFCM,STECF,Europe,Mediterranean-Black Sea,"Malta Island and South of Sicily (GSA 15, 16)",GSA15-16,Surmullet Malta Island and South of Sicily,Mullus surmuletus,Surmullet,Striped red mullet,FAO website,europe/gfcm/GSAs_simplified,SECT_COD,"GSA15, GSA16",
STECF-SMULLMEDGSA5-2000-2012-OSIO,SMULLMEDGSA5,GFCM,STECF,Europe,Mediterranean-Black Sea,Balearic Island,GSA5,Surmullet Balearic Island,Mullus surmuletus,Surmullet,Striped red mullet,FAO website,europe/gfcm/GSAs_simplified,SECT_COD,GSA05,
STECF-SMULLMEDGSA9-2004-2010-OSIO,SMULLMEDGSA9,GFCM,STECF,Europe,Mediterranean-Black Sea,Ligurian and North Tyrrhenian Sea,GSA9,Surmullet Ligurian and North Tyrrhenian Sea,Mullus surmuletus,Surmullet,Striped red mullet,FAO website,europe/gfcm/GSAs_simplified,SECT_COD,GSA09,
STECF-SOLMEDGSA17-2006-2014-OSIO,SOLMEDGSA17,GFCM,STECF,Europe,Mediterranean-Black Sea,Northern Adriatic Sea,GSA17,Common Sole Northern Adriatic Sea,Solea solea,Common sole,NA,FAO website,europe/gfcm/GSAs_simplified,SECT_COD,GSA17,
STECF-SPRBLKGSA29-1995-2014-OSIO,SPRBLKGSA29,GFCM,STECF,Europe,Mediterranean-Black Sea,Black Sea,GSA29,Sprat Black Sea,Sprattus sprattus,Sprat,European sprat,FAO website,europe/gfcm/GSAs_simplified,SECT_COD,GSA29,
STECF-TBSKAMEDGSA29-2008-2014-OSIO,TBSKAMEDGSA29,GFCM,STECF,Europe,Mediterranean-Black Sea,Black Sea,GSA29,Thornback skate Black Sea,Raja clavata,Thornback skate,Thornback ray,FAO website,europe/gfcm/GSAs_simplified,SECT_COD,GSA29,
STECF-TURBLKGSA29-1950-2014-OSIO,TURBLKGSA29,GFCM,STECF,Europe,Mediterranean-Black Sea,Black Sea,GSA29,Turbot Black Sea,Psetta maxima,Turbot,NA,FAO website,europe/gfcm/GSAs_simplified,SECT_COD,GSA29,
STECF-WHITMEDGSA29-1994-2014-OSIO,WHITMEDGSA29,GFCM,STECF,Europe,Mediterranean-Black Sea,Black Sea,GSA29,Whiting Black Sea,Merlangius merlangus,Whiting,NA,FAO website,europe/gfcm/GSAs_simplified,SECT_COD,GSA29,
SWFSC-CALSCORPSCAL-1990-2005-STANTON,CALSCORPSCAL,NMFS,SWFSC,USA,US West Coast,Southern California,SCAL,California scorpionfish Southern California,Scorpaena guttata,California scorpionfish,NA,NOAA EFH GIS Data Inventory,usa/noaa_wc_efh/noaa_wc_groundfish_efh_cmf.shp,use whole,use whole,Clip to CA-South
SWFSC-CMACKPCOAST-1929-2008-PINSKY,CMACKPCOAST,NMFS,SWFSC,USA,US West Coast,Pacific Coast,PCOAST,Pacific chub mackerel Pacific Coast,Scomber japonicus,Chub mackerel,Pacific chub mackerel,NOAA EFH GIS Data Inventory,usa/noaa_wc_efh/Coastal_Pelagic_Species.shp,use whole,use whole,Entire West Coast
SWFSC-DSOLEPCOAST-1910-2011-STACHURA,DSOLEPCOAST,NMFS,SWFSC,USA,US West Coast,Pacific Coast,PCOAST,Dover sole Pacific Coast,Microstomus pacificus,Dover sole,NA,NOAA EFH GIS Data Inventory,usa/noaa_wc_efh/noaa_wc_groundfish_efh_cmf.shp,use whole,use whole,Entire West Coast
SWFSC-GOPHERSPCOAST-1965-2005-STANTON,GOPHERSPCOAST,NMFS,SWFSC,USA,US West Coast,Southern Pacific Coast,SPCOAST,Gopher rockfish Southern Pacific Coast,Sebastes carnatus,Gopher rockfish,NA,NOAA EFH GIS Data Inventory,usa/noaa_wc_efh/noaa_wc_groundfish_efh_cmf.shp,use whole,use whole,Clip to CA-North
SWFSC-GRSPROCKNCAL-1916-2010-STACHURA,GRSPROCKNCAL,NMFS,SWFSC,USA,US West Coast,Pacific Coast,PCOAST,Greenspotted rockfish Pacific Coast North,Sebastes chlorostictus,Greenspotted rockfish,,NOAA EFH GIS Data Inventory,usa/noaa_wc_efh/noaa_wc_groundfish_efh_cmf.shp,use whole,use whole,Clip to CA-North
SWFSC-GRSPROCKSCAL-1916-2010-STACHURA,GRSPROCKSCAL,NMFS,SWFSC,USA,US West Coast,Pacific Coast,PCOAST,Greenspotted rockfish Pacific Coast South,Sebastes chlorostictus,Greenspotted rockfish,,NOAA EFH GIS Data Inventory,usa/noaa_wc_efh/noaa_wc_groundfish_efh_cmf.shp,use whole,use whole,Clip to CA-South
SWFSC-SARDPCOAST-1981-2007-PINSKY,SARDPCOAST,NMFS,SWFSC,USA,US West Coast,Pacific Coast,PCOAST,Pacific sardine Pacific Coast,Sardinops sagax,Sardine,Pacific sardine,NOAA EFH GIS Data Inventory,usa/noaa_wc_efh/Coastal_Pelagic_Species.shp,use whole,use whole,Entire West Coast
SWFSC-SBELLYROCKPCOAST-1950-2005-BRANCH,SBELLYROCKPCOAST,NMFS,SWFSC,USA,US West Coast,Pacific Coast,PCOAST,Shortbelly rockfish Pacific Coast,Sebastes jordani,Shortbelly rockfish,NA,NOAA EFH GIS Data Inventory,usa/noaa_wc_efh/noaa_wc_groundfish_efh_cmf.shp,use whole,use whole,Clip to Conception/Monterey
SWFSC-STFLOUNNPCOAST-1970-2005-STANTON,STFLOUNNPCOAST,NMFS,SWFSC,USA,US West Coast,Northern Pacific Coast,NPCOAST,Starry flounder Northern Pacific Coast,Platichthys stellatus,Starry flounder,NA,NOAA EFH GIS Data Inventory,usa/noaa_wc_efh/noaa_wc_groundfish_efh_cmf.shp,use whole,use whole,Clip to WA/OR
SWFSC-STFLOUNSPCOAST-1970-2005-STANTON,STFLOUNSPCOAST,NMFS,SWFSC,USA,US West Coast,Southern Pacific Coast,SPCOAST,Starry flounder Southern Pacific Coast,Platichthys stellatus,Starry flounder,NA,NOAA EFH GIS Data Inventory,usa/noaa_wc_efh/noaa_wc_groundfish_efh_cmf.shp,use whole,use whole,Clip to CA-North
TAFI-TASGIANTCRABTAS-1990-2007-JENSEN,TASGIANTCRABTAS,AFMA,TAFI,Australia,Australia,Tasmania,TAS,Tasmanian giant crab Tasmania,Pseudocarcinus gigas,Tasmanian giant crab,NA,Digitized from image,australia/processed/tasmanian_giant_crabs_dissolve.shp,NA,digitized fishery from image,
TRAC-HADGB-1969-2014-WATSON,HADGB,TRAC,TRAC,North Atlantic,US East Coast,Georges Bank,5Z,Haddock Georges Bank,Melanogrammus aeglefinus,Haddock,NA,NEFSC Statistical Areas,usa/nefsc_stat_areas/Statistical_Areas_2010_withNames.shp,Id,"551, 552, 561, 562","""Eastern GB = NAFO 5Ze j/m or USA 551, 552, 561, 562"""
TRAC-YELLGB-1935-2015-WATSON,YELLGB,TRAC,TRAC,North Atlantic,US East Coast,Georges Bank,5Z,Yellowtail flounder Georges Bank,Limanda ferruginea,Yellowtail flounder,NA,NEFSC Statistical Areas,usa/nefsc_stat_areas/Statistical_Areas_2010_withNames.shp,Id,"522, 525, 551, 552, 561, 562","""NAFO 5Zj, 5Zm, 5Zn, 5Zh or USA 522, 525, 551, 552, 561, 562"""
VNIRO-WPOLLNAVAR-1994-2004-JENSEN,WPOLLNAVAR,RFFA,VNIRO,Russia,Russia Japan,Navarinsky,NAVAR,Walleye Pollock Navarinsky,Theragra chalcogramma,Walleye pollock,NA,Digitized Russian Pollock fishing areas,russia/russia_walleye_pollock_erase.shp,STOCK,Navarinsky,
VNIRO-WPOLLNSO-1963-2012-CHING,WPOLLNSO,RFFA,VNIRO,Russia,Russia Japan,Northern Sea of Okhotsk,NSO,Walleye pollock Northern Sea of Okhotsk,Theragra chalcogramma,Walleye pollock,NA,Digitized Russian Pollock fishing areas,russia/russia_walleye_pollock_erase.shp,STOCK,Sea of Okhotsk,
VNIRO-WPOLLWBS-1970-2008-CHING,WPOLLWBS,RFFA,VNIRO,Russia,Russia Japan,Western Bering Sea,WBS,Walleye pollock Western Bering Sea,Theragra chalcogramma,Walleye pollock,NA,Digitized Russian Pollock fishing areas,russia/russia_walleye_pollock_erase.shp,STOCK,Western Bering Sea,
WDFW-PGEODWA-1980-2010-HIVELY,PGEODWA,WASTATE,WDFW,USA,US West Coast,Washington,WA,Pacific Geoduck Washington,Panopea generosa,Pacific Geoduck,NA,Digitized boundary from stock assessment,usa/digitized/pacific_geoduck_erase1.shp,ZONE,Digitized boundary from stock assessment,Digitized boundary from stock assessment
WGBFAS-CODBA2224-1965-2012-CHING,CODBA2224,ICES,WGBFAS,Europe,European Union,Western Baltic,22-24,Atlantic cod Baltic Areas 22 and 24,Gadus morhua,Atlantic cod,NA,ICES website,europe/ices/ices_areas.shp,ICES_area,"22, 23, 24",
WGBFAS-CODBA2532-1966-2012-CHING,CODBA2532,ICES,WGBFAS,Europe,European Union,Eastern Baltic,25-32,Atlantic cod Baltic Areas 25-32,Gadus morhua,Atlantic cod,NA,ICES website,europe/ices/ices_areas.shp,ICES_area,"25, 26, 27, 28-1, 28-2, 29, 30, 31, 32",
WGBFAS-CODIS-1968-2010-NEUBAUER,CODIS,ICES,WGBFAS,Europe,European Union,Irish Sea,VIIa,Atlantic cod Irish Sea,Gadus morhua,Atlantic cod,NA,ICES website,europe/ices/ices_areas.shp,ICES_area,VIIa,
WGBFAS-CODKAT-1971-2012-CHING,CODKAT,ICES,WGBFAS,Europe,European Union,Kattegat and Skagerrak,IIIa,Atlantic cod Kattegat,Gadus morhua,Atlantic cod,NA,ICES website,europe/ices/ices_areas.shp,ICES_area,IIIa,
WGBFAS-CODVIIek-1971-2012-CHING,CODVIIek,ICES,WGBFAS,Europe,European Union,Celtic Sea,VIIe-k,Atlantic Cod Celtic Sea,Gadus morhua,Atlantic cod,NA,ICES website,europe/ices/ices_areas.shp,ICES_area,"VIIe, VIIf, VIIg, VIIh, VIIj1, VIIj2, VIIk1, VIIk2",
WGBFAS-HERR2532-1973-2011-NEUBAUER,HERR2532,ICES,WGBFAS,Europe,European Union,Eastern Baltic,25-32,Herring ICES 25-32,Clupea harengus,Herring,Atlantic herring,ICES website,europe/ices/ices_areas.shp,ICES_area,"25, 26, 27, 28-1, 28-2, 29, 30, 31, 32",
WGBFAS-HERR30-1972-2011-NEUBAUER,HERR30,ICES,WGBFAS,Europe,European Union,Bothnian Sea,30,Herring ICES 30,Clupea harengus,Herring,Atlantic herring,ICES website,europe/ices/ices_areas.shp,ICES_area,30,
WGBFAS-HERR31-1979-2010-NEUBAUER,HERR31,ICES,WGBFAS,Europe,European Union,Bothnian Bay,31,Herring ICES 31,Clupea harengus,Herring,Atlantic herring,ICES website,europe/ices/ices_areas.shp,ICES_area,31,
WGBFAS-HERRRIGA-1976-2011-NEUBAUER,HERRRIGA,ICES,WGBFAS,Europe,European Union,Gulf of Riga East of Gotland,28,Herring ICES 28,Clupea harengus,Herring,Atlantic herring,ICES website,europe/ices/ices_areas.shp,ICES_area,"28-1, 28-2",
WGBFAS-SPRAT22-32-1973-2011-NEUBAUER,SPRAT22-32,ICES,WGBFAS,Europe,European Union,Baltic Areas 22-32,22-32,Sprat ICES Baltic Areas 22-32,Sprattus sprattus,Sprat,European sprat,ICES website,europe/ices/ices_areas.shp,ICES_area,"22, 23, 24, 25, 26, 27, 28-1, 28-2, 29, 30, 31, 32",
WGCSE-CODVIa-1981-2012-CHING,CODVIa,ICES,WGCSE,Europe,European Union,West of Scotland,VIa,Atlantic cod West of Scotland,Gadus morhua,Atlantic cod,NA,ICES website,europe/ices/ices_areas.shp,ICES_area,VIa,
WGHMM-FMEG8c9a-1986-2010-NEUBAUER,FMEG8c9a,ICES,WGHMM,Europe,European Union,VIIIc-IXa,VIIIc-IXa,Fourspotted megrim ICES VIIIc-IXa,Lepidorhombus boscii,Fourspotted megrim,NA,ICES website,europe/ices/ices_areas.shp,ICES_area,"VIIIc, IXa",
WGHMM-HAKENRTN-1961-2011-CHING,HAKENRTN,ICES,WGHMM,Europe,European Union,IIIa-IV-VI-VII-VIIIabd,IIIa-IV-VI-VII-VIIIabd,Hake Northeast Atlantic North,Merluccius merluccius,Hake,European hake,ICES website,europe/ices/ices_areas.shp,ICES_area,"IIIa, IVa, IVb, IVc, VIa, VIb1, VIb2, VIIa, VIIb, VIIc1, VIIc2, VIId, VIIe, VIIf, VIIg, VIIh, VIIj1, VIIj2, VIIk1, VIIk2, VIIIa, VIIIb, VIIId1, VIIId2",
WGHMM-HAKESOTH-1972-2011-CHING,HAKESOTH,ICES,WGHMM,Europe,European Union,VIIIc-IXa,VIIIc-IXa,Hake Northeast Atlantic South,Merluccius merluccius,Hake,European hake,ICES website,europe/ices/ices_areas.shp,ICES_area,"VIIIc, IXa",
WGHMM-MEG8c9a-1985-2010-NEUBAUER,MEG8c9a,ICES,WGHMM,Europe,European Union,VIIIc-IXa,VIIIc-IXa,Megrim ICES VIIIc-IXa,Lepidorhombus whiffiagonis,Megrim,NA,ICES website,europe/ices/ices_areas.shp,ICES_area,"VIIIc, IXa",
WGHMM-SOLEVIII-1982-2011-NEUBAUER,SOLEVIII,ICES,WGHMM,Europe,European Union,Bay of Biscay,VIII,common European sole Bay of Biscay,Solea vulgaris,common European sole,common sole,ICES website,europe/ices/ices_areas.shp,ICES_area,"VIIIa, VIIIb, VIIIc, VIIId1, VIIId2, VIIIe1, VIIIe2",
WGMHSA-ANCHOBAYB-1986-2007-JENNINGS,ANCHOBAYB,ICES,WGMHSA,Europe,European Union,Bay of Biscay,VIII,Anchovy ICES VIII,Engraulis encrasicolus,Anchovy,European anchovy,ICES website,europe/ices/ices_areas.shp,ICES_area,"VIIIa, VIIIb, VIIIc, VIIId1, VIIId2, VIIIe1, VIIIe2",
WGMHSA-MACKNEICES-1972-2007-JENNINGS,MACKNEICES,ICES,WGMHSA,Europe,European Union,IIa-IIIabd-IV-Vb-VI-VII-VIIIabcde-XII-XIV-Ixa,IIa-IIIabd-IV-Vb-VI-VII-VIIIabcde-XII-XIV-Ixa,Mackerel ICES Northeast Atlantic,Scomber scombrus,Mackerel,Atlantic mackerel,ICES website,europe/ices/ices_areas.shp,ICES_area,"IIa1, IIa2, IIIa, IVa, IVb, IVc, Vb1a, Vb1b, Vb2, VIa, VIb1, VIb2, VIIa, VIIb, VIIc1, VIIc2, VIId, VIIe, VIIf, VIIg, VIIh, VIIj1, VIIj2, VIIk1, VIIk2, VIIIa, VIIIb, VIIIc, VIIId1, VIIId2, VIIIe1, VIIIe2, XIIa1, XIIa2, XIIa3, XIIa4, XIIb, XIIc, XIVa, XIVb1, XIVb2, IXa",
WGMHSA-SARDPVIIIc-IXa-1978-2011-NEUBAUER,SARDPVIIIc-IXa,ICES,WGMHSA,Europe,European Union,VIIIc-IXa,VIIIc-IXa,European pilchard ICES VIIIc-IXa,Sardina pilchardus,European pilchard,Spanish sardine,ICES website,europe/ices/ices_areas.shp,ICES_area,"VIIIc, IXa",
WGNPBW-BWHITNEA-1980-2012-CHING,BWHITNEA,ICES,WGNPBW,Europe,European Union,Northeast Atlantic,I-II-III-IV-V-VI-VII-VIII-IX-XII-XIV,Blue Whiting Northeast Atlantic,Micromesistius poutassou,Blue whiting,NA,ICES website,europe/ices/ices_areas.shp,ICES_area,"Ia, Ib, IIa1, IIa2, IIb1, IIb2, IIIa, IVa, IVb, IVc, Va1, Va2, Vb1a, Vb1b, Vb2, VIa, VIb1, VIb2, VIIa, VIIb, VIIc1, VIIc2, VIId, VIIe, VIIf, VIIg, VIIh, VIIj1, VIIj2, VIIk1, VIIk2, VIIIa, VIIIb, VIIIc, VIIId1, VIIId2, VIIIe1, VIIIe2, IXa, IXb1, IXb2, XIIa1, XIIa2, XIIa3, XIIa4, XIIb, XIIc, XIVa, XIVb1, XIVb2",
WGNSDS-HADIS-1972-2012-CHING,HADIS,ICES,WGNSDS,Europe,European Union,Irish Sea,VIIa,Haddock Irish Sea,Melanogrammus aeglefinus,Haddock,NA,ICES website,europe/ices/ices_areas.shp,ICES_area,VIIa,
WGNSDS-HADVIa-1977-2012-CHING,HADVIa,ICES,WGNSDS,Europe,European Union,West of Scotland,VIa,Haddock West of Scotland,Melanogrammus aeglefinus,Haddock,NA,ICES website,europe/ices/ices_areas.shp,ICES_area,VIa,
WGNSDS-PLAICIS-1992-2010-NEUBAUER,PLAICIS,ICES,WGNSDS,Europe,European Union,Irish Sea,VIIa,European Plaice Irish Sea,Pleuronectes platessa,European Plaice,Plaice,ICES website,europe/ices/ices_areas.shp,ICES_area,VIIa,
WGNSDS-SOLEIS-1968-2011-NEUBAUER,SOLEIS,ICES,WGNSDS,Europe,European Union,Irish Sea,VIIa,common European sole Irish Sea,Solea vulgaris,common European sole,common sole,ICES website,europe/ices/ices_areas.shp,ICES_area,VIIa,
WGNSDS-WHITVIa-1980-2012-CHING,WHITVIa,ICES,WGNSDS,Europe,European Union,West of Scotland,VIa,Whiting ICES VIa,Merlangius merlangus,Whiting,NA,ICES website,europe/ices/ices_areas.shp,ICES_area,VIa,
WGNSSK-CODNS-1962-2011-NEUBAUER,CODNS,ICES,WGNSSK,Europe,European Union,North Sea,IV,Atlantic cod North Sea,Gadus morhua,Atlantic cod,NA,ICES website,europe/ices/ices_areas.shp,ICES_area,"IVa, IVb, IVc",
WGNSSK-HADNS-IIIa-1963-2012-CHING,HADNS-IIIa,ICES,WGNSSK,Europe,European Union,IIIa and North Sea,IIIa-IV,Haddock ICES IIIa and North Sea,Melanogrammus aeglefinus,Haddock,NA,ICES website,europe/ices/ices_areas.shp,ICES_area,"IIIa, IVa, IVb, IVc",
WGNSSK-HADROCK-1990-2012-CHING,HADROCK,ICES,WGNSSK,Europe,European Union,Rockall Bank,VIb,Haddock Rockall Bank,Melanogrammus aeglefinus,Haddock,NA,ICES website,europe/ices/ices_areas.shp,ICES_area,"VIb1, VIb2",
WGNSSK-NPOUTNS-1983-2011-NEUBAUER,NPOUTNS,ICES,WGNSSK,Europe,European Union,North Sea,IV,Norway pout North Sea,Trisopterus esmarkii,Norway Pout,NA,ICES website,europe/ices/ices_areas.shp,ICES_area,"IVa, IVb, IVc",
WGNSSK-PLAIC7d-1979-2010-NEUBAUER,PLAIC7d,ICES,WGNSSK,Europe,European Union,Eastern English Channel,VIId,European Plaice ICES VIId,Pleuronectes platessa,European Plaice,Plaice,ICES website,europe/ices/ices_areas.shp,ICES_area,VIId,
WGNSSK-PLAICIIIa-1976-2006-MINTO,PLAICIIIa,ICES,WGNSSK,Europe,European Union,Kattegat and Skagerrak,IIIa,European Plaice ICES IIIa,Pleuronectes platessa,European Plaice,Plaice,ICES website,europe/ices/ices_areas.shp,ICES_area,IIIa,
WGNSSK-PLAICNS-1956-2010-NEUBAUER,PLAICNS,ICES,WGNSSK,Europe,European Union,North Sea,IV,European Plaice North Sea,Pleuronectes platessa,European Plaice,Plaice,ICES website,europe/ices/ices_areas.shp,ICES_area,"IVa, IVb, IVc",
WGNSSK-POLLNS-VI-IIIa-1964-2012-CHING,POLLNS-VI-IIIa,ICES,WGNSSK,Europe,European Union,"IIIa, VI and North Sea",IIIa-IV-VI,"Pollock ICES IIIa, VI and North Sea",Pollachius virens,Pollock,Saithe,ICES website,europe/ices/ices_areas.shp,ICES_area,"IIIa, IVa, IVb, IVc, VIa, VIb1, VIb2",
WGNSSK-SEELNSSA1-1983-2011-NEUBAUER,SEELNSSA1,ICES,WGNSSK,Europe,European Union,North Sea,IV,Sandeel North Sea Area 1,Ammodytes marinus,Sand eel,Sand lance,ICES website,europe/ices/ices_areas.shp,ICES_area,Iva,
WGNSSK-SEELNSSA2-1983-2011-NEUBAUER,SEELNSSA2,ICES,WGNSSK,Europe,European Union,North Sea,IV,Sandeel North Sea Area 2,Ammodytes marinus,Sand eel,Sand lance,ICES website,europe/ices/ices_areas.shp,ICES_area,Ivb,
WGNSSK-SEELNSSA3-1983-2011-NEUBAUER,SEELNSSA3,ICES,WGNSSK,Europe,European Union,North Sea,IV,Sandeel North Sea Area 3,Ammodytes marinus,Sand eel,Sand lance,ICES website,europe/ices/ices_areas.shp,ICES_area,IVc,
WGNSSK-SOLEIIIa-1982-2011-NEUBAUER,SOLEIIIa,ICES,WGNSSK,Europe,European Union,Kattegat and Skagerrak,IIIa,common European sole ICES Kattegat and Skagerrak,Solea vulgaris,common European sole,common sole,ICES website,europe/ices/ices_areas.shp,ICES_area,IIIa,
WGNSSK-SOLENS-1956-2010-NEUBAUER,SOLENS,ICES,WGNSSK,Europe,European Union,North Sea,IV,common European sole North Sea,Solea vulgaris,common European sole,common sole,ICES website,europe/ices/ices_areas.shp,ICES_area,"IVa, IVb, IVc",
WGNSSK-SOLEVIId-1981-2011-NEUBAUER,SOLEVIId,ICES,WGNSSK,Europe,European Union,Eastern English Channel,VIId,common European sole ICES VIId,Solea vulgaris,common European sole,common sole,ICES website,europe/ices/ices_areas.shp,ICES_area,VIId,
WGNSSK-WHITNS-VIId-1989-2012-CHING,WHITNS-VIId,ICES,WGNSSK,Europe,European Union,IV and VIId,IV-VIId,Whiting NS-VIId,Merlangius merlangus,Whiting,NA,ICES website,europe/ices/ices_areas.shp,ICES_area,"IVa, IVb, IVc, VIId",
WGSSDS-HADVIIb-k-1987-2012-CHING,HADVIIb-k,ICES,WGSSDS,Europe,European Union,ICES VIIb-k,VIIb-k,Haddock ICES VIIb-k,Melanogrammus aeglefinus,Haddock,NA,ICES website,europe/ices/ices_areas.shp,ICES_area,"VIIb, VIIc1, VIIc2, VIId, VIIe, VIIf, VIIg, VIIh, VIIj1, VIIj2, VIIk1, VIIk2",
WGSSDS-PLAICCELT-1992-2010-NEUBAUER,PLAICCELT,ICES,WGSSDS,Europe,European Union,Celtic Sea,VIIf-g,European Plaice ICES VIIf-g,Pleuronectes platessa,European Plaice,Plaice,ICES website,europe/ices/ices_areas.shp,ICES_area,"VIIf, VIIg",
WGSSDS-PLAICECHW-1979-2010-NEUBAUER,PLAICECHW,ICES,WGSSDS,Europe,European Union,Western English Channel,VIIe,European Plaice ICES VIIe,Pleuronectes platessa,European Plaice,Plaice,ICES website,europe/ices/ices_areas.shp,ICES_area,VIIe,
WGSSDS-SOLECS-1970-2011-NEUBAUER,SOLECS,ICES,WGSSDS,Europe,European Union,Celtic Sea,VIIf-g,common European sole Celtic Sea,Solea vulgaris,common European sole,common sole,ICES website,europe/ices/ices_areas.shp,ICES_area,"VIIf, VIIg",
WGSSDS-SOLEVIIe-1968-2010-NEUBAUER,SOLEVIIe,ICES,WGSSDS,Europe,European Union,Western English Channel,VIIe,common European sole Western English Channel,Solea vulgaris,common European sole,common sole,ICES website,europe/ices/ices_areas.shp,ICES_area,VIIe,
WGSSDS-WHITVIIek-1981-2012-CHING,WHITVIIek,ICES,WGSSDS,Europe,European Union,Celtic Sea,VIIe-k,Whiting ICES VIIe-k,Merlangius merlangus,Whiting,NA,ICES website,europe/ices/ices_areas.shp,ICES_area,"VIIe, VIIf, VIIg, VIIh, VIIj1, VIIj2, VIIk1, VIIk2",
WGWIDE-HERRNORSS-1988-2014-HIVELY,HERRNORSS,ICES,WGWIDE,Europe,Europe non EU,IIab-Vab-XIVa,IIab-Vab-XIVa,Norwegian Spring Spawning Herring,Clupea harengus,Herring,Atlantic herring,ICES website,europe/ices/ices_areas.shp,ICES_area,"IIa1, IIa2, IIb1, IIb2, Va1, Va2, Vb1a, Vb1b, Vb2, XIVa",
